booth_id,booth_name,address,city,country,latitude,longitude,severity,problem_categories
"115bb1fd-2aab-403e-a72f-ba382225fae3","Foto Arsenal Wien","[NO ADDRESS]","Vienna","Austria",48.1841083,16.3917738,"CRITICAL","MISSING_ADDRESS"
"e5a5c21c-a027-4a0b-b453-29facb2971df","Mutiny Information Cafe","[NO ADDRESS]","Denver","USA",39.6534477,-104.987856,"CRITICAL","MISSING_ADDRESS"
"72c4c56c-6776-40f2-8d70-b3c64955e4ea","Manhattan Mall","Sixth Avenue and 33rd Street","New York","United States",,,"CRITICAL","MISSING_COORDINATES"
"8f82379e-f76b-4998-94aa-b714e9ff4a3a","Sainsbury's","51 Townmead Road","Fulham, London","United States",,,"CRITICAL","MISSING_COORDINATES"
"8491b77f-4d23-4584-9aa2-08c70d8d5311","Bonanza Bus Station","1 Bonanza Way","Providence","United States",,,"CRITICAL","MISSING_COORDINATES"
"43f24f68-5d8f-48a9-bbc1-1ddfc5183b2e","Eastview Mall","7979 Rt. 96","Victor","United States",,,"CRITICAL","MISSING_COORDINATES"
"3c480f52-fe70-48da-acf0-3fbb01927c20","Lucky Strike","5555 St. Louis Mills Boulevard","Hazelwood","United States",,,"CRITICAL","MISSING_COORDINATES"
"2e35142f-9dfc-403e-a5ef-d6658697d086","Bloor-Yonge Station","Bloor St. W and Yonge St.","Toronto","United States",,,"CRITICAL","NO_STREET_NUMBER; MISSING_COORDINATES"
"31d4715e-b4de-407f-8ee7-4d53f1aff2c1","Union Station","65 Front St. W.","Toronto","United States",,,"CRITICAL","MISSING_COORDINATES"
"08b38203-10a0-47ba-bc31-170dfc117920","Toronto Eaton Centre I","250 Yonge Street","Toronto","United States",,,"CRITICAL","MISSING_COORDINATES"
"528ba5db-af9e-455f-88c5-f6b93dfdec5a","Toronto Eaton Centre II","250 Yonge Street","Toronto","United States",,,"CRITICAL","MISSING_COORDINATES"
"7712b2ff-e9da-450e-a40e-b70e557fc5b4","Bay Centre I","1150 Douglas Street","Victoria","United States",,,"CRITICAL","MISSING_COORDINATES"
"aec3a91f-fcae-40b1-b25d-925db04bf4d1","Bay Centre II","1150 Douglas Street","Victoria","United States",,,"CRITICAL","MISSING_COORDINATES"
"5394a019-8274-4ee7-81da-d0676c96efe3","Pacific Central Station","1150 Station Street","Vancouver","United States",,,"CRITICAL","MISSING_COORDINATES"
"ec7351ea-e4d5-4cae-a123-c974c35dae5f","Pacific Centre","609 Granville Street","Vancouver","United States",,,"CRITICAL","MISSING_COORDINATES"
"2ac682db-c9ba-4bc7-8685-92a9ad34ee21","Riga International Airport","[NO ADDRESS]","Riga","United States",,,"CRITICAL","MISSING_ADDRESS; MISSING_COORDINATES"
"274f6cc3-f6f2-4ba0-a940-6b9a5cd767fc","Coquitlam Centre","2929 Barnet Highway","Coquitlam","United States",,,"CRITICAL","MISSING_COORDINATES"
"85d06028-9be8-4d19-b325-388a55a1555f","Kastanienallee II","Kastanienallee 100","Berlin","United States",,,"CRITICAL","MISSING_COORDINATES"
"2a353c51-c0d1-4da5-991b-425ba412ee1f","Lougheed Town Centre","9855 Austin Rd","Burnaby","United States",,,"CRITICAL","MISSING_COORDINATES"
"a52e4690-3945-42ff-8083-34e96a0ef8f5","Lenin's Quay","[NO ADDRESS]","Alushta","United States",,,"CRITICAL","MISSING_ADDRESS; MISSING_COORDINATES"
"425faf50-d5df-4c38-9694-c7c9d4a5dbed","Hidropark Metro Station","[NO ADDRESS]","Kiev","United States",,,"CRITICAL","MISSING_ADDRESS; MISSING_COORDINATES"
"cb2b406d-9963-4c32-9003-d9b4c932b65f","Globus","[NO ADDRESS]","Kiev","United States",,,"CRITICAL","MISSING_ADDRESS; MISSING_COORDINATES"
"c340644b-b25d-439f-9e1f-39b92ccde8ec","Primorsky Park","[NO ADDRESS]","Odessa","United States",,,"CRITICAL","MISSING_ADDRESS; MISSING_COORDINATES"
"7a6bb6df-3b41-42ee-92c6-9fc59f6bc276","Rosemont Metro","420 Boulevard Rosemont","Montreal","United States",,,"CRITICAL","MISSING_COORDINATES"
"b82f6a20-9fa4-43fd-8a49-20431335c00f","Edmonton City Centre","803-10088 102 Avenue NW","Edmonton","United States",,,"CRITICAL","MISSING_COORDINATES"
"3f406edf-9040-42ce-bd27-351962c5664f","Bonnie Doon Shopping Centre","5 Bonnie Doon Shopping Centre","Edmonton","United States",,,"CRITICAL","MISSING_COORDINATES"
"b3f76496-730a-4fc8-a4b6-67fc22a4ee83","Deerfoot Mall","901 64 Avenue NE","Calgary","United States",,,"CRITICAL","MISSING_COORDINATES"
"c6837627-cba5-45ae-a9f3-36ff14893fb0","Chinook Centre","210-6455 MacLeod Trail SW","Calgary","United States",,,"CRITICAL","MISSING_COORDINATES"
"a7fb1f97-2159-4a1c-98c3-f2aa89d6df35","Calgary Greyhound Station","850 - 16th St.","Calgary","United States",,,"CRITICAL","MISSING_COORDINATES"
"26cee270-6d8b-440e-83bb-664841a3ef78","Eau Claire Market","229-200 Barclay Parade SW","Calgary","United States",,,"CRITICAL","MISSING_COORDINATES"
"53ec3e9a-1413-4393-bd19-861fa611ac80","North Hill Centre","1632  14 Avenue NW","Calgary","United States",,,"CRITICAL","MISSING_COORDINATES"
"f287be1d-a2cb-4186-87b8-01c451c871d6","Northland Village Mall I","5111 Northland Drive NW","Calgary","United States",,,"CRITICAL","MISSING_COORDINATES"
"9a7d5a85-b09b-4853-b1e4-f6780bdec09a","Northland Village Mall II","5111 Northland Dr NW","Calgary","United States",,,"CRITICAL","MISSING_COORDINATES"
"37103a36-9465-42be-aef8-19cfbcb44465","Broadway Shopping Centre II","3/1 Bay St.","Glebe","United States",,,"CRITICAL","MISSING_COORDINATES"
"0bed9017-f2b3-4a22-bd9d-740835543b00","Mill Woods Town Centre","331 66 St. NW","Edmonton","United States",,,"CRITICAL","MISSING_COORDINATES"
"b43d2af7-9d84-4bbc-9240-3a12f1bfb0f0","Dufferin Mall","900 Dufferin St.","Toronto","United States",,,"CRITICAL","MISSING_COORDINATES"
"d8d8af60-67f8-4b17-b0a8-e45d07259339","Little Anthony's Diner","7010 East Broadway Blvd.","Tucson","United States",,,"CRITICAL","MISSING_COORDINATES"
"da9f6c40-5fb3-4b00-a56d-e78cb5284947","Enchanted Island","1202 W. Encanto Blvd.","Phoenix","United States",,,"CRITICAL","MISSING_COORDINATES"
"e0387fdd-a71b-415b-b212-bc1b0e4bb33e","The Centre","3510 8th Street East","Saskatoon","United States",,,"CRITICAL","MISSING_COORDINATES"
"aa64f1d6-869e-4ae9-93dc-9151fa50f5c0","Berri-Uqam Metro","1470, rue St-Denis","Montreal","United States",,,"CRITICAL","MISSING_COORDINATES"
"57335a86-277f-4b25-89a5-a82183f58d91","Eaton Centre","705 Rue Sainte Catherine Ouest","Montreal","United States",,,"CRITICAL","MISSING_COORDINATES"
"c7487893-b9d2-47fe-837d-b61222a3aef9","Station Centrale","505 Blvd. de Maisonneuve Est","Montreal","United States",,,"CRITICAL","MISSING_COORDINATES"
"fb97b913-d706-4a0e-a574-7fa5b837c6a0","Laurier Metro","5113 Rue Rivard","Montreal","United States",,,"CRITICAL","MISSING_COORDINATES"
"afcb14bb-773b-43b9-8589-174e4e2e19ad","McGill Metro","2055 Rue University","Montreal","United States",,,"CRITICAL","MISSING_COORDINATES"
"990fd864-4a88-423f-bd7f-eb021d0f8844","Peel Metro","1115 Boul. de Maisonneuve Ouest","Montreal","United States",,,"CRITICAL","MISSING_COORDINATES"
"1d0ef364-1c19-4a8b-b3e1-d571b0358cf5","St. Laurent Centre","1200 St Laurent Blvd","Ottawa","United States",,,"CRITICAL","MISSING_COORDINATES"
"58f22a74-b007-4a95-8abb-7b8a465efa24","Place-des-Artes Metro","1555 Rue Jeanne-Mance","Montreal","United States",,,"CRITICAL","MISSING_COORDINATES"
"2094fb99-cdbb-46fa-84cf-5d9f43a4c85a","Bayshore Shopping Centre","100 Bayshore Drive","Ottawa","United States",,,"CRITICAL","MISSING_COORDINATES"
"77c392bb-969f-420f-861e-7860bac3da2b","Billings Bridge Centre","2277 Riverside Drive East","Ottawa","United States",,,"CRITICAL","MISSING_COORDINATES"
"85cc38d0-7380-4ac2-badf-0e1e7b986105","Ottawa Bus Central Station","265 Catherine Street","Ottawa","United States",,,"CRITICAL","MISSING_COORDINATES"
"7eb3e5fb-2898-49ad-ac0d-c576a3a8b696","Galleria Shopping Centre","1245 Dupont Street","Toronto","United States",,,"CRITICAL","MISSING_COORDINATES"
"b5ca6c13-a7f6-4742-bdde-0bbfb2a2448d","West Edmonton Mall II","1755 170 Street NW","Edmonton","United States",,,"CRITICAL","MISSING_COORDINATES"
"4401e431-a825-404a-ba2f-af71deac6340","West Edmonton Mall III","1755 170 Street NW","Edmonton","United States",,,"CRITICAL","MISSING_COORDINATES"
"00cae525-629f-4ffb-8748-b2356b729c91","West Edmonton Mall IV","1755 170 Street NW","Edmonton","United States",,,"CRITICAL","MISSING_COORDINATES"
"dd5686b1-88c6-4652-80b0-c2993719d2e0","Greyhound Bus Station","10324 103 Street","Edmonton","United States",,,"CRITICAL","MISSING_COORDINATES"
"580d3e35-f3e4-4c6c-adc7-8395918a1436","Southpaw","125 5th Ave","Brooklyn","United States",,,"CRITICAL","MISSING_COORDINATES"
"00431cbe-9c32-41de-8556-cc2c036667e6","Circus Circus #1","2880 Las Vegas Boulevard South","Las Vegas","United States",,,"CRITICAL","MISSING_COORDINATES"
"b807284a-7fcd-4404-beab-77e99cdffc5c","Circus Circus #2","2880 Las Vegas Boulevard South","Las Vegas","United States",,,"CRITICAL","MISSING_COORDINATES"
"848616c8-996b-42a8-a8fe-67dc0250d105","Circus Circus #4","2880 Las Vegas Boulevard South","Las Vegas","United States",,,"CRITICAL","MISSING_COORDINATES"
"b4f294f6-bd79-4846-b69a-be5311b9ca7c","Mayfair Shopping Centre","221-3147 Douglas Street","Victoria","United States",,,"CRITICAL","MISSING_COORDINATES"
"836d49b1-0a80-472a-bf91-563b349d9aeb","Bathurst Station","565 Bloor Street West","Toronto","United States",,,"CRITICAL","MISSING_COORDINATES"
"bf6f577c-7f8f-4944-9270-52364cbb9921","Myer Centre Adelaide II","22 Rundle Mall","Adelaide","United States",,,"CRITICAL","MISSING_COORDINATES"
"1631c062-25bf-4cc5-90b7-ec71c41b479e","Champlain Place","477 Paul Street","Dieppe","United States",,,"CRITICAL","MISSING_COORDINATES"
"afbdaf0a-ac31-48b9-bbfc-3713df955224","Scotia Square","5201 Duke St.","Halifax","United States",,,"CRITICAL","MISSING_COORDINATES"
"1ebd3e36-7201-4d74-9353-dbc08f6cbfba","Park Lane Mall","5657 Spring Garden Road","Halifax","United States",,,"CRITICAL","MISSING_COORDINATES"
"92d92308-8eee-4c19-a723-f39b763445c7","Halifax Shopping Centre","7001 Mumford Rd.","Halifax","United States",,,"CRITICAL","MISSING_COORDINATES"
"882e3932-a5fb-47da-95e8-096c7ed7b8e8","Bridgewater Mall","441 LaHave St.","Bridgewater","United States",,,"CRITICAL","MISSING_COORDINATES"
"7a8fefce-82e4-423d-9c95-4457c6ed5e10","Will's Pub","1042 N Mills Ave","Orlando","United States",,,"CRITICAL","MISSING_COORDINATES"
"44d7c4a9-ace1-4f6e-a9af-33f1fcd8e6f7","Southland Mall","2965 Gordon Road","Regina","United States",,,"CRITICAL","MISSING_COORDINATES"
"62bb85e2-f55e-4586-aefe-e927340d6f21","Jarry Metro Station","504, rue Jarry","Montreal","United States",,,"CRITICAL","MISSING_COORDINATES"
"0ef86c1d-a807-476f-b8ef-ff6fa6763747","Complexe Desjardins","150 Sainte-Catherine Street West","Montreal","United States",,,"CRITICAL","MISSING_COORDINATES"
"75bfd046-1285-4ff3-bca5-043ac61e0605","Place Newman","2101 Avenue Dollard","LaSalle","United States",,,"CRITICAL","MISSING_COORDINATES"
"170e3fcb-dc39-4290-ad26-9d2c3bf347c3","Corner Brook Plaza","44 Maple Valley Road","Corner Brook","United States",,,"CRITICAL","MISSING_COORDINATES"
"f3c5be0a-5b84-4a82-b62e-c2bea81db6ca","Gander Mall","132 Bennett Drive","Gander","United States",,,"CRITICAL","MISSING_COORDINATES"
"86cad135-527e-4dc7-9562-c0d00c39acb0","Exploits Valley Mall","19 Cromer Ave.","Windsor","United States",,,"CRITICAL","MISSING_COORDINATES"
"90cce28d-ed99-4491-b35e-459acafc7232","Avalon Mall I","48 Kenmount Road","St. John's","United States",,,"CRITICAL","MISSING_COORDINATES"
"549f26d5-fa69-468b-b6cd-827c3acff744","Avalon Mall II","48 Kenmount Road","St. John's","United States",,,"CRITICAL","MISSING_COORDINATES"
"9f1af3e1-2776-4d3c-bbc3-ce360138e997","Highland Square Shopping Centre","689 Westville Rd.","New Glasgow","United States",,,"CRITICAL","MISSING_COORDINATES"
"4db71020-3609-4efd-a647-65e7870970fe","Warschauer Stra&szlig;e 47","Warschauer Stra&szlig;e 47","Berlin","United States",,,"CRITICAL","NAME_ONLY; MISSING_COORDINATES"
"61d60291-384d-4fc2-b74d-b855cae8b5af","Gerrard Square","1000 Gerrard Street East","Toronto","United States",,,"CRITICAL","MISSING_COORDINATES"
"ebb8ad9c-4888-4578-a1ea-b16cce1a4719","Merivale Mall","1642 Merivale Road","Ottawa","United States",,,"CRITICAL","MISSING_COORDINATES"
"e2f0c02d-1a80-4a37-b63f-424ae93d586a","Six Flags Great America","1 Great America Parkway","Gurnee","United States",,,"CRITICAL","MISSING_COORDINATES"
"998dc5c8-c796-4f8e-99b7-315f3e72b4d3","Riga Bus Station","Nēģu 7","Riga","United States",,,"CRITICAL","TOO_SHORT; MISSING_COORDINATES"
"85ea61dd-e519-435d-9939-7baf6c861d13","Fred Aldous II","37 Lever Street","Manchester","United States",,,"CRITICAL","MISSING_COORDINATES"
"4bfb086b-226d-4236-a140-4451fea4cb8d","Korova Bar","3908 St Laurent Blvd.","Montreal","United States",,,"CRITICAL","MISSING_COORDINATES"
"36a997d8-bd0b-4e4f-945d-2b37cc7f87cf","Sherbrooke Metro","3585 rue Berri","Montreal","United States",,,"CRITICAL","MISSING_COORDINATES"
"1db93c54-90ea-406c-9ed1-48eb22d275ae","Kampala","Plot 35 Kampala Road","Kampala","United States",,,"CRITICAL","MISSING_COORDINATES"
"bc5499e5-6770-4cd1-8d49-157f1a68b647","Eaton Centre II","705 Rue Sainte Catherine Ouest","Montreal","United States",,,"CRITICAL","MISSING_COORDINATES"
"5fedeeb0-3d0a-4c55-aee2-13b274a16e83","North Star Pinball","3908 Blvd. St. Laurent","Montreal","United States",,,"CRITICAL","MISSING_COORDINATES"
"a169ee53-0eca-4bc8-aee2-0e715d72fa60","Warschauer Stra&szlig;e 47 B","Warschauer Stra&szlig;e 47","Berlin","United States",,,"CRITICAL","MISSING_COORDINATES"
"1ff28188-fb07-4a7b-b706-41cdc3686edf","Petersburger Straße 81","Petersburger Straße 81","Berlin","United States",,,"CRITICAL","NAME_ONLY; MISSING_COORDINATES"
"6bd6b089-b7b9-44b3-9a60-a7eb26b2f895","Barnone II","3000 E Ray Rd.","Gilbert","United States",,,"CRITICAL","MISSING_COORDINATES"
"2b5ddcd0-195b-4213-b5fb-ca4ef38d093c","R.A.W. C","Revaler Straße 99","Berlin","United States",,,"CRITICAL","MISSING_COORDINATES"
"b97a1ddc-f994-4225-aefb-802048bf3c31","Weegee's Lounge","[NO ADDRESS]","Chicago","USA",41.9170145,-87.7190122,"CRITICAL","MISSING_ADDRESS"
"fd4846c3-2d40-4585-b49b-72f2b88b057d","Holiday Club","[NO ADDRESS]","Chicago","USA",41.954588,-87.654726,"CRITICAL","MISSING_ADDRESS"
"b15bc10b-ea22-4b1a-a3fc-1bfde623caca","Quimby's","[NO ADDRESS]","Chicago","USA",41.910718,-87.674763,"CRITICAL","MISSING_ADDRESS"
"9977c322-b01f-4d03-90ef-c09152a80fe4","Classic Photo Booth Co.","[NO ADDRESS]","Amsterdam","Netherlands",52.3845504,4.7333852,"CRITICAL","MISSING_ADDRESS"
"92d3ef53-485b-447f-8048-868776c8ab84","Skylark","[NO ADDRESS]","Chicago","USA",41.8527778,-87.6463889,"CRITICAL","MISSING_ADDRESS"
"f3dbfa3e-961b-4af3-9a00-e972cb630c41","Weegee's Lounge","[NO ADDRESS]","Chicago","USA",41.9170145,-87.7190122,"CRITICAL","MISSING_ADDRESS"
"c073c10d-4086-40e6-9214-150f8662936a","Holiday Club","[NO ADDRESS]","Chicago","USA",41.954588,-87.654726,"CRITICAL","MISSING_ADDRESS"
"1da0dfbc-ad73-4d99-a853-77c6a56c365c","Classic Photo Booth Co.","[NO ADDRESS]","Los Angeles","USA",34.0780419,-118.2666947,"CRITICAL","MISSING_ADDRESS"
"6a9c4e56-e6e1-4ba0-98c7-45a11fb44f6a","Fotoautomat Berlin","[NO ADDRESS]","Berlin","Germany",52.5074221,13.4507059,"CRITICAL","MISSING_ADDRESS"
"bfa54bd9-c8a3-4554-9836-c00234c7570a","Palais de Tokyo","[NO ADDRESS]","Paris","France",48.8645866,2.2966748,"CRITICAL","MISSING_ADDRESS"
"add44dd9-ee05-47cf-a66a-b100ae5dfe92","kasarna Karlin","[NO ADDRESS]","Prague","Czech Republic",50.0755381,14.4378005,"CRITICAL","MISSING_ADDRESS"
"7f62fad5-e920-4561-82d6-00a3e1896d58","Le Centquatre","[NO ADDRESS]","Paris","France",48.8899821,2.3714338,"CRITICAL","MISSING_ADDRESS"
"bc15d7ee-32e6-4f2b-af47-4a106f6b4fc0","Buttes Chaumont","[NO ADDRESS]","Paris","France",48.8823241,2.381923,"CRITICAL","MISSING_ADDRESS"
"945ea66b-5fee-4381-9089-be36f06197fc","@camppraha","[NO ADDRESS]","Prague","Czech Republic",50.0755381,14.4378005,"CRITICAL","MISSING_ADDRESS"
"80a2ea77-3514-4127-8189-df0f123c89b4","Photoautomat","[NO ADDRESS]","Berlin","Germany",52.5200066,13.404954,"CRITICAL","MISSING_ADDRESS"
"9b4e4afd-8168-4b61-ad3c-0750c61a104c","Roommate Collective","[NO ADDRESS]","","",30.2674465,-97.6934554,"CRITICAL","MISSING_ADDRESS"
"f9b9ae65-1bf6-4063-b80b-dd890de4a28c","The Lodge at Bryant Park","[NO ADDRESS]","","",40.7535367,-73.9829529,"CRITICAL","MISSING_ADDRESS"
"62fd91f2-5944-4ef4-9a17-4d1b62404bc1","","[NO ADDRESS]","Orange County","",33.7174708,-117.8311428,"CRITICAL","MISSING_ADDRESS"
"29c67236-1126-47eb-bfa2-057df9f98bf2","The Photo Booth Museum","[NO ADDRESS]","San Francisco","United States",37.76456,-122.4320153,"CRITICAL","MISSING_ADDRESS"
"e7d1532e-14c0-4395-9496-503c94912b79","The Photo Booth Museum","[NO ADDRESS]","Los Angeles","United States",34.0916745,-118.2793143,"CRITICAL","MISSING_ADDRESS"
"cc5b328b-51c2-4cf7-b130-93d21d3c3bbc","The Photo Booth Museum","[NO ADDRESS]","San Francisco","United States",37.76456,-122.4320153,"CRITICAL","MISSING_ADDRESS"
"e44c7299-eca6-41cc-9126-50e29460c283","The Photo Booth Museum","[NO ADDRESS]","Los Angeles","United States",34.0916745,-118.2793143,"CRITICAL","MISSING_ADDRESS"
"8bdcb12f-7d00-4626-93d4-e3bedee09fe1","Bar DeVille","[NO ADDRESS]","Chicago","USA",41.88325,-87.6323879,"CRITICAL","MISSING_ADDRESS"
"0145d015-8026-436c-9b25-ae9f5486f6c9","The Charleston","[NO ADDRESS]","Chicago","USA",41.9198996,-87.6803052,"CRITICAL","MISSING_ADDRESS"
"bacacddc-2779-468f-92d7-2e5fd89db14c","Empty Bottle","[NO ADDRESS]","Chicago","USA",41.9004139,-87.6867377,"CRITICAL","MISSING_ADDRESS"
"378792e8-d66e-4213-8fcf-6f0dab1c4c6b","The Flat Iron","[NO ADDRESS]","Chicago","USA",41.9100396,-87.6766859,"CRITICAL","MISSING_ADDRESS"
"5ef56161-d77c-43fb-9bcc-c11322de3a6e","Holiday Club","[NO ADDRESS]","Chicago","USA",41.954588,-87.654726,"CRITICAL","MISSING_ADDRESS"
"6abc2a13-3ae5-4f59-9e9c-08beb5d90b1a","Lincoln Tap Room","[NO ADDRESS]","Chicago","USA",41.9363965,-87.664398,"CRITICAL","MISSING_ADDRESS"
"27b109f3-262b-4dd2-9d2c-1876dc932cfd","Alex's Bar","[NO ADDRESS]","Long Beach","USA",33.7827792,-118.1573886,"CRITICAL","MISSING_ADDRESS"
"c87765bb-5267-416f-9f78-80691f2e372f","The Short Stop","[NO ADDRESS]","Echo Park","USA",34.0753365,-118.2535448,"CRITICAL","MISSING_ADDRESS"
"cd9d2f3e-8020-4d0b-8e71-48db93ad39da","The Blind Donkey","[NO ADDRESS]","Long Beach","USA",33.7690476,-118.1865789,"CRITICAL","MISSING_ADDRESS"
"dcf9f5d9-3882-4292-b9b0-204b0d10932a","4100 Bar","[NO ADDRESS]","Silver Lake","USA",34.0930087,-118.2815088,"CRITICAL","MISSING_ADDRESS"
"1639bc53-3ab0-4e6c-a0f8-e66613535a30","Weegee's Lounge","[NO ADDRESS]","Logan Square","USA",41.9170145,-87.7190122,"CRITICAL","MISSING_ADDRESS"
"1315a260-1046-4558-9aea-2acee3d48e12","Village Tap","[NO ADDRESS]","Roscoe Village","USA",41.943072,-87.6805961,"CRITICAL","MISSING_ADDRESS"
"c0d8acc5-5c62-48cd-bd41-76b1d700639b","Holiday Club","[NO ADDRESS]","Uptown","USA",41.954588,-87.654726,"CRITICAL","MISSING_ADDRESS"
"23462c10-428e-45fa-8f95-056a4498ae38","Fotoautomat","[NO ADDRESS]","Florence","Italy",43.7699685,11.2576706,"CRITICAL","MISSING_ADDRESS"
"32b20968-066b-4215-87de-f1129d0de441","Roommate Collective","[NO ADDRESS]","","",30.2674465,-97.6934554,"CRITICAL","MISSING_ADDRESS"
"38bd10dd-3cf8-470d-8368-46844f15e46d","The Lodge at Bryant Park","[NO ADDRESS]","","",40.7535367,-73.9829529,"CRITICAL","MISSING_ADDRESS"
"0a1e87fb-68fc-4e10-8715-8c74311274bb","Empty Bottle","[NO ADDRESS]","Chicago","USA",41.9004139,-87.6867377,"CRITICAL","MISSING_ADDRESS"
"dc465bdd-5c67-43fa-a885-a477583b576f","The Flat Iron","[NO ADDRESS]","Chicago","USA",41.9100396,-87.6766859,"CRITICAL","MISSING_ADDRESS"
"d675e00b-c899-4325-a7c7-540846fb4ad2","Holiday Club","[NO ADDRESS]","Chicago","USA",41.954588,-87.654726,"CRITICAL","MISSING_ADDRESS"
"f66a812a-b229-4f43-af88-f29c7d9eca63","Liar's Club","[NO ADDRESS]","Chicago","USA",41.9249754,-87.6706292,"CRITICAL","MISSING_ADDRESS"
"959ad5d6-66eb-4707-9265-46c692306b18","Lincoln Tap Room","[NO ADDRESS]","Chicago","USA",41.9363965,-87.664398,"CRITICAL","MISSING_ADDRESS"
"8821bd20-c1e2-4730-b922-a616fcac2df9","Alex's Bar","[NO ADDRESS]","Long Beach","USA",33.7827792,-118.1573886,"CRITICAL","MISSING_ADDRESS"
"6c301465-10e2-4786-8a0a-832c4c64a2e2","Vidiots","[NO ADDRESS]","Eagle Rock","USA",34.1349023,-118.2151265,"CRITICAL","MISSING_ADDRESS"
"57efe9b8-bd30-401a-89d5-580bd8639de7","Cha Cha Lounge","[NO ADDRESS]","Silver Lake","USA",34.0993602,-118.2595171,"CRITICAL","MISSING_ADDRESS"
"3ce6e08e-0921-4397-a954-557851f92737","The Short Stop","[NO ADDRESS]","Echo Park","USA",34.0753365,-118.2535448,"CRITICAL","MISSING_ADDRESS"
"828db2f0-50a7-4ff2-9104-5d5ddf5f5d7f","Backstage","[NO ADDRESS]","Culver City","USA",34.0162722,-118.4001389,"CRITICAL","MISSING_ADDRESS"
"4155da85-6f96-42f2-9121-0b6b2008fed7","4100 Bar","[NO ADDRESS]","Silver Lake","USA",34.0930087,-118.2815088,"CRITICAL","MISSING_ADDRESS"
"16c9ecfe-a7ad-4642-8315-8f46ced393a0","Sid Gold's Request Room","[NO ADDRESS]","","",36.2082916,-86.7353862,"CRITICAL","MISSING_ADDRESS"
"75e2fc85-1713-4f91-baa7-be88457d0266","Union Pool","[NO ADDRESS]","Brooklyn","USA",40.7149712,-73.9514538,"CRITICAL","MISSING_ADDRESS"
"176c8912-10ba-452c-8f0b-14d844222469","Far i hatten","[NO ADDRESS]","Malmö","Sweden",55.5927843,13.0142194,"CRITICAL","MISSING_ADDRESS"
"78819984-5a8d-45c5-ba3b-914381d4ca7b","Mutiny Information Cafe","[NO ADDRESS]","Denver","USA",39.6534477,-104.987856,"CRITICAL","MISSING_ADDRESS"
"d7f36a16-1c2b-4473-bef8-582c4a27194d","Hildebrandt CAFÉ","Hildebrandt CAFÉ","Vienna","Austria",,,"CRITICAL","NO_STREET_NUMBER; NAME_ONLY; MISSING_COORDINATES"
"2b888d3c-5b8a-453b-8db1-7b01de7a0714","Bar DeVille","[NO ADDRESS]","Chicago","USA",,,"CRITICAL","MISSING_ADDRESS; MISSING_COORDINATES"
"0489c126-5a4d-422e-a596-2336516feee5","Fat Cat","[NO ADDRESS]","Chicago","USA",41.970098,-87.6599373,"CRITICAL","MISSING_ADDRESS"
"eb1939c9-2333-450d-b663-2b3c19fb11a4","The Flat Iron","[NO ADDRESS]","Chicago","USA",41.9100396,-87.6766859,"CRITICAL","MISSING_ADDRESS"
"7649a1f3-980d-4bdb-8763-8682e90e52ec","Four Farthings","[NO ADDRESS]","Chicago","USA",41.9199742,-87.6415694,"CRITICAL","MISSING_ADDRESS"
"3046f1f9-9eb6-44a2-b85d-43cf4a63a120","Fotografiska","[NO ADDRESS]","Stockholm","Sweden",59.3179619,18.0848268,"CRITICAL","MISSING_ADDRESS"
"288e77d2-82ab-4140-8f15-7c55ce758d74","Stadsgårdsterminalen","[NO ADDRESS]","Stockholm","Sweden",59.319416,18.0775996,"CRITICAL","MISSING_ADDRESS"
"e006db85-9ed4-4792-9ce5-0d1a8662fd51","Nordiska Museet","[NO ADDRESS]","Stockholm","Sweden",59.329008,18.094268,"CRITICAL","MISSING_ADDRESS"
"8f9dfd3f-ce72-4d32-b036-8d4124193dbe","Kulturhuset Stadsteatern","[NO ADDRESS]","Stockholm","Sweden",59.332272,18.0658682,"CRITICAL","MISSING_ADDRESS"
"6df7b3c4-a15f-458e-aae3-d8f7576cfef4","Linnelabbet","[NO ADDRESS]","Göteborg","Sweden",57.6971538,11.9499649,"CRITICAL","MISSING_ADDRESS"
"062517aa-6c13-4b78-a89d-c660d8cce955","Bar Europa","[NO ADDRESS]","Stockholm","Sweden",59.318388,18.0557436,"CRITICAL","MISSING_ADDRESS"
"2664c2d1-3089-4769-9e30-5a9d232aff82","Café Klotet","[NO ADDRESS]","Stockholm","Sweden",59.3194585,18.0734116,"CRITICAL","MISSING_ADDRESS"
"f059cd9f-01d2-422a-b492-309e5142958a","Hobo Hotel","[NO ADDRESS]","Stockholm","Sweden",59.3308302,18.0668655,"CRITICAL","MISSING_ADDRESS"
"e6fd4c43-3683-49e3-abdd-e32c6dbf09d2","Generator","[NO ADDRESS]","Stockholm","Sweden",59.3358554,18.0507304,"CRITICAL","MISSING_ADDRESS"
"48145339-f067-44a1-8af2-5b5d29615479","Fotografiska","[NO ADDRESS]","Stockholm","Sweden",59.3179619,18.0848268,"CRITICAL","MISSING_ADDRESS"
"d427fc2e-3cfa-4be5-ad03-a4dc12147fbb","Nordiska Museet","[NO ADDRESS]","Stockholm","Sweden",59.329008,18.094268,"CRITICAL","MISSING_ADDRESS"
"45c46185-332b-4f6d-bfeb-02ca33b876e6","Kulturhuset Stadsteatern","[NO ADDRESS]","Stockholm","Sweden",59.332272,18.0658682,"CRITICAL","MISSING_ADDRESS"
"aef8ba29-248c-4c85-8500-5ecb687e829f","Ringen","[NO ADDRESS]","Stockholm","Sweden",59.3885888,18.0477266,"CRITICAL","MISSING_ADDRESS"
"e751a043-7f7e-4ef9-9d1e-6ba5b13d3283","Roommate Collective","[NO ADDRESS]","","",30.2674465,-97.6934554,"CRITICAL","MISSING_ADDRESS"
"d08c9bb8-ec07-480c-b128-1d6d47e5f63b","The Lodge at Bryant Park","[NO ADDRESS]","","",40.7535367,-73.9829529,"CRITICAL","MISSING_ADDRESS"
"695a0930-69c2-4d58-b57e-98dc8fc59edf","Sid Gold's Request Room","[NO ADDRESS]","","",36.2082916,-86.7353862,"CRITICAL","MISSING_ADDRESS"
"746267df-4028-4062-8dbb-deab66cdde10","Roommate Collective","[NO ADDRESS]","","",30.2674465,-97.6934554,"CRITICAL","MISSING_ADDRESS"
"7d83808f-33b2-488a-88f8-9a246eae2138","The Lodge at Bryant Park","[NO ADDRESS]","","",40.7535367,-73.9829529,"CRITICAL","MISSING_ADDRESS"
"ceabb697-8f5d-4686-a6ec-00c9b6ce4b8e","Sid Gold's Request Room","[NO ADDRESS]","","",36.2082916,-86.7353862,"CRITICAL","MISSING_ADDRESS"
"94854eaf-e779-4a03-b952-2a0f631318cb","Roommate Collective","[NO ADDRESS]","","",30.2674465,-97.6934554,"CRITICAL","MISSING_ADDRESS"
"2366d487-652a-4691-ac94-fc8f256c9901","The Lodge at Bryant Park","[NO ADDRESS]","","",40.7535367,-73.9829529,"CRITICAL","MISSING_ADDRESS"
"74075910-feff-4162-a2d5-873c648c9bee","Sid Gold's Request Room","[NO ADDRESS]","","",36.2082916,-86.7353862,"CRITICAL","MISSING_ADDRESS"
"abd83fae-33bc-471e-a7e4-bd6836734827","25hours Hotel Lobby","[NO ADDRESS]","Vienna","Austria",48.2064947,16.3546991,"CRITICAL","MISSING_ADDRESS"
"d7e93a5b-7170-48da-846e-253e53802c1f","VIEiPEE","[NO ADDRESS]","Vienna","Austria",48.2132778,16.405193,"CRITICAL","MISSING_ADDRESS"
"3ba3aa4d-688d-43c2-aee5-54e2d8af7088","Hafenstadt Klagenfurt","[NO ADDRESS]","Klagenfurt","Austria",46.623387,14.3017626,"CRITICAL","MISSING_ADDRESS"
"3bc760e2-1e91-428d-b2f5-df5851f2228d","Hildebrandt CAFÉ","[NO ADDRESS]","Vienna","Austria",,,"CRITICAL","MISSING_ADDRESS; MISSING_COORDINATES"
"ba49025f-2074-4863-9f3d-f20438439369","Hildebrandt CAFÉ","Vienna","Vienna","Austria",,,"CRITICAL","NO_STREET_NUMBER; TOO_SHORT; MISSING_COORDINATES"
"4af46eb5-8b3f-4638-b573-d56235848289","House of Yes","2 Wyckoff Ave","Brooklyn","USA",,,"CRITICAL","MISSING_COORDINATES"
"6129461b-c5ea-498b-852b-35acdcf736e4","AppleDoll Pop-Up","Abbot Kinney","Venice","California, USA",33.9883466,-118.4522198,"HIGH","NO_STREET_NUMBER"
"1c9ca738-b0a8-4321-8520-93f11d1ed593","Playland Arcade I","Ocean Boulevard","Hampton Beach","United States",42.9171814,-70.8053858,"HIGH","NO_STREET_NUMBER"
"7c372d3e-8068-44c1-aa6e-e20761392868","Playland Arcade III","Ocean Boulevard","Hampton Beach","United States",42.9171814,-70.8053858,"HIGH","NO_STREET_NUMBER"
"4e40f0cd-2a81-4eb7-bcc6-807d0fe2e18d","Bryan Center, Duke University","Duke University","Durham","United States",36.0001557,-78.9442297,"HIGH","NO_STREET_NUMBER"
"ab51b135-2226-43f8-9ff9-3a1986e6f58b","Carousel I","Bridge Street","Sylvan Beach","United States",43.1964405,-75.7290305,"HIGH","NO_STREET_NUMBER"
"44cd9366-3f65-402e-97a7-e91b7cf405d9","Carousel II","Bridge Street","Sylvan Beach","United States",43.1964405,-75.7290305,"HIGH","NO_STREET_NUMBER"
"14812047-d6df-47b6-951e-640e825626d0","Carousel III","Bridge Street","Sylvan Beach","United States",43.1964405,-75.7290305,"HIGH","NO_STREET_NUMBER"
"55fa1a0a-3078-4539-bfad-6ed288cf77c6","S-Bahn Treptower Park","Treptower Park","Berlin","United States",44.4686696,-71.1850768,"HIGH","NO_STREET_NUMBER"
"99d1aed3-3363-4ea1-b324-c8dcef384ea1","East End","East End, Portland, ME, USA","Portland","United States",43.6694716,-70.2471307,"HIGH","NO_STREET_NUMBER"
"6bd37e62-a04b-4401-b2f0-bf72874c971e","Flinders Street Station I","Flinders Street and  St. Kilda Rd.","Melbourne","United States",-37.8469012,144.9800252,"HIGH","NO_STREET_NUMBER"
"8bd3d6af-eae6-4189-984a-e99becbd312e","Geroldstrasse 35","Geroldstrasse 35","Zürich","United States",47.3768866,8.541694,"HIGH","NAME_ONLY"
"6796a3f8-bbc0-4276-b06e-9d3d8e549c1f","La Grande Halle","Parc des expositions","Arles","United States",32.1182188,-84.1974091,"HIGH","NO_STREET_NUMBER"
"cd303e42-0547-44cb-ae2b-1692e51618c6","Sch&ouml;nhauser Allee 63","Sch&ouml;nhauser Allee 63","Berlin","United States",52.5459084,13.413577,"HIGH","NAME_ONLY"
"34d90cf3-f73e-4364-bcf1-c8f168c23be5","Bernauer Strasse 47","Bernauer Strasse 47","Berlin","United States",52.5200066,13.404954,"HIGH","NAME_ONLY"
"1686819b-40fb-4155-98c9-4cce9a5f832c","Golf Mill Mall","Golf Mill Centre, Maine Township, IL, USA","Niles","United States",42.0486248,-87.8395912,"HIGH","NO_STREET_NUMBER"
"fdaf3e00-e4ef-4dd7-a63d-b64de1bbd14b","Mauerpark A","Eberswalder Str.","Berlin","United States",38.7945952,-106.5348379,"HIGH","NO_STREET_NUMBER"
"eb0e88b6-75a4-4196-a6d0-1f54c1edff56","Mauerpark B","Eberswalder Str.","Berlin","United States",38.7945952,-106.5348379,"HIGH","NO_STREET_NUMBER"
"00eae082-3ed6-4de4-b1a5-babbe788dea5","Kingly Court","Kingly St.","London","United States",38.7945952,-106.5348379,"HIGH","NO_STREET_NUMBER"
"71d2e6fb-0ce8-47a1-9843-a0301c1e1a1e","Art Gallery of South Australia","North Terrace","Adelaide","United States",38.7945952,-106.5348379,"HIGH","NO_STREET_NUMBER"
"dfa2bf6f-fcf7-4b87-8516-8d16e49cb1be","Adelaide Arcade","Rundle Mall","Adelaide","United States",38.7945952,-106.5348379,"HIGH","NO_STREET_NUMBER"
"4efefac8-b71d-47de-94a1-b94eaeb4308a","Battersea Power Station","Circus Rd W, Nine Elms","London","United States",51.4801974,-0.1396819,"HIGH","NO_STREET_NUMBER"
"79675248-66f5-4ca8-adf2-b4bac7fe6de1","Far i Hatten","Folkets Park","Malmö","United States",41.2661152,-96.7222503,"HIGH","NO_STREET_NUMBER"
"3ce7b71a-4191-4c00-a0e3-9b719f0f5b7e","The Lodge at Bryant Park","Bryant Park","New York","United States",40.7535367,-73.9829529,"HIGH","NO_STREET_NUMBER"
"52961168-ee81-44bb-937e-5ec6d21867c2","Fotoautomat Studio","Montmartre","Paris","France",48.8867148,2.3388895,"HIGH","NO_STREET_NUMBER"
"2060ac2b-6e29-4b6b-9a8d-c751dac64966","Warschauer Straße 54","Warschauer Straße 54","Berlin","Germany",52.5083856,13.4511726,"HIGH","NAME_ONLY"
"82d97193-6fbc-424f-9b6c-ac79bf05688f","","Chicago, IL, USA","Chicago","",41.88325,-87.6323879,"HIGH","NO_STREET_NUMBER"
"d4f47fd1-bc22-4692-86e1-91e1d14fe369","AppleDoll Pop-Up","Abbot Kinney","Venice","USA",33.9890399,-118.462447,"HIGH","NO_STREET_NUMBER"
"ef5d0cf1-2182-49e9-95a0-13ae2e69253a","25hours Hotel Lobby","25hours Hotel Lobby","Vienna","Austria",48.2064947,16.3546991,"HIGH","NAME_ONLY"
"ee2e5e48-9246-475e-a0a4-c54c542eccb0","Max Brown Hotel 7th District Lobby","Max Brown Hotel 7th District Lobby","Vienna","Austria",48.2048487,16.3432467,"HIGH","NAME_ONLY"
"40b49482-26dd-47dc-8735-38b26f7fe522","The Hoxton Vienna Basement","The Hoxton Vienna Basement","Vienna","Austria",48.20117,16.3811789,"HIGH","NO_STREET_NUMBER; NAME_ONLY"
"91703111-9a6c-4ff1-98d7-c0fb03ea48ce","Strandbar Herrmann","Strandbar Herrmann","Vienna","Austria",48.2118773,16.3857175,"HIGH","NO_STREET_NUMBER; NAME_ONLY"
"f5202cc6-345b-495e-84e0-f49f667d154b","ImPulsTanz","Vienna","Vienna","Austria",48.2080696,16.3713095,"HIGH","NO_STREET_NUMBER; TOO_SHORT"
"b6a91844-214f-49a1-b35e-cc99290f228c","Rutger Fuchsgatan 2","Rutger Fuchsgatan 2","Stockholm","Sweden",59.3076377,18.0786825,"HIGH","NAME_ONLY"
"dea455da-55fa-4d19-b5fd-6d3772b8181f","Rutger Fuchsgatan 2","Rutger Fuchsgatan 2","Stockholm","Sweden",59.3076377,18.0786825,"HIGH","NAME_ONLY"
"fcaf486a-58ef-45a5-884b-b32434876603","Warschauer Straße 54","Warschauer Straße 54","Berlin","Germany",52.4696449,13.7132077,"HIGH","NAME_ONLY"
"9004657f-6917-4749-8d22-e957bf89475b","Markthalle Neun II","Berlin","Berlin","Germany",52.5200066,13.404954,"HIGH","NO_STREET_NUMBER; TOO_SHORT"
"57844ac0-dfc8-433f-ad40-4b9e901fd069","Mauerpark A","Berlin","Berlin","Germany",52.5200066,13.404954,"HIGH","NO_STREET_NUMBER; TOO_SHORT"
"546235a2-d532-41c7-9299-e1892528d2c0","Massillon Museum","Massillon","Massillon","USA",40.7967244,-81.5215093,"HIGH","NO_STREET_NUMBER; TOO_SHORT"
"ef786483-db81-4871-a160-6695c9783a91","Feldstrasse","Hamburg","Hamburg","Germany",53.5488282,9.9871703,"HIGH","NO_STREET_NUMBER; TOO_SHORT"
"38ef0bd2-28ec-47cb-9041-b7f57bcf4b9c","Zossenerstraße","Berlin","Berlin","Germany",52.5200066,13.404954,"HIGH","NO_STREET_NUMBER; TOO_SHORT"
"a6a119ce-3619-4b74-92f5-262886b9af07","Vidiots","Vidiots","Los Angeles","USA",34.1349023,-118.2151265,"HIGH","NO_STREET_NUMBER; NAME_ONLY; TOO_SHORT"
"d502b014-e84b-474e-8513-cf499bb22c9b","Novelty Golf and Games","Lincolnwood","Lincolnwood","USA",42.0044757,-87.7300594,"HIGH","NO_STREET_NUMBER"
"95021a5b-f984-46b6-8f39-a928283e9c66","Photo Elysée","Lausanne","Lausanne","Switzerland",46.5196535,6.6322734,"HIGH","NO_STREET_NUMBER; TOO_SHORT"
"12256b1e-8fa8-46a2-9f19-0abdad2ad78a","La Pavillon Puebla","Parc des Buttes Chaumont, Avenue Darcel","Paris","France",48.878006,2.378822,"HIGH","NO_STREET_NUMBER"
"83cd6870-09c5-47f1-8ac0-9115988dfc86","Backstage","Culver City","Culver City","USA",34.0211416,-118.3968001,"HIGH","NO_STREET_NUMBER"
"64e45200-cbd7-4b77-83e5-28ad12654281","Flamingo Bar","Los Angeles","Los Angeles","USA",34.0549076,-118.242643,"HIGH","NO_STREET_NUMBER"
"38314f76-31de-41c6-9a0b-e763a52a4afd","Tate Modern","London","London","United Kingdom",51.5072178,-0.1275862,"HIGH","NO_STREET_NUMBER; TOO_SHORT"
"6ef49a47-b7d9-4eab-ac58-1ca4df81c1b3","Sputnik II","Denver","Denver","Colorado",39.7392358,-104.990251,"HIGH","NO_STREET_NUMBER; TOO_SHORT"
"1712aefc-328d-4ecc-b503-a70dfa751b09","Carousel III","Bridge Street","Sylvan Beach","USA",43.19685,-75.72905,"HIGH","NO_STREET_NUMBER"
"9c45067a-2846-480f-b9df-e9e3c3b55c69","Birdy's","Brooklyn","Brooklyn","USA",40.6781784,-73.9441579,"HIGH","NO_STREET_NUMBER; TOO_SHORT"
"a810030d-dc72-44fb-b0cc-1be522781e68","Holiday Club","Chicago","Chicago","USA",41.88325,-87.6323879,"HIGH","NO_STREET_NUMBER; TOO_SHORT"
"ed198233-4821-4a53-bb67-f6eeb02ce730","Rainbo Club","Chicago","Chicago","USA",41.88325,-87.6323879,"HIGH","NO_STREET_NUMBER; TOO_SHORT"
"bb04ece1-4c84-4fbc-a6aa-b10fdbb75caa","Smart Bar","Chicago","Chicago","USA",41.88325,-87.6323879,"HIGH","NO_STREET_NUMBER; TOO_SHORT"
"8446673f-2483-4264-8a7e-00848333a6ee","Alex's Bar","Long Beach","Long Beach","USA",33.7700504,-118.1937395,"HIGH","NO_STREET_NUMBER"
"dbf4d51f-9c43-4490-bf5e-37f43a9ad1e6","The American","Vancouver","Vancouver","Canada",49.2827291,-123.1207375,"HIGH","NO_STREET_NUMBER; TOO_SHORT"
"71974e0b-0877-4874-bbf8-06b7099b01a1","Carousel","Brooklyn","Brooklyn","USA",40.6781784,-73.9441579,"HIGH","NO_STREET_NUMBER; TOO_SHORT"
"9a5d9c76-5c97-48b4-98f9-4bd56091c731","Cleveland Print Room","Cleveland","Cleveland","Ohio",41.49932,-81.6943605,"HIGH","NO_STREET_NUMBER; TOO_SHORT"
"4908760d-3230-46c0-a726-332623ec1152","Gracie's Tax Bar","Phoenix","Phoenix","USA",33.4482948,-112.0725488,"HIGH","NO_STREET_NUMBER; TOO_SHORT"
"1d93b344-d81a-4fd4-967a-407fcfd101b6","Art Gallery of South Australia","Adelaide","Adelaide","Australia",-34.9285007,138.6007245,"HIGH","NO_STREET_NUMBER; TOO_SHORT"
"febea1ec-39c0-4462-a4f8-8917af47ffef","Myer Centre Adelaide I","Adelaide","Adelaide","Australia",-34.9285007,138.6007245,"HIGH","NO_STREET_NUMBER; TOO_SHORT"
"d8fe3879-2146-4989-8d71-d6118c974157","John Curtin Hotel","Melbourne","Melbourne","Australia",-37.8136276,144.9630576,"HIGH","NO_STREET_NUMBER; TOO_SHORT"
"4610d9df-cd31-47c4-8d66-1f8469ed411b","Paseo Colorado","Paseo Colorado","Pasadena","USA",34.1455438,-118.1438719,"HIGH","NO_STREET_NUMBER; NAME_ONLY"
"501ac1bd-ad4a-43dc-b7d6-b7ff67154d41","Pop's Bar","San Francisco","San Francisco","USA",37.7749295,-122.4194155,"HIGH","NO_STREET_NUMBER"
"6d415f72-c0a5-4b1c-aaaf-f374eeed0fe5","Palais de Tokyo","Paris","Paris","France",48.8575475,2.3513765,"HIGH","NO_STREET_NUMBER; TOO_SHORT"
"71136e60-e8f8-4726-96a5-010e45c56704","National Gallery","Prague","Prague","Czech Republic",50.0755381,14.4378005,"HIGH","NO_STREET_NUMBER; TOO_SHORT"
"c5e2f3bd-74f8-4709-aa9b-b46e6c86d41c","Westwerk","Leipzig","Leipzig","Germany",51.3396955,12.3730747,"HIGH","NO_STREET_NUMBER; TOO_SHORT"
"b976e8a2-599c-474e-8a66-f6179a4f890d","Union Pool","Brooklyn","Brooklyn","USA",40.6781784,-73.9441579,"HIGH","NO_STREET_NUMBER; TOO_SHORT"
"f29ab12f-72bc-406e-821d-a5f6be4b542e","El Vez","New York","New York","New York",43.2994285,-74.2179326,"HIGH","NO_STREET_NUMBER; TOO_SHORT"
"f52bd071-a651-4649-b785-4b3cc8530dc4","Otto's Shrunken Head","New York","New York","USA",40.7127753,-74.0059728,"HIGH","NO_STREET_NUMBER; TOO_SHORT"
"dfdb75df-15f9-4a83-9ea4-edbe68a41c19","El Vez","Philadelphia","Philadelphia","Pennsylvania",39.9525839,-75.1652215,"HIGH","NO_STREET_NUMBER"
"7efdb1b7-a7b4-4ebd-85da-7ed5f3d607f4","Plac Zbawiciela","Warsaw","Warsaw","Poland",52.2296756,21.0122287,"HIGH","NO_STREET_NUMBER; TOO_SHORT"
"d71f8409-9730-4270-894c-8161ae0d10b1","Dubblefilm","Barcelona","Barcelona","Spain",41.3873974,2.168568,"HIGH","NO_STREET_NUMBER; TOO_SHORT"
"96555b8a-7151-41aa-acc0-866a1862b815","The Hoxton Holborn","London","London","United Kingdom",51.5072178,-0.1275862,"HIGH","NO_STREET_NUMBER; TOO_SHORT"
"b4a5f1a1-8c11-4294-9273-a4b542afa8c5","Cha Cha Lounge","Seattle","Seattle","USA",47.6061389,-122.3328481,"HIGH","NO_STREET_NUMBER; TOO_SHORT"
"e35c08b3-6454-4eca-a292-e2e7e08b5f85","ACUD","Berlin","Berlin","Germany",52.5200066,13.404954,"HIGH","NO_STREET_NUMBER; TOO_SHORT"
"903f4ced-bded-4dd5-8f95-a40d7f31bee7","Kulturbrauerei","Berlin","Berlin","Germany",52.5200066,13.404954,"HIGH","NO_STREET_NUMBER; TOO_SHORT"
"025f32b4-e183-443d-a4d5-8ec730532285","Markthalle Neun","Berlin","Berlin","Germany",52.5200066,13.404954,"HIGH","NO_STREET_NUMBER; TOO_SHORT"
"b2ff2640-2294-474f-95f0-a8024736781d","Mauerpark B","Berlin","Berlin","Germany",52.5200066,13.404954,"HIGH","NO_STREET_NUMBER; TOO_SHORT"
"e2b48035-0a12-4034-8b24-29db036a85fc","Moritzplatz","Berlin","Berlin","Germany",52.5200066,13.404954,"HIGH","NO_STREET_NUMBER; TOO_SHORT"
"3b8dab8d-22d4-47b0-a0fb-09f2b5601010","Petersburger Straße 81","Berlin","Berlin","Germany",52.5200066,13.404954,"HIGH","NO_STREET_NUMBER; TOO_SHORT"
"5ec46023-9e8a-4683-8118-69aec948aa34","R.A.W. B","Berlin","Berlin","Germany",52.5200066,13.404954,"HIGH","NO_STREET_NUMBER; TOO_SHORT"
"63a65287-0518-490b-8bf6-61143fcc1f51","Schönhauser Allee 63","Berlin","Berlin","Germany",52.5200066,13.404954,"HIGH","NO_STREET_NUMBER; TOO_SHORT"
"44709764-4a21-49c2-a32d-3812f3559513","Trabi World","Berlin","Berlin","Germany",52.5200066,13.404954,"HIGH","NO_STREET_NUMBER; TOO_SHORT"
"ec59e8c1-5653-4f9f-b62c-99f9a84891fb","Feuerstein Restaurant","Hamburg","Hamburg","Germany",53.5488282,9.9871703,"HIGH","NO_STREET_NUMBER; TOO_SHORT"
"6952c635-4abb-41be-b7c7-dc20b14be9d6","Ebertplatz","Köln","Köln","Germany",50.937531,6.9602786,"HIGH","NO_STREET_NUMBER; TOO_SHORT"
"fce2ea15-6875-497e-b980-a62a71fe445a","Weserstraße","Feldstrasse","Hamburg","Germany",53.5570792,9.9721107,"HIGH","NO_STREET_NUMBER"
"0555e81e-5bd3-44a6-b7a1-b41de2cc3023","Marin Country Mart","Marin Country Mart","Larkspur","USA",37.9476684,-122.5093248,"HIGH","NO_STREET_NUMBER; NAME_ONLY"
"391582bd-9830-457b-bb33-8012c10ca43c","2220 Arts + Archives","2220 Arts + Archives","Los Angeles","USA",34.0672617,-118.2722577,"HIGH","NAME_ONLY"
"57443fc5-0f27-479b-8c78-7d0fba757ee7","4100 Bar","Los Angeles","Los Angeles","USA",34.0549076,-118.242643,"HIGH","NO_STREET_NUMBER"
"f253236d-b3ee-415e-8655-efc6ff2599f6","Cha Cha Lounge","Los Angeles","Los Angeles","USA",34.0549076,-118.242643,"HIGH","NO_STREET_NUMBER"
"ce10bfcb-e415-43f8-8efa-15d58b8518b8","Freestyle Photo & Imaging Supplies","Freestyle Photo & Imaging Supplies","Los Angeles","USA",34.0985292,-118.3072663,"HIGH","NO_STREET_NUMBER; NAME_ONLY"
"cefe5468-1585-4de4-9e17-1d2a2619fc3f","Short Stop","Los Angeles","Los Angeles","USA",34.0549076,-118.242643,"HIGH","NO_STREET_NUMBER"
"fb2e537f-2dbf-4afb-8dc1-8e2087c490fb","The Hunt Vintage","The Hunt Vintage","Los Angeles","USA",34.0764219,-118.2569513,"HIGH","NO_STREET_NUMBER; NAME_ONLY"
"c52f0a7b-2f24-48c4-9332-3bcd236e085f","The Smell","The Smell","Los Angeles","USA",34.0503471,-118.2456434,"HIGH","NO_STREET_NUMBER; NAME_ONLY; TOO_SHORT"
"39a07367-2ca7-429f-a5b3-a2a6b88a75e9","Tiny's Hi-Dive","Los Angeles","Los Angeles","USA",34.0549076,-118.242643,"HIGH","NO_STREET_NUMBER"
"eb770e1e-be8f-4938-b571-7a5398c34599","Town","Town","Los Angeles","USA",34.0549076,-118.242643,"HIGH","NO_STREET_NUMBER; NAME_ONLY; TOO_SHORT"
"9696b24a-da60-4ff2-a82c-922e4376249f","Union Station I","Union Station I","Los Angeles","USA",34.056219,-118.2365021,"HIGH","NO_STREET_NUMBER; NAME_ONLY"
"7a4e2b4e-2ff6-47df-91b2-5935af525218","Verdugo Bar","Los Angeles","Los Angeles","USA",34.0549076,-118.242643,"HIGH","NO_STREET_NUMBER"
"0ca93f14-6b47-4e91-a1e8-74e00552f428","L.A. County Fair B4","L.A. County Fair B4","Pomona","USA",34.0851053,-117.7736524,"HIGH","NAME_ONLY"
"1e4283ef-bcdd-46f4-9b15-6f422fc0efaa","L.A. County Fair B5","L.A. County Fair B5","Pomona","USA",34.0851053,-117.7736524,"HIGH","NAME_ONLY"
"c00ff1b8-de55-4dcf-b565-485efa2c4187","Club Photomatica","Club Photomatica","San Francisco","USA",37.7699204,-122.4494355,"HIGH","NO_STREET_NUMBER; NAME_ONLY"
"ba0eaf01-4777-48ec-8791-2fc7cb84bda9","Kilowatt","Kilowatt","San Francisco","USA",37.7650579,-122.4232555,"HIGH","NO_STREET_NUMBER; NAME_ONLY; TOO_SHORT"
"cc6f35d5-f84d-4b89-bc71-7b56e1e7a369","Musée Mécanique I","San Francisco","San Francisco","USA",37.7749295,-122.4194155,"HIGH","NO_STREET_NUMBER"
"6e7ef63f-5890-40b1-a3f9-bc466f7f8950","Photoworks","Photoworks","San Francisco","USA",37.7645648,-122.4322508,"HIGH","NO_STREET_NUMBER; NAME_ONLY"
"f53020ca-5070-4c50-917d-1f17e938e752","Playland Arcade I","Playland Arcade I","Santa Monica","USA",34.0089972,-118.4974488,"HIGH","NO_STREET_NUMBER; NAME_ONLY"
"60413c03-1585-4603-821e-2b2cd8aca222","Playland Arcade II","Playland Arcade II","Santa Monica","USA",34.0089972,-118.4974488,"HIGH","NO_STREET_NUMBER; NAME_ONLY"
"58e448ba-7e0e-4aac-ac1c-d1b16ff43f9f","Ocaña","Barcelona","Barcelona","Spain",41.3873974,2.168568,"HIGH","NO_STREET_NUMBER; TOO_SHORT"
"fe31bc33-2e54-4fb1-8bc6-737532f3d53c","Saturn","Birmingham","Birmingham","USA",33.5185892,-86.8103567,"HIGH","NO_STREET_NUMBER"
"a4ee331b-445b-4663-8bca-55385751309f","Barnone II","Gilbert","Gilbert","USA",33.3528264,-111.789027,"HIGH","NO_STREET_NUMBER; TOO_SHORT"
"6ec59b89-562d-4000-bdf1-f785915029c5","Beer Barn","Gilbert","Gilbert","USA",33.3528264,-111.789027,"HIGH","NO_STREET_NUMBER; TOO_SHORT"
"62c214ab-bafc-4f44-a96d-c0bcc9dda746","Good Oak Bar","Tucson","Tucson","USA",32.2539787,-110.9741769,"HIGH","NO_STREET_NUMBER; TOO_SHORT"
"7e3ef1f4-24e8-4644-ac21-cc79f44f1905","Sputnik","Denver","Denver","USA",39.7392358,-104.990251,"HIGH","NO_STREET_NUMBER; TOO_SHORT"
"f2c0370c-fe75-40cc-8efb-a8f1bcdff1ef","F & M Patio Bar","New Orleans","New Orleans","USA",29.9508941,-90.0758356,"HIGH","NO_STREET_NUMBER"
"648cf8c3-91db-4817-a051-d24c95ddf6e0","Diesel Cafe","Somerville","Somerville","USA",42.3875968,-71.0994968,"HIGH","NO_STREET_NUMBER"
"82a465aa-be09-42d3-ace5-eecb2b12875c","Jubilee Lounge","Oxford","Oxford","USA",44.1387738,-70.4707314,"HIGH","NO_STREET_NUMBER; TOO_SHORT"
"128c7044-c889-4c9b-ba47-0a6ce4aca991","Bootleg Bar","Brooklyn","Brooklyn","USA",40.6781784,-73.9441579,"HIGH","NO_STREET_NUMBER; TOO_SHORT"
"727e3607-4493-44d6-b716-55a2fc509039","Hank's Bar","Brooklyn","Brooklyn","USA",40.6781784,-73.9441579,"HIGH","NO_STREET_NUMBER; TOO_SHORT"
"36573757-737e-4dd0-a588-0f0a5c720642","Bubby's Pie Company","New York","New York","USA",40.7127753,-74.0059728,"HIGH","NO_STREET_NUMBER; TOO_SHORT"
"72bf15ce-3b66-437d-aece-d295584625ee","Snug Harbor","Charlotte","Charlotte","USA",35.2270768,-80.8408933,"HIGH","NO_STREET_NUMBER; TOO_SHORT"
"a1545948-5b2e-42d1-abf8-ec482969337c","Concourse Dance Bar","Philadelphia","Philadelphia","USA",39.9525839,-75.1652215,"HIGH","NO_STREET_NUMBER"
"c191cd1c-da09-48d5-acd1-de077573e2d0","Machimbombo","Lisboa","Lisboa","Portugal",38.7222524,-9.1393366,"HIGH","NO_STREET_NUMBER; TOO_SHORT"
"b60c9ce8-ded9-4a2f-a6ef-a885a21591bb","Time Out Market","Barcelona","Barcelona","Spain",41.3873974,2.168568,"HIGH","NO_STREET_NUMBER; TOO_SHORT"
"f9515dd9-7803-42e0-841e-76138f251aa9","The Standard","London","London","United Kingdom",51.5072178,-0.1275862,"HIGH","NO_STREET_NUMBER; TOO_SHORT"
"e73a4183-73d4-4b40-89d8-c6a378ccbbba","International Bar","Salt Lake City","Salt Lake City","USA",40.7605601,-111.8881397,"HIGH","NO_STREET_NUMBER"
"07e4ab80-11c5-4e27-b40e-bf16dd38655b","Re-bar","Seattle","Seattle","USA",47.6061389,-122.3328481,"HIGH","NO_STREET_NUMBER; TOO_SHORT"
"25f22f36-7d98-41fa-af07-b16658147ab7","Helsinki Railway Station III","Asema-aukio","Helsinki","FIN",60.170746,24.939127,"HIGH","NO_STREET_NUMBER"
"b58e0aba-1548-4974-925d-f6ce85aa475b","Flinders Street Station II","Flinders Street and St. Kilda Rd.","Melbourne","Australia",-37.817371,144.967453,"HIGH","NO_STREET_NUMBER"
"236c82e7-edff-4a23-aa58-b19470aee1ee","Charleston Antique Mall","N/A","Las Vegas","USA",36.1489543,-115.1539927,"HIGH","NO_STREET_NUMBER; TOO_SHORT"
"c219bf63-0e61-48f5-b924-e7128a174665","Bridge Street","Bridge Street","Sylvan Beach","USA",43.19685,-75.72905,"HIGH","NO_STREET_NUMBER; NAME_ONLY"
"46857afb-206f-4260-ae28-db7a3a76817d","Warschauer Straße 47","Warschauer Straße 47","Berlin","Germany",52.503471,13.447083,"HIGH","NAME_ONLY"
"d5affdc9-70c0-4596-aaa3-ba7de11ca499","La Grande Halle","Parc des expositions","Arles","France",43.670616,4.617562,"HIGH","NO_STREET_NUMBER"
"fd02d23d-dcf7-4d91-ad1c-b5f555e1935b","Le Pavillon Puebla","Parc des Buttes Chaumont, Avenue Darcel","Paris","France",48.8775,2.3969,"HIGH","NO_STREET_NUMBER"
"df6ac207-f861-4276-91dc-24ad39bdbc25","Le Lieu Unique","Quai Ferdinand Favre","Nantes","France",47.2184,-1.5536,"HIGH","NO_STREET_NUMBER"
"4fbd6f1b-f28f-41a3-9b30-6b4201eb21ef","CAMP - Center for Architecture and Metropolitan Planning","Vyšehradská","Prague","Czech Republic",50.0672,14.4268,"HIGH","NO_STREET_NUMBER"
"58314d78-17e4-496a-ba73-84b2e35337ba","25hours Hotel Lobby","Vienna","Vienna","Austria",48.2080696,16.3713095,"HIGH","NO_STREET_NUMBER; TOO_SHORT"
"5b434954-25d1-4403-aa7f-87e552437f23","Max Brown Hotel 7th District Lobby","Vienna","Vienna","Austria",48.2080696,16.3713095,"HIGH","NO_STREET_NUMBER; TOO_SHORT"
"bcac0749-e914-4262-aa9d-7be2e61a21ac","Max Brown Hotel 5th District Lobby","Vienna","Vienna","Austria",48.2080696,16.3713095,"HIGH","NO_STREET_NUMBER; TOO_SHORT"
"ab6c19cf-88ae-4fd5-b8df-e070be43af7d","The Hoxton Vienna Basement","Vienna","Vienna","Austria",48.2080696,16.3713095,"HIGH","NO_STREET_NUMBER; TOO_SHORT"
"cb9a82c9-9e81-4a4b-8430-6c73974bd839","The Social Hub Vienna","Vienna","Vienna","Austria",48.2080696,16.3713095,"HIGH","NO_STREET_NUMBER; TOO_SHORT"
"fcdeadda-f19e-4576-bda9-754d08ee326d","EPD Market","Vienna","Vienna","Austria",48.2080696,16.3713095,"HIGH","NO_STREET_NUMBER; TOO_SHORT"
"7296479e-7efa-46cb-bd58-7e82ec97ae39","Pratersauna","Vienna","Vienna","Austria",48.2080696,16.3713095,"HIGH","NO_STREET_NUMBER; TOO_SHORT"
"19e332d8-d69e-47e2-92f0-d2bcfc7c9b53","Hafenstadt Klagenfurt","Klagenfurt","Klagenfurt","Austria",46.625704,14.3137371,"HIGH","NO_STREET_NUMBER"
"8d744e41-354d-4192-b0ce-6a4fddf232a8","Strandbar Herrmann","Vienna","Vienna","Austria",48.2080696,16.3713095,"HIGH","NO_STREET_NUMBER; TOO_SHORT"
"81f01286-860a-4574-a885-04f19d79ffa9","Hobo Hotel","Stockholm","Stockholm","Sweden",59.3327036,18.0656255,"HIGH","NO_STREET_NUMBER; TOO_SHORT"
"afb0af1b-1b9a-4644-bf96-ba039c746a88","Generator","Stockholm","Stockholm","Sweden",59.3327036,18.0656255,"HIGH","NO_STREET_NUMBER; TOO_SHORT"
"d0b7e2aa-9103-48b5-b585-41ea0708b64a","Spårvägsmuseet","Stockholm","Stockholm","Sweden",59.3327036,18.0656255,"HIGH","NO_STREET_NUMBER; TOO_SHORT"
"2a91dbc7-c831-4cad-b1e3-b369cd0dc52f","Downtown Camper","Stockholm","Stockholm","Sweden",59.3327036,18.0656255,"HIGH","NO_STREET_NUMBER; TOO_SHORT"
"14510fd7-8817-4d54-8626-4ce838cea802","Fotografiska","Stockholm","Stockholm","Sweden",59.3327036,18.0656255,"HIGH","NO_STREET_NUMBER; TOO_SHORT"
"6ff896f2-c234-4a8b-b0ab-2283e7863957","Grand Central","Stockholm","Stockholm","Sweden",59.3327036,18.0656255,"HIGH","NO_STREET_NUMBER; TOO_SHORT"
"8689321a-f125-4ab5-aed1-2161fffbf674","Rutger Fuchsgatan 2","Rutger Fuchsgatan 2","Stockholm","Sweden",59.3076377,18.0786825,"HIGH","NAME_ONLY"
"cf6fa4af-fb9a-4052-8339-e8e0a11b7852","Stadsgårdsterminalen","Stockholm","Stockholm","Sweden",59.3327036,18.0656255,"HIGH","NO_STREET_NUMBER; TOO_SHORT"
"ddc1753d-0d12-4aa9-9a62-231b12c1b5b3","Nordiska Museet","Stockholm","Stockholm","Sweden",59.3327036,18.0656255,"HIGH","NO_STREET_NUMBER; TOO_SHORT"
"1e560f69-9a77-43c2-85cd-6c3b76337ed6","Kulturhuset Stadsteatern","Stockholm","Stockholm","Sweden",59.3327036,18.0656255,"HIGH","NO_STREET_NUMBER; TOO_SHORT"
"34eaebe2-1428-44e2-8cb5-ebfdfeb8fc39","Ringen","Stockholm","Stockholm","Sweden",59.3327036,18.0656255,"HIGH","NO_STREET_NUMBER; TOO_SHORT"
"e3e5defe-5239-40fe-a125-12e5b1c646a7","Fryshuset Stockholm","Stockholm","Stockholm","Sweden",59.3327036,18.0656255,"HIGH","NO_STREET_NUMBER; TOO_SHORT"
"1f97ef6f-52d9-4bed-83f5-70bb547e88c1","Unknown","Jakarta","Jakarta","Indonesia",-6.1944491,106.8229198,"HIGH","NO_STREET_NUMBER; TOO_SHORT"
"fcdb9b66-536c-43c0-879a-b84e609c34a4","Cat Cafe ""Ragdoll""","Osaka","Osaka","Japan",34.6937249,135.5022535,"HIGH","NO_STREET_NUMBER; TOO_SHORT"
"5ac3ed73-601f-4698-ae04-a4757e713ba1","Unknown","Vienna","Vienna","Austria",48.2080696,16.3713095,"HIGH","NO_STREET_NUMBER; TOO_SHORT"
"5bfca024-32cf-441b-95ef-75c6836fc1fb","N/A","N/A","Surat","India",21.2004138,72.8798896,"HIGH","NO_STREET_NUMBER; NAME_ONLY; TOO_SHORT"
"10ad8510-ec0c-409a-b386-28ead59820cc","AppleDoll Pop-Up","1212 Abbot Kinney Blvd, Venice, CA 90291, USA","Venice","USA",33.9910807,-118.4688547,"MEDIUM","DUPLICATE_COORDINATES"
"6341e058-43b9-4b22-9ae9-a077029db4cb","Far i hatten","Folkets Park, 214 36 Malmö, Sweden","Malmö","Sweden",55.5927843,13.0142194,"MEDIUM","DUPLICATE_COORDINATES"
"6d7a7eb7-3881-4e31-83b5-edabe8a95e68","Lou's Athletic Club","384 Knickerbocker Ave, Brooklyn, NY 11237, USA","Brooklyn","New York, USA",40.7002117,-73.9210791,"MEDIUM","DUPLICATE_COORDINATES"
"bec3a7bf-a03b-4945-a5e3-b084cb081a4d","Musée Mécanique I","Pier 45 at Taylor St.","San Francisco","United States",37.80968,-122.4174783,"MEDIUM","DUPLICATE_COORDINATES"
"a3825fa1-f052-4e6c-8b6c-8452dc6a9c43","Children's Museum I","300 Congress Street","Boston","United States",42.351597,-71.050248,"MEDIUM","DUPLICATE_COORDINATES"
"fd108e77-974d-42f7-8084-1c03036d8b1e","Children's Museum II","300 Congress Street","Boston","United States",42.351597,-71.050248,"MEDIUM","DUPLICATE_COORDINATES"
"d780bde3-4fa2-4890-bece-8772f46c18f8","Funland Arcade I","200 Broadway St","Seaside","United States",45.993245,-123.927577,"MEDIUM","DUPLICATE_COORDINATES"
"d28badd1-ab1e-415a-87ab-00a42d87b2aa","Funland Arcade II","200 Broadway St","Seaside","United States",45.993245,-123.927577,"MEDIUM","DUPLICATE_COORDINATES"
"e03132cd-a530-4bd9-b614-9a43935e5e3b","Kaivopiha Shopping Center","Kaivok. 10","Helsinki","United States",38.7945952,-106.5348379,"MEDIUM","DUPLICATE_COORDINATES"
"33eb641c-4fd1-48d4-8237-fed68b7e146c","Deno's Wonder Wheel","3059 W 12th St.","Brooklyn","United States",40.5742747,-73.9792059,"MEDIUM","DUPLICATE_COORDINATES"
"2767458d-8365-40ca-bada-6706142d7b0b","MOPA I","1649 El Prado","San Diego","United States",32.7313718,-117.149206,"MEDIUM","DUPLICATE_COORDINATES"
"58b38b7d-046d-47f9-b351-c4712be8179e","MOPA II","1649 El Prado","San Diego","United States",32.7313718,-117.149206,"MEDIUM","DUPLICATE_COORDINATES"
"b95e09c7-76b0-4f06-8bdf-80b39c5c01dc","Belmont Park I","3146 Mission Blvd.","San Diego","United States",32.7706102,-117.2513258,"MEDIUM","DUPLICATE_COORDINATES"
"d79ffcab-b4f0-43e4-932b-b4539c12607b","Belmont Park II","3146 Mission Blvd.","San Diego","United States",32.7706102,-117.2513258,"MEDIUM","DUPLICATE_COORDINATES"
"8356721f-d802-4694-943f-89f7f2b64784","St. Louis Centre I","420 N. 6th Street","St. Louis","United States",38.6289742,-90.1897394,"MEDIUM","DUPLICATE_COORDINATES"
"a1ec4e74-3470-4a3b-88f5-73e42e432df4","St. Louis Centre II","420 N. 6th Street","St. Louis","United States",38.6289742,-90.1897394,"MEDIUM","DUPLICATE_COORDINATES"
"89d65015-5d84-4c9e-a0c8-af12330264da","Skylon I","5200 Robinson Street","Niagara Falls","United States",43.0851889,-79.0796872,"MEDIUM","DUPLICATE_COORDINATES"
"06e9e6fd-148c-4441-a3e3-2b20d870e212","Skylon III","5200 Robinson Street","Niagara Falls","United States",43.0851889,-79.0796872,"MEDIUM","DUPLICATE_COORDINATES"
"3eb2d66b-d987-4bdc-a55f-a112eb67bbca","Playland Arcade I","350 Santa Monica Pier","Santa Monica","United States",34.0108279,-118.4956397,"MEDIUM","DUPLICATE_COORDINATES"
"9ee45df0-b840-4c17-ba20-5197906d45a1","Playland Arcade II","350 Santa Monica Pier","Santa Monica","United States",34.0108279,-118.4956397,"MEDIUM","DUPLICATE_COORDINATES"
"b12305af-021c-4193-969b-1ac37e021da9","Downtown Burbank Newsstand","316 North San Fernando Blvd.","Burbank","United States",34.1828222,-118.311165,"MEDIUM","DUPLICATE_COORDINATES"
"209c595e-f15d-4e72-a6e0-f31908c46afc","Golf 'n Stuff I","10555 Firestone Blvd.","Norwalk","United States",33.9271199,-118.1063423,"MEDIUM","DUPLICATE_COORDINATES"
"94ac93e5-6138-4738-bd83-c2042bbf2865","Golf 'n Stuff II","10555 Firestone Blvd.","Norwalk","United States",33.9271199,-118.1063423,"MEDIUM","DUPLICATE_COORDINATES"
"3e7564b3-7ae1-4ba5-b85e-7224a965c551","Union Station II","800 North Alameda Street","Los Angeles","United States",34.0561575,-118.2355206,"MEDIUM","DUPLICATE_COORDINATES"
"73acb685-ac41-4a06-85d9-84fd07340886","Union Station I","800 North Alameda Street","Los Angeles","United States",34.0561575,-118.2355206,"MEDIUM","DUPLICATE_COORDINATES"
"c69226f2-0ba8-40d9-8cf7-e24179f99e5d","Beltway Plaza Mall I","6000 Greenbelt Rd.","Greenbelt","United States",38.9988966,-76.9101849,"MEDIUM","DUPLICATE_COORDINATES"
"fd8abcc5-ea2e-4f71-9014-2bec50fd2b0a","Beltway Plaza Mall II","6000 Greenbelt Rd.","Greenbelt","United States",38.9988966,-76.9101849,"MEDIUM","DUPLICATE_COORDINATES"
"1f066b54-159c-4961-a7cd-c760dfa1d6b6","Salem Willows Arcade I","167 Fort Ave","Salem","United States",42.5350011,-70.8697729,"MEDIUM","DUPLICATE_COORDINATES"
"7f232ed7-faa2-4438-ad8e-bf91959a8531","Salem Willows Arcade II","167 Fort Ave","Salem","United States",42.5350011,-70.8697729,"MEDIUM","DUPLICATE_COORDINATES"
"1f095580-47da-4227-a4c8-671aed3b9ac9","Marienburger Stra&szlig;e","Marienburgerstra&szlig;e 19","Berlin","United States",38.7945952,-106.5348379,"MEDIUM","DUPLICATE_COORDINATES"
"dbaff007-a6a0-4de1-9b2a-81a1875347f9","Warschauer Stra&szlig;e 60","Warschauerstra&szlig;e 60","Berlin","United States",38.7945952,-106.5348379,"MEDIUM","DUPLICATE_COORDINATES"
"aad28d0d-93a7-437e-827b-3380cd69908b","Kastanienallee","Kastanienallee 100","Berlin","United States",38.7945952,-106.5348379,"MEDIUM","DUPLICATE_COORDINATES"
"54fb4f03-2f4f-4064-aba3-c00838cfff87","Backstage","10400 Culver Blvd","Culver City","USA",34.016274,-118.400143,"MEDIUM","DUPLICATE_COORDINATES"
"01147990-c839-4a12-95af-2fc94314c17c","Metro Customer Ctr. Wilshire I","5301 Wilshire Blvd.","Los Angeles","United States",34.0621141,-118.3452986,"MEDIUM","DUPLICATE_COORDINATES"
"db655d69-b724-4c6e-86d8-2a1a5d74f2ba","Metro Customer Ctr. Wilshire II","5301 Wilshire Blvd.","Los Angeles","United States",34.0621141,-118.3452986,"MEDIUM","DUPLICATE_COORDINATES"
"e6f19358-8f09-45b7-afe3-5b48efd9b8b0","Orange County Fair A3","88 Fair Drive","Costa Mesa","United States",33.6684578,-117.9046211,"MEDIUM","DUPLICATE_COORDINATES"
"391382c4-9868-489c-baa7-010d89458cec","Orange County Fair B6","88 Fair Drive","Costa Mesa","United States",33.6684578,-117.9046211,"MEDIUM","DUPLICATE_COORDINATES"
"9e5f7228-7dc6-4e92-a6d5-bcec5cb6eb56","Orange County Fair C3","88 Fair Drive","Costa Mesa","United States",33.6684578,-117.9046211,"MEDIUM","DUPLICATE_COORDINATES"
"269858ee-4741-4f1e-82f0-d10f7278e33f","Orange County Fair A7","88 Fair Drive","Costa Mesa","United States",33.6684578,-117.9046211,"MEDIUM","DUPLICATE_COORDINATES"
"91bab369-6ee2-4684-bf61-76b8972d3d4b","Woolworth Museum","401 South","Oxnard","United States",34.1991058,-119.1953878,"MEDIUM","TOO_SHORT"
"7f4e77b1-7b66-4c0b-b637-7e6ad8fb6fbc","Downtown Burbank Newsstand 2","316 North San Fernando Blvd.","Burbank","United States",34.1828222,-118.311165,"MEDIUM","DUPLICATE_COORDINATES"
"5f506020-6308-4762-8e9e-f2b1e99474e6","L.A. County Fair A3","1101 W. McKinley Ave.","Pomona","United States",34.0803096,-117.7640964,"MEDIUM","DUPLICATE_COORDINATES"
"a01ae3dd-f434-4c39-a63a-51787f2198ef","L.A. County Fair B4","1101 W. McKinley Ave.","Pomona","United States",34.0803096,-117.7640964,"MEDIUM","DUPLICATE_COORDINATES"
"09bcff7e-dc56-4c50-bf4a-61bfd1704251","L.A. County Fair B5","1101 W. McKinley Ave.","Pomona","United States",34.0803096,-117.7640964,"MEDIUM","DUPLICATE_COORDINATES"
"cf66f3c4-5882-46ff-b2d2-a5a4dff1c607","Palais de Tokyo","13 Av. du Président Wilson, 75116 Paris, France","Paris","United States",48.8645866,2.2966748,"MEDIUM","DUPLICATE_COORDINATES"
"e174299f-637e-4c7b-8714-34fdf0db05c5","Deno's Sweet Shoppe","3059 W 12th St","Brooklyn","United States",40.5742747,-73.9792059,"MEDIUM","DUPLICATE_COORDINATES"
"7470618f-8313-4915-b22a-f9d991bf163c","Le 104","104 rue d'Aubervilliers","Paris","United States",48.8575475,2.3513765,"MEDIUM","DUPLICATE_COORDINATES"
"c2b4386e-9ad1-4aca-96db-946512628a21","Casino Arcade I","400 Beach St.","Santa Cruz","United States",36.9643612,-122.0157178,"MEDIUM","DUPLICATE_COORDINATES"
"9c594f7a-945f-47df-a1b9-888da4073530","Casino Arcade II","400 Beach St.","Santa Cruz","United States",36.9643612,-122.0157178,"MEDIUM","DUPLICATE_COORDINATES"
"72803c7f-6791-4511-9eea-ae25d0ee1b72","Casino Arcade III","400 Beach St.","Santa Cruz","United States",36.9643612,-122.0157178,"MEDIUM","DUPLICATE_COORDINATES"
"35edede7-2385-4276-a087-ee8c8afada0c","Kaiser's","Revalerstrasse 2","Berlin","United States",38.7945952,-106.5348379,"MEDIUM","DUPLICATE_COORDINATES"
"ba7593d9-8610-4dec-9d68-cb965eb39fba","Bristol Arms Retro Hotel","81 Sussex St.","Sydney","United States",38.7945952,-106.5348379,"MEDIUM","DUPLICATE_COORDINATES"
"f3cee976-e62a-4e0b-ae27-2372a31cc44b","Le 104","104 rue d'Aubervilliers","Paris","United States",48.8575475,2.3513765,"MEDIUM","DUPLICATE_COORDINATES"
"d132ba75-afd2-4945-9932-757387caa783","Citadium","50/56 rue Caumartin","Paris","United States",48.8575475,2.3513765,"MEDIUM","DUPLICATE_COORDINATES"
"fa1d06fc-6211-4c51-ac56-e71643a56299","ACUD","Veteranenstraße 21","Berlin","Germany",52.5335802,13.4009513,"MEDIUM","DUPLICATE_COORDINATES"
"9f643641-7852-47be-a014-d0070fe0317b","Mohawk Bend","2141 W. Sunset Blvd.","Los Angeles","United States",34.0788066,-118.2683992,"MEDIUM","DUPLICATE_COORDINATES"
"c60d291e-a2eb-4ddb-a2c7-290d83a518c2","Netil House","1-7 Westgate Street","London","United States",51.5072178,-0.1275862,"MEDIUM","DUPLICATE_COORDINATES"
"e6b4aae9-1c13-4fc5-b4a9-6953c99cad68","Batofar","11 quai François Mauriac","Paris","United States",48.8575475,2.3513765,"MEDIUM","DUPLICATE_COORDINATES"
"0092ea35-a28b-4681-b05c-3c0ef5b189ad","R.A.W. A","Revalerstraße 99","Berlin","United States",38.7945952,-106.5348379,"MEDIUM","DUPLICATE_COORDINATES"
"5d4baf59-1933-412c-be50-b3f9adadbd0b","R.A.W. B","Revalerstraße 99","Berlin","United States",38.7945952,-106.5348379,"MEDIUM","DUPLICATE_COORDINATES"
"48975d55-cd2f-4b8a-babb-acad01b953bd","Kulturbrauerei","Schönhauser Allee 36","Berlin","Germany",52.5383047,13.4127573,"MEDIUM","DUPLICATE_COORDINATES"
"32b8f683-ed93-4fcb-83c9-a1c41f4f04db","Weserstra&szlig;e","Weserstra&szlig;e 7","Berlin","United States",38.7945952,-106.5348379,"MEDIUM","DUPLICATE_COORDINATES"
"8d526e1a-9d28-48b7-b84d-45e1bdd0938a","Strandbar Herrmann","Herrmannpark, 1030 Wien, Austria","Vienna","United States",48.2118773,16.3857175,"MEDIUM","DUPLICATE_COORDINATES"
"ac0982af-98d4-4693-9e79-5cb35304b551","Ocaña","Plaça Reial, 15","Barcelona","United States",41.3797328,2.1756373,"MEDIUM","DUPLICATE_COORDINATES"
"85dc7375-9e8a-464c-a780-aeda94835873","Tel Aviv Beach 2010","Obere Donaustraße 65","Vienna","United States",48.2080696,16.3713095,"MEDIUM","DUPLICATE_COORDINATES"
"9183527e-24f5-44ae-883d-83813e578019","25 Hours Hotel","Lerchenfelder Str. 1/3, 1070 Wien, Austria","Vienna","United States",48.2064947,16.3546991,"MEDIUM","DUPLICATE_COORDINATES"
"38453218-d984-4db0-a49c-2de4929c4960","4100 Bar","1087 Manzanita St","Los Angeles","USA",34.0929711,-118.2814424,"MEDIUM","DUPLICATE_COORDINATES"
"e5c85668-8298-4ea2-8b85-26db2dc8c188","La Pavillon Puebla","Av. Darcel, 75019 Paris, France","Paris","United States",48.87724,2.379299,"MEDIUM","DUPLICATE_COORDINATES"
"1e873539-7814-441e-8c65-5a7ab9715e6d","Rock Caf&eacute;","N&aacute;rodn&iacute; 116/20","Prague","United States",50.0755381,14.4378005,"MEDIUM","DUPLICATE_COORDINATES"
"ff973a94-0497-4974-8c87-41b5e857056c","Kosmos","Lagerstrasse 104","Zürich","United States",38.7945952,-106.5348379,"MEDIUM","DUPLICATE_COORDINATES"
"7d567b98-1bdb-4545-bb3e-6b09f0612a6b","Hardenberg-strasse 22","Hardenbergstrasse 22","Berlin","United States",38.7945952,-106.5348379,"MEDIUM","DUPLICATE_COORDINATES"
"0a85afb1-2576-4a54-b05f-897ead2c0d57","Barnone","3000 E. Ray Rd.","Gilbert","United States",33.3218745,-111.7255073,"MEDIUM","DUPLICATE_COORDINATES"
"a952b630-1ec8-4b65-85b3-0770051df05f","Thee Parkside","1600 17th St","San Francisco","USA",37.7651653,-122.3998925,"MEDIUM","DUPLICATE_COORDINATES"
"98257bbe-19ad-4de7-903f-4b9f36f557ad","Kanzlei Club","Kanzleistrasse 56","Z&uuml;rich","United States",47.3768866,8.541694,"MEDIUM","DUPLICATE_COORDINATES"
"d13f9985-b8d5-4597-a5af-6fb156d12f17","La Pavillon Puebla","Av. Darcel, 75019 Paris, France","Paris","United States",48.87724,2.379299,"MEDIUM","DUPLICATE_COORDINATES"
"12c09f69-f693-4919-83a2-8353ade588e6","The Breakfast Club Canary Wharf","1 Crossrail Pl","London","United States",51.5072178,-0.1275862,"MEDIUM","DUPLICATE_COORDINATES"
"7bb9dab1-587b-4ea8-a1a1-809f2272d326","Waterstones","82 Gower Street","London","United States",38.7945952,-106.5348379,"MEDIUM","DUPLICATE_COORDINATES"
"f2f11bee-7c83-4350-bd34-0b15a98e5740","The Standard","10 Argyle Street","London","United States",51.5072178,-0.1275862,"MEDIUM","DUPLICATE_COORDINATES"
"03abc0f7-e178-4a9d-a28a-17d5e72f86bf","The Hawk","468 W Anaheim St","Long Beach","USA",33.7822894,-118.1973545,"MEDIUM","DUPLICATE_COORDINATES"
"a52dec64-37fa-4448-a80d-655f1db9afdd","The Blind Donkey","149 Linden Ave","Long Beach","USA",33.7690476,-118.1865789,"MEDIUM","DUPLICATE_COORDINATES"
"0e6850ad-c76d-4db6-abc8-ca2e2978ea54","Photo Elys&eacute;e","Place de la gare 17","Lausanne","United States",46.5196535,6.6322734,"MEDIUM","DUPLICATE_COORDINATES"
"00c91259-2fcb-4e76-9ca6-a495323bbbb9","Verdugo Bar","3408 Verdugo Rd","Los Angeles","USA",34.1138537,-118.2350672,"MEDIUM","DUPLICATE_COORDINATES"
"e190d8f1-4d8d-4442-95aa-b5ed04132fdd","Glad & Young Studio","675 Ponce De Leon Ave NE N 219 Floor 2","Atlanta","United States",33.7720675,-84.365377,"MEDIUM","DUPLICATE_COORDINATES"
"8bddaf07-2b85-4e0a-b53e-5596a4c1d177","Vidiots","4884 Eagle Rock Blvd","Los Angeles","USA",34.1348965,-118.2150067,"MEDIUM","DUPLICATE_COORDINATES"
"9104f3c4-0490-4200-82c9-2e509c9512ad","Club Photomatica","1644 Haight Street","San Francisco","United States",37.7699204,-122.4494355,"MEDIUM","DUPLICATE_COORDINATES"
"63fa26fa-de4e-4bbe-b6ff-96c317706eb8","Lou's Athletic Club","384 Knickerbocker Ave.","Brooklyn","United States",40.7002117,-73.9210791,"MEDIUM","DUPLICATE_COORDINATES"
"d5b235b6-4fbb-46db-b8cf-c593fe57d5f8","Booth by Bryant II","2944 Randolph Ave.","Costa Mesa","United States",33.6780114,-117.8874122,"MEDIUM","DUPLICATE_COORDINATES"
"05053e50-7835-41c6-8358-3da723025fab","Trabi World","Zimmerstraße 97","Berlin","Germany",52.5076709,13.3867783,"MEDIUM","DUPLICATE_COORDINATES"
"f5596c1d-0b2e-4632-a908-725473e698f4","Modulor","Prinzenstrasse 85","Berlin","United States",38.7945952,-106.5348379,"MEDIUM","DUPLICATE_COORDINATES"
"7c1b4d43-74f2-4270-8a20-94cbb8c3333c","ars-imago","Josefstrasse 53","Zürich","United States",47.3768866,8.541694,"MEDIUM","DUPLICATE_COORDINATES"
"5d433644-1b1e-4b98-9521-c263c7d22387","Boothclub Amsterdam","Raamsteeg 2","Amsterdam","United States",38.7945952,-106.5348379,"MEDIUM","DUPLICATE_COORDINATES"
"3d5275b8-9273-4b52-a97f-c3505cf08302","Walt’s Bar","4680 Eagle Rock Blvd","Los Angeles","USA",34.1296435,-118.2166639,"MEDIUM","DUPLICATE_COORDINATES"
"11eb1317-68b2-48c8-9f0b-0a29c737efd2","Tiny’s Hi-Dive","12012 W Pico Blvd","Los Angeles","USA",34.0295316,-118.4494128,"MEDIUM","DUPLICATE_COORDINATES"
"1af22279-8f31-4d62-ad76-301e93f73e76","Kilowatt","3160 16th St.94103","San Francisco","United States",37.7650579,-122.4232555,"MEDIUM","DUPLICATE_COORDINATES"
"297295da-1761-4ed1-8d4f-d86d095e3a02","Flamingo Bar","1855 Industrial St.","Los Angeles","United States",34.0359864,-118.2328349,"MEDIUM","DUPLICATE_COORDINATES"
"75326e00-541c-40fb-aa1f-ac3df58dc9b7","Machimbombo","Calçada do Combro 87, ","Lisboa","United States",38.7222524,-9.1393366,"MEDIUM","DUPLICATE_COORDINATES"
"bfcf71c6-bae9-4a70-856b-51c76a9d5e1d","Ocaña","Plaça Reial, 15","Barcelona","United States",41.3797328,2.1756373,"MEDIUM","DUPLICATE_COORDINATES"
"c58cca0d-3bb3-4e8a-994f-bbf4c38ce8ee","Barnone II","3000 E Ray Rd.","Gilbert","United States",33.3218745,-111.7255073,"MEDIUM","DUPLICATE_COORDINATES"
"e3e8a175-3f64-44b9-8e12-cae8408066f1","Photomatica Photo Booth Museum I","3827 West Sunset Blvd","Los Angeles","United States",34.0788066,-118.2683992,"MEDIUM","DUPLICATE_COORDINATES"
"da452544-ddc3-4868-b953-72f175e8a299","Photomatica Photo Booth Museum III","3827 West Sunset Blvd","Los Angeles","United States",34.0788066,-118.2683992,"MEDIUM","DUPLICATE_COORDINATES"
"2ce77233-62fc-46c5-bc11-ca0488ef64be","Autophoto Gallery + Museum III","121 Orchard St","New York","United States",40.71951,-73.98978,"MEDIUM","DUPLICATE_COORDINATES"
"da134f94-e7a9-4877-808f-a0654ff16cae","Autophoto Gallery + Museum IV","121 Orchard St","New York","United States",40.71951,-73.98978,"MEDIUM","DUPLICATE_COORDINATES"
"1da3b9f4-59ba-4309-94f7-08d590689a1b","Day to Day Collective","2310 Kettner Blvd","San Diego","United States",32.7281138,-117.1717337,"MEDIUM","DUPLICATE_COORDINATES"
"199ea93c-b6d8-4a3a-8e2b-26dab8e04310","Whitechapel Gallery","77-82 Whitechapel High St","London","United States",51.5072178,-0.1275862,"MEDIUM","DUPLICATE_COORDINATES"
"a98fc792-40d4-49fb-a040-3215e876a667","Saturn","200 41st St S","Birmingham","USA",33.5242119,-86.7745711,"MEDIUM","DUPLICATE_COORDINATES"
"e7feb2a1-1a08-4680-bd3b-8c89d5e6ba5e","Rainbo Club","1150 N. Damen Ave.","Chicago","USA",41.902775,-87.6774815,"MEDIUM","DUPLICATE_COORDINATES"
"f9ea819b-0cb5-4194-8306-9b728d146861","Cole's Bar","2338 N Milwaukee Ave","Chicago","USA",41.9236672,-87.6988073,"MEDIUM","DUPLICATE_COORDINATES"
"5172ebd4-fe3f-4a28-94af-73dda9e3c7af","Smartbar","3730 N. Clark St.","Chicago","USA",41.9498373,-87.6589377,"MEDIUM","DUPLICATE_COORDINATES"
"97ce395a-7ef6-49b4-92d7-1dc51bb8e80c","Rainbo Club","1150 N. Damen Ave.","Chicago","USA",41.902775,-87.6774815,"MEDIUM","DUPLICATE_COORDINATES"
"024596b3-7e99-4b7a-a72d-f5b4a4c110ef","Cole's Bar","2338 N. Milwaukee Ave.","Chicago","USA",41.9236672,-87.6988073,"MEDIUM","DUPLICATE_COORDINATES"
"395f4159-d59c-4852-8825-12cd944a442b","FOTOAUTOMATICA","Via Pietro Francavilla n. 15","Firenze","Italy",43.7732157,11.2241922,"MEDIUM","DUPLICATE_COORDINATES"
"ae8f9a34-b08f-431e-a275-a403fb52b23e","Rainbo Club","1150 N. Damen Ave.","Wicker Park","USA",41.902775,-87.6774815,"MEDIUM","DUPLICATE_COORDINATES"
"83d50b26-e4d4-42b7-89da-1d6568498739","Booth By Bryant - Orange County","2944 Randolph Av","Costa Mesa","California",33.6780114,-117.8874122,"MEDIUM","DUPLICATE_COORDINATES"
"ff445feb-09a4-4b02-924b-32f16dd58455","Classic Photo Booth at San Francisco Exploratorium","Pier 15","San Francisco","USA",37.8008908,-122.3986652,"MEDIUM","TOO_SHORT"
"770a3b46-e8e7-4dfe-86ba-20e8e0e66f78","The Flamingo Bar","1855 Industrial St","Los Angeles","USA",34.0341,-118.2465,"MEDIUM","DUPLICATE_COORDINATES"
"6847f7ab-bbe3-446b-8ed4-a2d837b6e989","Cha Cha Lounge","2375 Glendale Blvd","Los Angeles","USA",34.0993554,-118.2594917,"MEDIUM","DUPLICATE_COORDINATES"
"e8967249-3fb8-443a-9a70-bf8b1af2ebce","4100 Bar","1087 Manzanita St","Los Angeles","USA",34.0929711,-118.2814424,"MEDIUM","DUPLICATE_COORDINATES"
"b4f7e493-ff79-4007-98ab-9cddfaa59734","LOVE HOUR","532 S Western Ave","Los Angeles","USA",34.0341,-118.2465,"MEDIUM","DUPLICATE_COORDINATES"
"cb8a5e71-b889-4252-9ae3-01fbee1c1401","Verdugo Bar","3408 Verdugo Rd","Los Angeles","USA",34.1138537,-118.2350672,"MEDIUM","DUPLICATE_COORDINATES"
"438504d1-2e0d-4238-95ba-9408199cdc84","Walt's Bar","4680 Eagle Rock Blvd","Los Angeles","USA",34.1296435,-118.2166639,"MEDIUM","DUPLICATE_COORDINATES"
"ac30c788-cd7e-491a-bf32-2c2d6df2d3ac","Vidiots","4884 Eagle Rock Blvd","Los Angeles","USA",34.1348965,-118.2150067,"MEDIUM","DUPLICATE_COORDINATES"
"eaeb0508-9eca-46d1-8092-a2799cbc3448","The Phoenix","8480 W 3rd St","Los Angeles","USA",34.0341,-118.2465,"MEDIUM","DUPLICATE_COORDINATES"
"5a4d401b-52cd-4062-bc06-8c7f61ceaea5","Tiny's Hi-Dive","12012 W Pico Blvd","Los Angeles","USA",34.0295316,-118.4494128,"MEDIUM","DUPLICATE_COORDINATES"
"c88af472-0aa6-48fd-bda4-c55a9ae8cfcb","Apple Doll (Pop-Up)","1212 Abbot Kinney Blvd","Venice","USA",34.0341,-118.2465,"MEDIUM","DUPLICATE_COORDINATES"
"987b4494-6e07-4ce0-896f-291010887c44","1212 Santa Monica","1212 3rd Street Promenade","Santa Monica","USA",34.0341,-118.2465,"MEDIUM","DUPLICATE_COORDINATES"
"515821ca-088b-410b-bb95-3ff6635e1767","The Hawk","468 W Anaheim St","Long Beach","USA",33.7822894,-118.1973545,"MEDIUM","DUPLICATE_COORDINATES"
"40e1b1de-1439-40f3-ab21-491191c6e447","The Blind Donkey","149 Linden Ave","Long Beach","USA",33.7690476,-118.1865789,"MEDIUM","DUPLICATE_COORDINATES"
"10b4d906-7929-4ac8-a191-4d92e875a2bd","FOTOAUTOMATICA","Via Pietro Francavilla n. 15","Firenze","Italy",43.7732157,11.2241922,"MEDIUM","DUPLICATE_COORDINATES"
"4d6cc197-d08b-4665-86a0-e471cad27ef8","Mauerpark 1","Eberswalder Str. 2","Berlin","Germany",52.5406668,13.4055012,"MEDIUM","DUPLICATE_COORDINATES"
"c421d85c-96bb-4578-ae43-4e3855609943","Mauerpark 2","Eberswalder Str 2","Berlin","Germany",52.5406668,13.4055012,"MEDIUM","DUPLICATE_COORDINATES"
"8f9ff609-6820-418c-a1df-cdf2fedbe021","ACUD","Veteranenstraße 21","Berlin","Germany",52.5335802,13.4009513,"MEDIUM","DUPLICATE_COORDINATES"
"b9a5a053-ebfe-4214-b635-6aa0613c3ad7","Kulturbrauerei","Schönhauser Allee 36","Berlin","Germany",52.5383047,13.4127573,"MEDIUM","DUPLICATE_COORDINATES"
"cd18212b-9b29-4d60-80d0-c9ac5044cad6","Schönhauser Allee","Schönhauser Allee 63","Berlin","Germany",52.5459084,13.413577,"MEDIUM","DUPLICATE_COORDINATES"
"5461a116-a69a-4d6f-8ebf-ee8562b7f169","Warschauer Brücke 1","Revalerstraße 99","Berlin","Germany",52.5074638,13.4546177,"MEDIUM","DUPLICATE_COORDINATES"
"8d81d16f-ee40-47e0-ad8d-271ef99327a9","RAW 1","Revaler Straße 99","Berlin","Germany",52.5074638,13.4546177,"MEDIUM","DUPLICATE_COORDINATES"
"8dee8a99-331e-4d7a-96f6-3f6d0d11c8ab","RAW 2","Revaler Straße 99","Berlin","Germany",52.5074638,13.4546177,"MEDIUM","DUPLICATE_COORDINATES"
"f11d1f95-84ab-41ed-ba5b-ae7687d00541","Schlesisches Tor","Oppelner Straße 48","Berlin","Germany",52.5003224,13.4416967,"MEDIUM","DUPLICATE_COORDINATES"
"b76ac57c-3a65-4e86-8cf4-32424dfd85d6","Markthalle Neun","Eisenbahnstraße 42","Berlin","Germany",52.5021335,13.4316207,"MEDIUM","DUPLICATE_COORDINATES"
"625a2247-70fa-443f-910d-03fee043a1af","Trabi World","Zimmerstraße 97","Berlin","Germany",52.5076709,13.3867783,"MEDIUM","DUPLICATE_COORDINATES"
"72d62100-4928-4781-a6d4-0545eec0aea4","Hobrecht","Hobrecht Straße 57","Berlin","Germany",52.491133,13.4259492,"MEDIUM","DUPLICATE_COORDINATES"
"5910929c-7698-4a4d-8a4e-8cd101c0f136","Holzmarkt Straße","Holzmarktstraße 25","Berlin","Germany",52.5115453,13.4265729,"MEDIUM","DUPLICATE_COORDINATES"
"f3f86e01-0f76-4996-a16c-e3e8ea7c0fe5","Holzmarkt Marktplatz","Holzmarktstraße 25","Berlin","Germany",52.5115453,13.4265729,"MEDIUM","DUPLICATE_COORDINATES"
"3c584634-be6a-4f9e-8491-c87ac4f51950","Kater Blau Club","Holzmarkt Straße 25","Berlin","Germany",52.5115453,13.4265729,"MEDIUM","DUPLICATE_COORDINATES"
"5e6ca875-4bf1-4e51-b715-0ebbc7d25f47","Martas Gästehäuser","Seydlitzstraße 20","Berlin","Germany",52.5269518,13.362132,"MEDIUM","DUPLICATE_COORDINATES"
"550b7ed8-be1b-4836-b36e-7a10e5174218","Mauerpark 1","Eberswalder Str. 2","Berlin","Germany",52.5406703,13.4055075,"MEDIUM","DUPLICATE_COORDINATES"
"048e472d-9e5e-42ef-a7f6-a0181c9e5547","Mauerpark 2","Eberswalder Str 2","Berlin","Germany",52.5406703,13.4055075,"MEDIUM","DUPLICATE_COORDINATES"
"1f25e436-7ff9-432d-bd34-9842bb58e324","ACUD","Veteranenstraße 21","Berlin","Germany",52.5336588,13.4008151,"MEDIUM","DUPLICATE_COORDINATES"
"a5e7e114-ade9-4818-9304-f3a309a766b8","Warschauer Brücke 1","Warschauer Str. 1, 10243 Berlin, Germany","Berlin","Germany",52.5150276,13.4534957,"MEDIUM","DUPLICATE_COORDINATES"
"b6bea520-ca6f-4fb8-8b53-8fea58b41158","Warschauer Brücke 2","Revaler Straße 99","Berlin","Germany",52.5074638,13.4546177,"MEDIUM","DUPLICATE_COORDINATES"
"9fc47d0b-f8c0-4d44-b206-7e0495db9f69","Warschauer Straße 54","Warschauer Str. 54, 10245 Berlin, Germany","Berlin","Germany",52.5083856,13.4511726,"MEDIUM","DUPLICATE_COORDINATES"
"8b049356-6fb9-4949-944e-b48a758e45b0","Schlesisches Tor","Oppelner Straße 48","Berlin","Germany",52.5003224,13.4416967,"MEDIUM","DUPLICATE_COORDINATES"
"2f4f4a11-f818-4188-92af-ae2a4fa024f4","Markthalle Neun","Eisenbahnstraße 42","Berlin","Germany",52.5021335,13.4316207,"MEDIUM","DUPLICATE_COORDINATES"
"c515aa69-2959-44c3-991e-6b8a82d54ea6","Martas Gästehäuser","Seydlitzstraße 20, 10557 Berlin, Germany","Berlin","Germany",52.5269518,13.362132,"MEDIUM","DUPLICATE_COORDINATES"
"62311418-5aa4-4b97-ac6e-e5ae43ac3d79","FOTOAUTOMATICA","Via Pietro Francavilla n. 15","Firenze","Italy",43.7732157,11.2241922,"MEDIUM","DUPLICATE_COORDINATES"
"8895a5b9-24b4-438e-bd6d-7abaa4975ecf","25hours Hotel Wien Dachboden","25hours Hotel Wien Rooftop","Vienna","Austria",48.2064947,16.3546991,"MEDIUM","DUPLICATE_COORDINATES"
"f3856c1d-b900-4996-a42d-f2c537fd98e1","Pratersauna","Waldsteingartenstraße 135, 1020 Wien, Austria","Vienna","Austria",48.2132778,16.405193,"MEDIUM","DUPLICATE_COORDINATES"
"fdbf2fec-41bb-4089-b79f-971af0f5cc75","Holiday Club","4000 N Sheridan Rd, Chicago, IL 60613, USA","Chicago","USA",41.954588,-87.654726,"MEDIUM","DUPLICATE_COORDINATES"
"9ae53f0b-5b2a-49d6-8879-51e2b576bd00","The Flamingo Bar","1855 Industrial St","Los Angeles, CA 90021","USA",34.0359864,-118.2328349,"MEDIUM","DUPLICATE_COORDINATES"
"50b5cc03-4f11-485f-aa41-8e5162a2e3bb","Cha Cha Lounge","2375 Glendale Blvd","Los Angeles, CA 90039","USA",34.0993554,-118.2594917,"MEDIUM","DUPLICATE_COORDINATES"
"ed316fa9-aabc-4a30-a468-5a1cbc03f22c","Backstage Bar & Grill","10400 Culver Blvd","Culver City, CA 90232","USA",34.016274,-118.400143,"MEDIUM","DUPLICATE_COORDINATES"
"7b56acb9-3abb-4e42-82ad-979db7102bf0","Tiny's Hi-Dive","12012 W Pico Blvd","Los Angeles, CA 90064","USA",34.0295316,-118.4494128,"MEDIUM","DUPLICATE_COORDINATES"
"03e90474-dcc5-4cda-9edc-191c089d3dfb","The Hawk","468 W Anaheim St","Long Beach, CA 90813","USA",33.7822894,-118.1973545,"MEDIUM","DUPLICATE_COORDINATES"
"6e55317b-b4c6-4855-8325-f5c04eced73b","The Blind Donkey","149 Linden Ave","Long Beach, CA 90802","USA",33.7690476,-118.1865789,"MEDIUM","DUPLICATE_COORDINATES"
"4e3c9fe8-cd60-45b5-8178-8a4edd06d568","Linnelabbet","Nordhemsgatan 29, 413 06 Göteborg, Sweden","Göteborg","Sweden",57.6971538,11.9499649,"MEDIUM","DUPLICATE_COORDINATES"
"3e8eac40-6597-49fa-a996-0f0e8d6a1869","4100 Bar","1087 Manzanita St","Los Angeles, CA 90029","USA",34.0929711,-118.2814424,"MEDIUM","DUPLICATE_COORDINATES"
"137b3bff-d32c-4702-8e95-5ecf444067d6","Apple Doll (Pop-Up)","1212 Abbot Kinney Blvd","Venice, CA 90291","USA",33.9910807,-118.4688547,"MEDIUM","DUPLICATE_COORDINATES"
"7858a34d-435b-4c91-888c-48660d666210","The Hawk","468 W Anaheim St","Long Beach, CA 90813","USA",33.7822894,-118.1973545,"MEDIUM","DUPLICATE_COORDINATES"
"afcb65c6-b850-47c9-99b5-88059ebf1167","Booth By Bryant - Camp Out","2944 Randolph Av","Costa Mesa, California","USA",33.6780114,-117.8874122,"MEDIUM","DUPLICATE_COORDINATES"
"34b8afc3-8d4d-4762-b2f7-161056467e1c","Mauerpark 1","Eberswalder Str. 2","Berlin","Germany",52.5406668,13.4055012,"MEDIUM","DUPLICATE_COORDINATES"
"cc869e44-0c61-4e3f-8c25-f55022c71e25","Kulturbrauerei","Schönhauser Allee 36","Berlin","Germany",52.5383047,13.4127573,"MEDIUM","DUPLICATE_COORDINATES"
"761aebd5-2162-4c6e-bf1c-f742b42ce0e0","Schönhauser Allee","Schönhauser Allee 63","Berlin","Germany",52.5459084,13.413577,"MEDIUM","DUPLICATE_COORDINATES"
"85e58c3b-605a-4e95-87ec-f4087efd9a40","Markthalle Neun","Eisenbahnstraße 42","Berlin","Germany",52.5021335,13.4316207,"MEDIUM","DUPLICATE_COORDINATES"
"11c81a8c-df33-47fe-b725-f8ead9d34118","Trabi World","Zimmerstraße 97","Berlin","Germany",52.5076709,13.3867783,"MEDIUM","DUPLICATE_COORDINATES"
"7e910094-3cea-466b-99c5-649d28ad2054","Hobrecht","Hobrecht Straße 57","Berlin","Germany",52.491133,13.4259492,"MEDIUM","DUPLICATE_COORDINATES"
"42176f2d-415d-43ca-8b8c-077a10223b7f","Holzmarkt Straße","Holzmarktstraße 25","Berlin","Germany",52.5115453,13.4265729,"MEDIUM","DUPLICATE_COORDINATES"
"6f8c51e6-540b-49f6-9c72-91f83d4b6763","Kater Blau Club","Holzmarkt Straße 25","Berlin","Germany",52.5115453,13.4265729,"MEDIUM","DUPLICATE_COORDINATES"
"1bbba94c-c454-48fb-9fb2-8191227666a3","Zenner Biergarten","Alt-Treptow 15-17","Berlin","Germany",52.4925634,13.4598743,"MEDIUM","DUPLICATE_COORDINATES"
"33d50b34-1e99-4f94-99c0-ea45f1c10dbf","Martas Gästehäuser","Seydlitzstraße 20, 10557 Berlin, Germany","Berlin","Germany",52.5269518,13.362132,"MEDIUM","DUPLICATE_COORDINATES"
"701f23e3-5c91-49a2-8cb6-550b50585178","Mauerpark 1","Eberswalder Str. 2","Berlin","Germany",52.5406703,13.4055075,"MEDIUM","DUPLICATE_COORDINATES"
"f42c062d-870b-4dbc-98e5-947c5731b597","ACUD","Veteranenstraße 21","Berlin","Germany",52.5336588,13.4008151,"MEDIUM","DUPLICATE_COORDINATES"
"19644991-7768-48fd-a191-aaf32395ce80","Warschauer Brücke 1","Warschauer Str. 1, 10243 Berlin, Germany","Berlin","Germany",52.5150276,13.4534957,"MEDIUM","DUPLICATE_COORDINATES"
"15f644d2-04e8-4740-afc6-fae3c026fe8a","Warschauer Straße 54","Warschauer Str. 54, 10245 Berlin, Germany","Berlin","Germany",52.5083856,13.4511726,"MEDIUM","DUPLICATE_COORDINATES"
"5d11b4cd-1151-4b13-b209-5bb7a7addf17","Zenner Biergarten","Alt-Treptow 15-17","Berlin","Germany",52.4925634,13.4598743,"MEDIUM","DUPLICATE_COORDINATES"
"19684acd-4533-41ac-9b66-6f6149831130","Martas Gästehäuser","Seydlitzstraße 20, 10557 Berlin, Germany","Berlin","Germany",52.5269518,13.362132,"MEDIUM","DUPLICATE_COORDINATES"
"84771c7c-d4d1-4189-96ee-ca8d9c055bde","Cole's Bar","2338 N Milwaukee Ave","Chicago","USA",41.9236672,-87.6988073,"MEDIUM","DUPLICATE_COORDINATES"
"22a2557b-f4df-4965-b4f7-25be044f41f0","Metro","3730 N Clark St","Chicago","USA",41.9498373,-87.6589377,"MEDIUM","DUPLICATE_COORDINATES"
"f2ee4864-b929-4c61-9b00-5df97a9301ef","Circus Circus #4","2880 Las Vegas Boulevard South","Las Vegas","USA",36.137142,-115.161766,"MEDIUM","DUPLICATE_COORDINATES"
"cc2d4809-e438-434e-baa8-90463451468a","National Theater","Národní 4","Prague","Czech Republic",50.08128,14.415019,"MEDIUM","TOO_SHORT"
"d3cf5984-5e28-409d-b329-b069b20369ea","Circus Circus #2","2880 Las Vegas Boulevard South","Las Vegas","USA",36.137142,-115.161766,"MEDIUM","DUPLICATE_COORDINATES"
"b9bc2f81-5f9d-4e66-909d-0fc81a8c2cc8","Casino Arcade I","400 Beach St.","Santa Cruz","USA",36.964188,-122.020149,"MEDIUM","DUPLICATE_COORDINATES"
"d674dd35-b8c5-4d51-9d97-5ed1c4fdd3bc","Orange County Fair B6","88 Fair Drive","Costa Mesa","USA",33.665833,-117.902252,"MEDIUM","DUPLICATE_COORDINATES"
"dc31ce11-f7ef-4f42-a59b-b99e68f2763c","Casino Arcade IV","400 Beach St.   Santa Cruz, CA 95060","Santa Cruz","USA",36.964188,-122.020149,"MEDIUM","DUPLICATE_COORDINATES"
"a484e28e-8ece-4eab-9f79-fa4e1fab6b1d","The Village Tap","2055 W Roscoe St, Chicago, IL 60618, USA","Chicago","USA",41.943072,-87.6805961,"MEDIUM","DUPLICATE_COORDINATES"
"bd70be1e-5bad-4fd5-bec8-516d6de443f9","Autophoto Gallery + Museum II","121 Orchard St, New York, NY 10002, USA","New York","USA",40.71951,-73.98978,"MEDIUM","DUPLICATE_COORDINATES"
"81d2bc1c-b849-4e56-9b2e-582ce9c5ca7e","Riga Bus Station","Nēģu 7","Riga","LAT",56.944004,24.117342,"MEDIUM","TOO_SHORT"
"df4b69d1-010e-4c65-affd-009658005496","Casino Arcade II","400 Beach St.","Santa Cruz","USA",36.964188,-122.020149,"MEDIUM","DUPLICATE_COORDINATES"
"dbbd6b13-aa8b-4255-bb33-8d11416d948c","Orange County Fair A3","88 Fair Drive","Costa Mesa","USA",33.665833,-117.902252,"MEDIUM","DUPLICATE_COORDINATES"
"32eb79f4-d128-42c8-a65e-280325b05671","Orange County Fair C3","88 Fair Drive","Costa Mesa","USA",33.665833,-117.902252,"MEDIUM","DUPLICATE_COORDINATES"
"08e5d188-0d3f-44be-8afb-cd4fac51970b","Orange County Fair A7","88 Fair Drive","Costa Mesa","USA",33.665833,-117.902252,"MEDIUM","DUPLICATE_COORDINATES"
"a33949c0-f334-4117-b286-d0d39f5b9b38","Rainbo Club","1150 N Damen Ave","Chicago","USA",41.902775,-87.6774815,"MEDIUM","DUPLICATE_COORDINATES"
"61eecd01-bf0b-4d74-b145-fb7f512b1547","Saturn","200 41st St S","Birmingham","USA",33.5242119,-86.7745711,"MEDIUM","DUPLICATE_COORDINATES"
"512d1f3f-b906-4254-a0b1-6b2ed6d17106","Alex’s Bar","2913 E Anaheim St","Long Beach","USA",34.0341,-118.2465,"MEDIUM","DUPLICATE_COORDINATES"
"c1c19ef4-69b6-409a-a26d-79d47da55142","Walt’s Bar","4680 Eagle Rock Blvd","Los Angeles","USA",34.0341,-118.2465,"MEDIUM","DUPLICATE_COORDINATES"
"3788c731-8141-48ee-add7-f482fafef909","Day to Day Collective","2310 Kettner Blvd","San Diego","USA",32.7281138,-117.1717337,"MEDIUM","DUPLICATE_COORDINATES"
"02014915-f92d-4360-9b13-e5792a7551fa","FOTOAUTOMATICA","Via Pietro Francavilla n. 15","Firenze","Italy",43.7732157,11.2241922,"MEDIUM","DUPLICATE_COORDINATES"
"d7f8042d-f230-4b68-9a78-448da7c49e99","Cha Cha Lounge","2375 Glendale Blvd","Los Angeles","USA",34.0341,-118.2465,"MEDIUM","DUPLICATE_COORDINATES"
"f6494d97-b899-46c0-8653-0e481f8a6776","4100 Bar","1087 Manzanita St","Los Angeles","USA",34.0341,-118.2465,"MEDIUM","DUPLICATE_COORDINATES"
"864b5259-6bfe-45d3-a389-6a8e374c1391","Vidiots","4884 Eagle Rock Blvd","Los Angeles","USA",34.0341,-118.2465,"MEDIUM","DUPLICATE_COORDINATES"
"d17abe1b-52eb-472f-96d4-cbc098c2d1de","The Hawk","468 W Anaheim St","Long Beach","USA",34.0341,-118.2465,"MEDIUM","DUPLICATE_COORDINATES"
"969cfed3-30d4-49d2-a0d5-be817fd2c783","Club Photomatica","1644 Haight St","San Francisco","USA",37.7699204,-122.4494355,"MEDIUM","DUPLICATE_COORDINATES"
"f9ae382f-d911-49ef-a0b8-f0495bf3445a","Musée Mécanique - Analog Booth","Pier 45, Fisherman's Wharf","San Francisco","USA",37.80968,-122.4174783,"MEDIUM","DUPLICATE_COORDINATES"
"48b2d4ac-ebbe-4cf5-887e-60adc5352e66","The Knockout","3223 Mission St","San Francisco","USA",37.7451489,-122.4199626,"MEDIUM","DUPLICATE_COORDINATES"
"74a08d1d-c1d3-45d7-a004-d4f7d8561584","Union Pool","484 Union Ave","Brooklyn","USA",40.7149712,-73.9514538,"MEDIUM","DUPLICATE_COORDINATES"
"37543ae7-8431-413e-9317-abb12d2851de","The Photo Booth Museum","2275 Market St","San Francisco","USA",37.76456,-122.4320153,"MEDIUM","DUPLICATE_COORDINATES"
"fed63a1b-5aa4-40dd-b5e2-4a9936a4fa94","Club Photomatica","1644 Haight St","San Francisco","USA",37.7699204,-122.4494355,"MEDIUM","DUPLICATE_COORDINATES"
"db71f568-f36f-4b78-8dc5-03de954a6a15","Thee Parkside","1600 17th St","San Francisco","USA",37.7651653,-122.3998925,"MEDIUM","DUPLICATE_COORDINATES"
"77ea16f3-ac67-42d0-9435-5ac0108b78d0","The Knockout","3223 Mission St","San Francisco","USA",37.7451489,-122.4199626,"MEDIUM","DUPLICATE_COORDINATES"
"925c8cf7-c4e3-43dd-b2a9-65cc955f695d","Citizen Supply @ Ponce City Market","675 Ponce De Leon Ave NE NW208","Atlanta","USA",33.7720675,-84.365377,"MEDIUM","DUPLICATE_COORDINATES"
"bdc71c44-a8aa-4f70-95c8-d73dcfa84938","Booth By Bryant - Costa Mesa","2944 Randolph Av","Costa Mesa","United States",33.6780114,-117.8874122,"MEDIUM","DUPLICATE_COORDINATES"