Severity,Issue Type,Booth Name,Slug,City,Country,Address,Latitude,Longitude,Details,Google Maps URL
high,missing_coordinates,"N/A",n-a-n-a,"N/A","N/A","N/A",,,"No coordinates available",https://www.google.com/maps/search/?api=1&query=N%2FA%2C%20N%2FA
high,wrong_country,"Ace Hotel London Shoreditch",ace-hotel-london-shoreditch-london,"London","United Kingdom","100 Shoreditch High Street",38.7945952,-106.5348379,"Coordinates (38.7945952, -106.5348379) are not in United Kingdom",https://www.google.com/maps?q=38.7945952,-106.5348379
high,wrong_country,"Achtung! Baby",achtung-baby-the-hague,"The Hague","United States","Prins Hendrikstraat 97",52.0704978,4.3006999,"Coordinates (52.0704978, 4.3006999) are not in United States",https://www.google.com/maps?q=52.0704978,4.3006999
high,wrong_country,"ars-imago",ars-imago-z-rich,"Zürich","United States","Josefstrasse 53",47.3768866,8.541694,"Coordinates (47.3768866, 8.541694) are not in United States",https://www.google.com/maps?q=47.3768866,8.541694
high,wrong_country,"Associazione Culturale Neibar",associazione-culturale-neibar-venturina,"Venturina","United States","Via Indipendenza, 211, 57021 Venturina Terme LI, Italy",43.0298295,10.600157,"Coordinates (43.0298295, 10.600157) are not in United States",https://www.google.com/maps?q=43.0298295,10.600157
high,wrong_country,"Avalon Mall I",avalon-mall-i-st-john-s,"St. John's","United States","48 Kenmount Road",47.5603865,-52.7564686,"Coordinates (47.5603865, -52.7564686) are not in United States",https://www.google.com/maps?q=47.5603865,-52.7564686
high,wrong_country,"Avalon Mall II",avalon-mall-ii-st-john-s,"St. John's","United States","48 Kenmount Road",47.5603865,-52.7564686,"Coordinates (47.5603865, -52.7564686) are not in United States",https://www.google.com/maps?q=47.5603865,-52.7564686
high,wrong_country,"Beyond Retro",beyond-retro-brighton,"Brighton","United States","23 Gloucester Rd, Brighton and Hove, Brighton BN1 4AD, UK",50.8267775,-0.1380101,"Coordinates (50.8267775, -0.1380101) are not in United States",https://www.google.com/maps?q=50.8267775,-0.1380101
high,wrong_country,"Billings Bridge Centre",billings-bridge-centre-ottawa,"Ottawa","Canada","2277 Riverside Drive East",38.7945952,-106.5348379,"Coordinates (38.7945952, -106.5348379) are not in Canada",https://www.google.com/maps?q=38.7945952,-106.5348379
high,wrong_country,"Borgo Burger",borgo-burger-livorno,"Livorno","United States","Via delle Vele, 7, 57126 Livorno LI, Italy",43.5455773,10.3046059,"Coordinates (43.5455773, 10.3046059) are not in United States",https://www.google.com/maps?q=43.5455773,10.3046059
high,wrong_country,"Bridgewater Mall",bridgewater-mall-bridgewater,"Bridgewater","United States","441 LaHave St.",44.3795966,-64.5213299,"Coordinates (44.3795966, -64.5213299) are not in United States",https://www.google.com/maps?q=44.3795966,-64.5213299
high,wrong_country,"Broadway Shopping Centre",broadway-shopping-centre-glebe,"Glebe","United States","1 Bay St, Glebe NSW 2037, Australia",-33.8837417,151.194767,"Coordinates (-33.8837417, 151.194767) are not in United States",https://www.google.com/maps?q=-33.8837417,151.194767
high,wrong_country,"Broadway Shopping Centre II",broadway-shopping-centre-ii-glebe,"Glebe","United States","3/1 Bay St.",-33.8837417,151.194767,"Coordinates (-33.8837417, 151.194767) are not in United States",https://www.google.com/maps?q=-33.8837417,151.194767
high,wrong_country,"Bruesseler Strasse",bruesseler-strasse-k-ouml-ln,"K&ouml;ln","United States","Bruesseler Strasse 47",50.9366493,6.9344407,"Coordinates (50.9366493, 6.9344407) are not in United States",https://www.google.com/maps?q=50.9366493,6.9344407
high,wrong_country,"Calgary Greyhound Station",calgary-greyhound-station-calgary,"Calgary","Canada","850 - 16th St.",38.7945952,-106.5348379,"Coordinates (38.7945952, -106.5348379) are not in Canada",https://www.google.com/maps?q=38.7945952,-106.5348379
high,wrong_country,"Cargo Bar and Lounge",cargo-bar-and-lounge-sydney,"Sydney","United States","Darling Harbour, King Street Wharf Darling Harbour, 52-60 The Promenade, Sydney NSW 2000, Australia",-33.8686551,151.2018329,"Coordinates (-33.8686551, 151.2018329) are not in United States",https://www.google.com/maps?q=-33.8686551,151.2018329
high,wrong_country,"Century City Walk",century-city-walk-glen-waverley,"Glen Waverley","United States","285 Springvale Rd",-37.8743502,145.1668205,"Coordinates (-37.8743502, 145.1668205) are not in United States",https://www.google.com/maps?q=-37.8743502,145.1668205
high,wrong_country,"Champlain Place",champlain-place-dieppe,"Dieppe","United States","477 Paul Street",46.096309,-64.7607677,"Coordinates (46.096309, -64.7607677) are not in United States",https://www.google.com/maps?q=46.096309,-64.7607677
high,wrong_country,"Chapel Street",chapel-street-prahran,"Prahran","United States","325 Chapel St, Prahran VIC 3181, Australia",-37.8472959,144.9934684,"Coordinates (-37.8472959, 144.9934684) are not in United States",https://www.google.com/maps?q=-37.8472959,144.9934684
high,wrong_country,"Checkpoint Charlie",checkpoint-charlie-berlin,"Berlin","Germany","Friedrichstrae",44.4686696,-71.1850768,"Coordinates (44.4686696, -71.1850768) are not in Germany",https://www.google.com/maps?q=44.4686696,-71.1850768
high,wrong_country,"Classic Football Shirts",classic-football-shirts-london,"London","United Kingdom","17 Commercial Street",37.103436,-84.0650427,"Coordinates (37.103436, -84.0650427) are not in United Kingdom",https://www.google.com/maps?q=37.103436,-84.0650427
high,wrong_country,"Coal Drops Yard",coal-drops-yard-london,"London","United Kingdom","Lower Stable Street",38.7945952,-106.5348379,"Coordinates (38.7945952, -106.5348379) are not in United Kingdom",https://www.google.com/maps?q=38.7945952,-106.5348379
high,wrong_country,"Eau Claire Market",eau-claire-market-calgary,"Calgary","Canada","229-200 Barclay Parade SW",38.7945952,-106.5348379,"Coordinates (38.7945952, -106.5348379) are not in Canada",https://www.google.com/maps?q=38.7945952,-106.5348379
high,wrong_country,"Edmonton City Centre",edmonton-city-centre-edmonton,"Edmonton","United States","803-10088 102 Avenue NW",53.543925,-113.4922762,"Coordinates (53.543925, -113.4922762) are not in United States",https://www.google.com/maps?q=53.543925,-113.4922762
high,wrong_country,"Falckenstein-strasse 3",falckenstein-strasse-3-berlin,"Berlin","Germany","Falckensteinstrasse 3",38.3588522,-75.2245693,"Coordinates (38.3588522, -75.2245693) are not in Germany",https://www.google.com/maps?q=38.3588522,-75.2245693
high,wrong_country,"Flinders Street Station I",flinders-street-station-i-melbourne,"Melbourne","United States","Flinders Street and  St. Kilda Rd.",-37.8182711,144.9670618,"Coordinates (-37.8182711, 144.9670618) are not in United States",https://www.google.com/maps?q=-37.8182711,144.9670618
high,wrong_country,"Flinders Street Station II",flinders-street-station-ii-melbourne,"Melbourne","United States","Flinders St, Melbourne VIC 3000, Australia",-37.8182711,144.9670618,"Coordinates (-37.8182711, 144.9670618) are not in United States",https://www.google.com/maps?q=-37.8182711,144.9670618
high,wrong_country,"Fondation Manuel Rivera Ortiz",fondation-manuel-rivera-ortiz-arles,"Arles","United States","18 rue de la Calade",43.6771067,4.6281175,"Coordinates (43.6771067, 4.6281175) are not in United States",https://www.google.com/maps?q=43.6771067,4.6281175
high,wrong_country,"Fred Aldous II",fred-aldous-ii-manchester,"Manchester","United Kingdom","37 Lever Street",42.89975,-71.49248,"Coordinates (42.89975, -71.49248) are not in United Kingdom",https://www.google.com/maps?q=42.89975,-71.49248
high,wrong_country,"Geroldstrasse 35",geroldstrasse-35-z-rich,"Zürich","United States","Geroldstrasse 35",47.3768866,8.541694,"Coordinates (47.3768866, 8.541694) are not in United States",https://www.google.com/maps?q=47.3768866,8.541694
high,wrong_country,"Gerrard Square",gerrard-square-toronto,"Toronto","Canada","1000 Gerrard Street East",38.7945952,-106.5348379,"Coordinates (38.7945952, -106.5348379) are not in Canada",https://www.google.com/maps?q=38.7945952,-106.5348379
high,wrong_country,"Goldbrunnenstr.",goldbrunnenstr-z-uuml-rich,"Z&uuml;rich","United States","Goldbrunnenstrasse 128",47.3712072,8.5126032,"Coordinates (47.3712072, 8.5126032) are not in United States",https://www.google.com/maps?q=47.3712072,8.5126032
high,wrong_country,"Hackney Bridge",hackney-bridge-london,"London","United Kingdom","Units 1-28, Echo Building, East Bay Lane",39.8864493,-83.4482529,"Coordinates (39.8864493, -83.4482529) are not in United Kingdom",https://www.google.com/maps?q=39.8864493,-83.4482529
high,wrong_country,"Hala Gwardii",hala-gwardii-warszawa,"Warszawa","United States","plac Żelaznej Bramy 1, 00-136 Warszawa, Poland",52.239432,21.0000011,"Coordinates (52.239432, 21.0000011) are not in United States",https://www.google.com/maps?q=52.239432,21.0000011
high,wrong_country,"Halifax Shopping Centre",halifax-shopping-centre-halifax,"Halifax","United States","7001 Mumford Rd.",44.649249,-63.618682,"Coordinates (44.649249, -63.618682) are not in United States",https://www.google.com/maps?q=44.649249,-63.618682
high,wrong_country,"Hardenberg-strasse 22",hardenberg-strasse-22-berlin,"Berlin","Germany","Hardenbergstrasse 22",38.7945952,-106.5348379,"Coordinates (38.7945952, -106.5348379) are not in Germany",https://www.google.com/maps?q=38.7945952,-106.5348379
high,wrong_country,"Helsinki Railway Station",helsinki-railway-station-helsinki,"Helsinki","United States","Kaivokatu 1, 00100 Helsinki, Finland",60.1718729,24.9414217,"Coordinates (60.1718729, 24.9414217) are not in United States",https://www.google.com/maps?q=60.1718729,24.9414217
high,wrong_country,"Helsinki Railway Station II",helsinki-railway-station-ii-helsinki,"Helsinki","United States","Kaivokatu 1, 00100 Helsinki, Finland",60.1718729,24.9414217,"Coordinates (60.1718729, 24.9414217) are not in United States",https://www.google.com/maps?q=60.1718729,24.9414217
high,wrong_country,"Holzmarkt",holzmarkt-berlin,"Berlin","Germany","Holzmarktstrae 25",38.7945952,-106.5348379,"Coordinates (38.7945952, -106.5348379) are not in Germany",https://www.google.com/maps?q=38.7945952,-106.5348379
high,wrong_country,"John Curtin Hotel",john-curtin-hotel-melbourne,"Melbourne","United States","29 Lygon St.",-37.8062037,144.9657147,"Coordinates (-37.8062037, 144.9657147) are not in United States",https://www.google.com/maps?q=-37.8062037,144.9657147
high,wrong_country,"Kaiser's",kaiser-s-berlin,"Berlin","Germany","Revalerstrasse 2",38.7945952,-106.5348379,"Coordinates (38.7945952, -106.5348379) are not in Germany",https://www.google.com/maps?q=38.7945952,-106.5348379
high,wrong_country,"Kanzlei Club",kanzlei-club-z-uuml-rich,"Z&uuml;rich","United States","Kanzleistrasse 56",47.3768866,8.541694,"Coordinates (47.3768866, 8.541694) are not in United States",https://www.google.com/maps?q=47.3768866,8.541694
high,wrong_country,"Kastanienallee",kastanienallee-berlin,"Berlin","Germany","Kastanienallee 100",38.7945952,-106.5348379,"Coordinates (38.7945952, -106.5348379) are not in Germany",https://www.google.com/maps?q=38.7945952,-106.5348379
high,wrong_country,"Kastanienallee II",kastanienallee-ii-berlin,"Berlin","Germany","Kastanienallee 100",38.7945952,-106.5348379,"Coordinates (38.7945952, -106.5348379) are not in Germany",https://www.google.com/maps?q=38.7945952,-106.5348379
high,wrong_country,"Kino Světozor",kino-sv-tozor-praha-1,"Praha 1","United States","Vodičkova 41",50.0819765,14.4253793,"Coordinates (50.0819765, 14.4253793) are not in United States",https://www.google.com/maps?q=50.0819765,14.4253793
high,wrong_country,"Lenin's Quay",lenin-s-quay-alushta,"Alushta","United States","",44.676383,34.41005,"Coordinates (44.676383, 34.41005) are not in United States",https://www.google.com/maps?q=44.676383,34.41005
high,wrong_country,"Les Rencontres d'Arles",les-rencontres-d-arles-arles,"Arles","United States","34 Rue du Dr Fanton, 13200 Arles, France",43.678377,4.6257647,"Coordinates (43.678377, 4.6257647) are not in United States",https://www.google.com/maps?q=43.678377,4.6257647
high,wrong_country,"Machimbombo",machimbombo-lisboa,"Lisboa","United States","Calçada do Combro 87, ",38.7222524,-9.1393366,"Coordinates (38.7222524, -9.1393366) are not in United States",https://www.google.com/maps?q=38.7222524,-9.1393366
high,wrong_country,"Magasin de jouets",magasin-de-jouets-arles,"Arles","United States","zone Fourchon, Rue de Sagne, 13200 Arles, France",43.667123,4.636405,"Coordinates (43.667123, 4.636405) are not in United States",https://www.google.com/maps?q=43.667123,4.636405
high,wrong_country,"Marienburger Stra&szlig;e",marienburger-stra-szlig-e-berlin,"Berlin","Germany","Marienburgerstra&szlig;e 19",38.7945952,-106.5348379,"Coordinates (38.7945952, -106.5348379) are not in Germany",https://www.google.com/maps?q=38.7945952,-106.5348379
high,wrong_country,"Mauerpark A",mauerpark-a-berlin,"Berlin","Germany","Eberswalder Str.",38.7945952,-106.5348379,"Coordinates (38.7945952, -106.5348379) are not in Germany",https://www.google.com/maps?q=38.7945952,-106.5348379
high,wrong_country,"Mauerpark B",mauerpark-b-berlin,"Berlin","Germany","Eberswalder Str.",38.7945952,-106.5348379,"Coordinates (38.7945952, -106.5348379) are not in Germany",https://www.google.com/maps?q=38.7945952,-106.5348379
high,wrong_country,"Mill Woods Town Centre",mill-woods-town-centre-edmonton,"Edmonton","United States","331 66 St. NW",53.4361032,-113.4412991,"Coordinates (53.4361032, -113.4412991) are not in United States",https://www.google.com/maps?q=53.4361032,-113.4412991
high,wrong_country,"Modulor",modulor-berlin,"Berlin","Germany","Prinzenstrasse 85",38.7945952,-106.5348379,"Coordinates (38.7945952, -106.5348379) are not in Germany",https://www.google.com/maps?q=38.7945952,-106.5348379
high,wrong_country,"Musée de l'Elysée",mus-e-de-l-elys-e-lausanne,"Lausanne","United States","Pl. de la Gare 17, 1003 Lausanne, Switzerland",46.5184452,6.6238765,"Coordinates (46.5184452, 6.6238765) are not in United States",https://www.google.com/maps?q=46.5184452,6.6238765
high,wrong_country,"Myer Centre Adelaide I",myer-centre-adelaide-i-adelaide,"Adelaide","United States","14/38 Rundle Mall, Adelaide SA 5000, Australia",-34.922513,138.6006507,"Coordinates (-34.922513, 138.6006507) are not in United States",https://www.google.com/maps?q=-34.922513,138.6006507
high,wrong_country,"Myer Centre Adelaide II",myer-centre-adelaide-ii-adelaide,"Adelaide","United States","22 Rundle Mall",-34.9222779,138.6005951,"Coordinates (-34.9222779, 138.6005951) are not in United States",https://www.google.com/maps?q=-34.9222779,138.6005951
high,wrong_country,"Ottawa Bus Central Station",ottawa-bus-central-station-ottawa,"Ottawa","Canada","265 Catherine Street",41.338782,-88.838534,"Coordinates (41.338782, -88.838534) are not in Canada",https://www.google.com/maps?q=41.338782,-88.838534
high,wrong_country,"Pacific Central Station",pacific-central-station-vancouver,"Vancouver","Canada","1150 Station Street",38.7945952,-106.5348379,"Coordinates (38.7945952, -106.5348379) are not in Canada",https://www.google.com/maps?q=38.7945952,-106.5348379
high,wrong_country,"Park Lane Mall",park-lane-mall-halifax,"Halifax","United States","5657 Spring Garden Road",44.6428374,-63.5786811,"Coordinates (44.6428374, -63.5786811) are not in United States",https://www.google.com/maps?q=44.6428374,-63.5786811
high,wrong_country,"Petersburger Straße 81",petersburger-stra-e-81-berlin,"Berlin","Germany","Petersburger Straße 81",38.7945952,-106.5348379,"Coordinates (38.7945952, -106.5348379) are not in Germany",https://www.google.com/maps?q=38.7945952,-106.5348379
high,wrong_country,"Photo Elys&eacute;e",photo-elys-eacute-e-lausanne,"Lausanne","United States","Place de la gare 17",46.5196535,6.6322734,"Coordinates (46.5196535, 6.6322734) are not in United States",https://www.google.com/maps?q=46.5196535,6.6322734
high,wrong_country,"Plac Zbawiciela",plac-zbawiciela-warsaw,"Warsaw","United States","plac Zbawiciela, 00-642 Warszawa, Poland",52.2198437,21.0179561,"Coordinates (52.2198437, 21.0179561) are not in United States",https://www.google.com/maps?q=52.2198437,21.0179561
high,wrong_country,"Post Office",post-office-bayswater-london,"Bayswater, London","United States","1/14 Station St, Bayswater VIC 3153, Australia",-37.8415999,145.2667525,"Coordinates (-37.8415999, 145.2667525) are not in United States",https://www.google.com/maps?q=-37.8415999,145.2667525
high,wrong_country,"Q Bar",q-bar-darlinghurst,"Darlinghurst","United States","44 Oxford St, Darlinghurst NSW 2010, Australia",-33.8778601,151.2138223,"Coordinates (-33.8778601, 151.2138223) are not in United States",https://www.google.com/maps?q=-33.8778601,151.2138223
high,wrong_country,"R.A.W. A",r-a-w-a-berlin,"Berlin","Germany","Revalerstraße 99",38.7945952,-106.5348379,"Coordinates (38.7945952, -106.5348379) are not in Germany",https://www.google.com/maps?q=38.7945952,-106.5348379
high,wrong_country,"R.A.W. B",r-a-w-b-berlin,"Berlin","Germany","Revalerstraße 99",38.7945952,-106.5348379,"Coordinates (38.7945952, -106.5348379) are not in Germany",https://www.google.com/maps?q=38.7945952,-106.5348379
high,wrong_country,"R.A.W. C",r-a-w-c-berlin,"Berlin","Germany","Revaler Straße 99",38.7945952,-106.5348379,"Coordinates (38.7945952, -106.5348379) are not in Germany",https://www.google.com/maps?q=38.7945952,-106.5348379
high,wrong_country,"S-Bahn Treptower Park",s-bahn-treptower-park-berlin,"Berlin","Germany","Treptower Park",44.4686696,-71.1850768,"Coordinates (44.4686696, -71.1850768) are not in Germany",https://www.google.com/maps?q=44.4686696,-71.1850768
high,wrong_country,"Sainsbury's",sainsbury-s-fulham-london,"Fulham, London","United States","51 Townmead Road",51.4677347,-0.1853416,"Coordinates (51.4677347, -0.1853416) are not in United States",https://www.google.com/maps?q=51.4677347,-0.1853416
high,wrong_country,"Senape",senape-cesena-fc,"Cesena FC","United States","via Cavalcavia 242",44.1469978,12.2401963,"Coordinates (44.1469978, 12.2401963) are not in United States",https://www.google.com/maps?q=44.1469978,12.2401963
high,wrong_country,"Shebeen Chic",shebeen-chic-dublin,"Dublin","United States","4 South Great Georges Street",53.3437669,-6.2642495,"Coordinates (53.3437669, -6.2642495) are not in United States",https://www.google.com/maps?q=53.3437669,-6.2642495
high,wrong_country,"Stills Centre for Photography",stills-centre-for-photography-edinburgh,"Edinburgh","United States","23 Cockburn Street",55.950679,-3.190253,"Coordinates (55.950679, -3.190253) are not in United States",https://www.google.com/maps?q=55.950679,-3.190253
high,wrong_country,"Tate Modern",tate-modern-london,"London","United Kingdom","Bankside",39.8864493,-83.4482529,"Coordinates (39.8864493, -83.4482529) are not in United Kingdom",https://www.google.com/maps?q=39.8864493,-83.4482529
high,wrong_country,"The Centre",the-centre-saskatoon,"Saskatoon","United States","3510 8th Street East",52.1131524,-106.6003136,"Coordinates (52.1131524, -106.6003136) are not in United States",https://www.google.com/maps?q=52.1131524,-106.6003136
high,wrong_country,"The Hoxton Holborn",the-hoxton-holborn-london-1,"London","United Kingdom","199-206 High Holborn",39.8816425,-83.456147,"Coordinates (39.8816425, -83.456147) are not in United Kingdom",https://www.google.com/maps?q=39.8816425,-83.456147
high,wrong_country,"The Hoxton Holborn",the-hoxton-holborn-london,"London","United Kingdom","199-206 High Holborn",39.8816425,-83.456147,"Coordinates (39.8816425, -83.456147) are not in United Kingdom",https://www.google.com/maps?q=39.8816425,-83.456147
high,wrong_country,"The Jam Factory",the-jam-factory-south-yarra,"South Yarra","United States","500 Chapel St.",-37.8395181,144.9955966,"Coordinates (-37.8395181, 144.9955966) are not in United States",https://www.google.com/maps?q=-37.8395181,144.9955966
high,wrong_country,"The Orange Tree",the-orange-tree-nottingham,"Nottingham","United States","38 Shakespeare Street",52.9578236,-1.1510889,"Coordinates (52.9578236, -1.1510889) are not in United States",https://www.google.com/maps?q=52.9578236,-1.1510889
high,wrong_country,"The Oxford Art Factory",the-oxford-art-factory-darlinghurst,"Darlinghurst","United States","3/46 Oxford St, Darlinghurst NSW 2010, Australia",-33.877912,151.2139284,"Coordinates (-33.877912, 151.2139284) are not in United States",https://www.google.com/maps?q=-33.877912,151.2139284
high,wrong_country,"The Projector",the-projector-singapore,"Singapore","United States","1 Rochor Canal Rd, Sim Lim Square, Singapore 188504",1.3029333,103.8529661,"Coordinates (1.3029333, 103.8529661) are not in United States",https://www.google.com/maps?q=1.3029333,103.8529661
medium,far_from_city,"Ace Hotel London Shoreditch",ace-hotel-london-shoreditch-london,"London","United Kingdom","100 Shoreditch High Street",38.7945952,-106.5348379,"Coordinates are 7706.6km from London center",https://www.google.com/maps?q=38.7945952,-106.5348379
medium,far_from_city,"Cargo",cargo-london,"London","United Kingdom","London Cargo, Safestore, Key House, Cow Ln, Reading RG1 8NA, UK",51.460603,-0.9903785,"Coordinates are 60.0km from London center",https://www.google.com/maps?q=51.460603,-0.9903785
medium,far_from_city,"Checkpoint Charlie",checkpoint-charlie-berlin,"Berlin","Germany","Friedrichstrae",44.4686696,-71.1850768,"Coordinates are 5932.9km from Berlin center",https://www.google.com/maps?q=44.4686696,-71.1850768
medium,far_from_city,"Classic Football Shirts",classic-football-shirts-london,"London","United Kingdom","17 Commercial Street",37.103436,-84.0650427,"Coordinates are 6489.3km from London center",https://www.google.com/maps?q=37.103436,-84.0650427
medium,far_from_city,"Coal Drops Yard",coal-drops-yard-london,"London","United Kingdom","Lower Stable Street",38.7945952,-106.5348379,"Coordinates are 7706.6km from London center",https://www.google.com/maps?q=38.7945952,-106.5348379
medium,far_from_city,"Daffy's Herald Square",daffy-s-herald-square-new-york,"New York","United States","1311 Broadway",42.6516385,-73.7372664,"Coordinates are 216.7km from New York center",https://www.google.com/maps?q=42.6516385,-73.7372664
medium,far_from_city,"Falckenstein-strasse 3",falckenstein-strasse-3-berlin,"Berlin","Germany","Falckensteinstrasse 3",38.3588522,-75.2245693,"Coordinates are 6643.1km from Berlin center",https://www.google.com/maps?q=38.3588522,-75.2245693
medium,far_from_city,"Hackney Bridge",hackney-bridge-london,"London","United Kingdom","Units 1-28, Echo Building, East Bay Lane",39.8864493,-83.4482529,"Coordinates are 6240.2km from London center",https://www.google.com/maps?q=39.8864493,-83.4482529
medium,far_from_city,"Hardenberg-strasse 22",hardenberg-strasse-22-berlin,"Berlin","Germany","Hardenbergstrasse 22",38.7945952,-106.5348379,"Coordinates are 8328.5km from Berlin center",https://www.google.com/maps?q=38.7945952,-106.5348379
medium,far_from_city,"Holzmarkt",holzmarkt-berlin,"Berlin","Germany","Holzmarktstrae 25",38.7945952,-106.5348379,"Coordinates are 8328.5km from Berlin center",https://www.google.com/maps?q=38.7945952,-106.5348379
medium,far_from_city,"Kaiser's",kaiser-s-berlin,"Berlin","Germany","Revalerstrasse 2",38.7945952,-106.5348379,"Coordinates are 8328.5km from Berlin center",https://www.google.com/maps?q=38.7945952,-106.5348379
medium,far_from_city,"Kastanienallee",kastanienallee-berlin,"Berlin","Germany","Kastanienallee 100",38.7945952,-106.5348379,"Coordinates are 8328.5km from Berlin center",https://www.google.com/maps?q=38.7945952,-106.5348379
medium,far_from_city,"Kastanienallee II",kastanienallee-ii-berlin,"Berlin","Germany","Kastanienallee 100",38.7945952,-106.5348379,"Coordinates are 8328.5km from Berlin center",https://www.google.com/maps?q=38.7945952,-106.5348379
medium,far_from_city,"La Colonie",la-colonie-paris,"Paris","France","La Colonie, 4522 route des Monts d'Aubrac, 12470 village d'Aubrac, France",44.6216886,2.9850751,"Coordinates are 473.4km from Paris center",https://www.google.com/maps?q=44.6216886,2.9850751
medium,far_from_city,"Lakeside Lounge",lakeside-lounge-new-york,"New York","United States","162 Avenue B",43.1787624,-77.621856,"Coordinates are 405.7km from New York center",https://www.google.com/maps?q=43.1787624,-77.621856
medium,far_from_city,"Marienburger Stra&szlig;e",marienburger-stra-szlig-e-berlin,"Berlin","Germany","Marienburgerstra&szlig;e 19",38.7945952,-106.5348379,"Coordinates are 8328.5km from Berlin center",https://www.google.com/maps?q=38.7945952,-106.5348379
medium,far_from_city,"Mauerpark A",mauerpark-a-berlin,"Berlin","Germany","Eberswalder Str.",38.7945952,-106.5348379,"Coordinates are 8328.5km from Berlin center",https://www.google.com/maps?q=38.7945952,-106.5348379
medium,far_from_city,"Mauerpark B",mauerpark-b-berlin,"Berlin","Germany","Eberswalder Str.",38.7945952,-106.5348379,"Coordinates are 8328.5km from Berlin center",https://www.google.com/maps?q=38.7945952,-106.5348379
medium,far_from_city,"Modulor",modulor-berlin,"Berlin","Germany","Prinzenstrasse 85",38.7945952,-106.5348379,"Coordinates are 8328.5km from Berlin center",https://www.google.com/maps?q=38.7945952,-106.5348379
medium,far_from_city,"Petersburger Straße 81",petersburger-stra-e-81-berlin,"Berlin","Germany","Petersburger Straße 81",38.7945952,-106.5348379,"Coordinates are 8328.5km from Berlin center",https://www.google.com/maps?q=38.7945952,-106.5348379
medium,far_from_city,"R.A.W. A",r-a-w-a-berlin,"Berlin","Germany","Revalerstraße 99",38.7945952,-106.5348379,"Coordinates are 8328.5km from Berlin center",https://www.google.com/maps?q=38.7945952,-106.5348379
medium,far_from_city,"R.A.W. B",r-a-w-b-berlin,"Berlin","Germany","Revalerstraße 99",38.7945952,-106.5348379,"Coordinates are 8328.5km from Berlin center",https://www.google.com/maps?q=38.7945952,-106.5348379
medium,far_from_city,"R.A.W. C",r-a-w-c-berlin,"Berlin","Germany","Revaler Straße 99",38.7945952,-106.5348379,"Coordinates are 8328.5km from Berlin center",https://www.google.com/maps?q=38.7945952,-106.5348379
medium,far_from_city,"S-Bahn Treptower Park",s-bahn-treptower-park-berlin,"Berlin","Germany","Treptower Park",44.4686696,-71.1850768,"Coordinates are 5932.9km from Berlin center",https://www.google.com/maps?q=44.4686696,-71.1850768
medium,far_from_city,"Tate Modern",tate-modern-london,"London","United Kingdom","Bankside",39.8864493,-83.4482529,"Coordinates are 6240.2km from London center",https://www.google.com/maps?q=39.8864493,-83.4482529
medium,far_from_city,"The Hoxton Holborn",the-hoxton-holborn-london-1,"London","United Kingdom","199-206 High Holborn",39.8816425,-83.456147,"Coordinates are 6241.0km from London center",https://www.google.com/maps?q=39.8816425,-83.456147
medium,far_from_city,"The Hoxton Holborn",the-hoxton-holborn-london,"London","United Kingdom","199-206 High Holborn",39.8816425,-83.456147,"Coordinates are 6241.0km from London center",https://www.google.com/maps?q=39.8816425,-83.456147
medium,far_from_city,"The Smith",the-smith-new-york,"New York","United States","55 3rd Ave",42.6395244,-73.7611142,"Coordinates are 215.2km from New York center",https://www.google.com/maps?q=42.6395244,-73.7611142
medium,duplicate_coordinates,"@camppraha",camppraha-prague,"Prague","Czech Republic","",50.088429,14.428579,"Shares coordinates with 1 other booth(s)",https://www.google.com/maps?q=50.088429,14.428579
medium,duplicate_coordinates,"kasarna Karlin",kasarna-karlin-prague,"Prague","Czech Republic","",50.088429,14.428579,"Shares coordinates with 1 other booth(s)",https://www.google.com/maps?q=50.088429,14.428579
medium,duplicate_coordinates,"@dum.u.novaku",dum-u-novaku-prague,"Prague","Czech Republic","",50.0755381,14.4378005,"Shares coordinates with 3 other booth(s)",https://www.google.com/maps?q=50.0755381,14.4378005
medium,duplicate_coordinates,"@kasarna_karlin",kasarna-karlin-prague-1,"Prague","Czech Republic","",50.0755381,14.4378005,"Shares coordinates with 3 other booth(s)",https://www.google.com/maps?q=50.0755381,14.4378005
medium,duplicate_coordinates,"Galerie nationale Národní",galerie-nationale-n-rodn-prague,"Prague","Czech Republic","",50.0755381,14.4378005,"Shares coordinates with 3 other booth(s)",https://www.google.com/maps?q=50.0755381,14.4378005
medium,duplicate_coordinates,"Rock Caf&eacute;",rock-caf-eacute-prague,"Prague","Czech Republic","N&aacute;rodn&iacute; 116/20",50.0755381,14.4378005,"Shares coordinates with 3 other booth(s)",https://www.google.com/maps?q=50.0755381,14.4378005
medium,duplicate_coordinates,"1212 Santa Monica",1212-santa-monica-santa-monica,"Santa Monica","USA","1212 3rd Street Promenade",34.0341,-118.2465,"Shares coordinates with 10 other booth(s)",https://www.google.com/maps?q=34.0341,-118.2465
medium,duplicate_coordinates,"Apple Doll (Pop-Up)",apple-doll-pop-up-venice,"Venice","USA","1212 Abbot Kinney Blvd",34.0341,-118.2465,"Shares coordinates with 10 other booth(s)",https://www.google.com/maps?q=34.0341,-118.2465
medium,duplicate_coordinates,"Backstage Bar & Grill",backstage-bar-grill-culver-city,"Culver City","USA","10400 Culver Blvd",34.0341,-118.2465,"Shares coordinates with 10 other booth(s)",https://www.google.com/maps?q=34.0341,-118.2465
medium,duplicate_coordinates,"curious…",curious-hermosa-beach,"Hermosa Beach","USA","128 Pier Ave",34.0341,-118.2465,"Shares coordinates with 10 other booth(s)",https://www.google.com/maps?q=34.0341,-118.2465
medium,duplicate_coordinates,"LOVE HOUR",love-hour-los-angeles,"Los Angeles","USA","532 S Western Ave",34.0341,-118.2465,"Shares coordinates with 10 other booth(s)",https://www.google.com/maps?q=34.0341,-118.2465
medium,duplicate_coordinates,"Short Stop",short-stop-los-angeles-3,"Los Angeles","USA","1455 W Sunset Blvd #3457",34.0341,-118.2465,"Shares coordinates with 10 other booth(s)",https://www.google.com/maps?q=34.0341,-118.2465
medium,duplicate_coordinates,"The Blind Donkey",the-blind-donkey-long-beach-5,"Long Beach","USA","149 Linden Ave",34.0341,-118.2465,"Shares coordinates with 10 other booth(s)",https://www.google.com/maps?q=34.0341,-118.2465
medium,duplicate_coordinates,"The Flamingo Bar",the-flamingo-bar-los-angeles,"Los Angeles","USA","1855 Industrial St",34.0341,-118.2465,"Shares coordinates with 10 other booth(s)",https://www.google.com/maps?q=34.0341,-118.2465
medium,duplicate_coordinates,"The Hawk",the-hawk-long-beach-4,"Long Beach","USA","468 W Anaheim St",34.0341,-118.2465,"Shares coordinates with 10 other booth(s)",https://www.google.com/maps?q=34.0341,-118.2465
medium,duplicate_coordinates,"The Phoenix",the-phoenix-los-angeles,"Los Angeles","USA","8480 W 3rd St",34.0341,-118.2465,"Shares coordinates with 10 other booth(s)",https://www.google.com/maps?q=34.0341,-118.2465
medium,duplicate_coordinates,"Tiny’s Hi-Dive",tiny-s-hi-dive-los-angeles-3,"Los Angeles","USA","12012 W Pico Blvd",34.0341,-118.2465,"Shares coordinates with 10 other booth(s)",https://www.google.com/maps?q=34.0341,-118.2465
medium,duplicate_coordinates,"25 Hours Hotel",25-hours-hotel-vienna,"Vienna","Austria","Lerchenfelder Str. 1/3, 1070 Wien, Austria",48.2064947,16.3546991,"Shares coordinates with 2 other booth(s)",https://www.google.com/maps?q=48.2064947,16.3546991
medium,duplicate_coordinates,"25hours Hotel Lobby",25hours-hotel-lobby-vienna,"Vienna","Austria","25hours Hotel Lobby",48.2064947,16.3546991,"Shares coordinates with 2 other booth(s)",https://www.google.com/maps?q=48.2064947,16.3546991
medium,duplicate_coordinates,"25hours Hotel Wien Dachboden",25hours-hotel-wien-dachboden-vienna,"Vienna","Austria","25hours Hotel Wien Rooftop",48.2064947,16.3546991,"Shares coordinates with 2 other booth(s)",https://www.google.com/maps?q=48.2064947,16.3546991
medium,duplicate_coordinates,"4100 Bar",4100-bar-los-angeles,"Los Angeles","USA","1087 Manzanita St",34.0929711,-118.2814424,"Shares coordinates with 1 other booth(s)",https://www.google.com/maps?q=34.0929711,-118.2814424
medium,duplicate_coordinates,"4100 Bar",4100-bar-los-angeles-ca-90029-1,"Los Angeles, CA 90029","USA","1087 Manzanita St",34.0929711,-118.2814424,"Shares coordinates with 1 other booth(s)",https://www.google.com/maps?q=34.0929711,-118.2814424
medium,duplicate_coordinates,"Ace Hotel London Shoreditch",ace-hotel-london-shoreditch-london,"London","United Kingdom","100 Shoreditch High Street",38.7945952,-106.5348379,"Shares coordinates with 39 other booth(s)",https://www.google.com/maps?q=38.7945952,-106.5348379
medium,duplicate_coordinates,"Adelaide Arcade",adelaide-arcade-adelaide,"Adelaide","United States","Rundle Mall",38.7945952,-106.5348379,"Shares coordinates with 39 other booth(s)",https://www.google.com/maps?q=38.7945952,-106.5348379
medium,duplicate_coordinates,"Art Gallery of South Australia",art-gallery-of-south-australia-adelaide,"Adelaide","United States","North Terrace",38.7945952,-106.5348379,"Shares coordinates with 39 other booth(s)",https://www.google.com/maps?q=38.7945952,-106.5348379
medium,duplicate_coordinates,"Billings Bridge Centre",billings-bridge-centre-ottawa,"Ottawa","Canada","2277 Riverside Drive East",38.7945952,-106.5348379,"Shares coordinates with 39 other booth(s)",https://www.google.com/maps?q=38.7945952,-106.5348379
medium,duplicate_coordinates,"Boothclub Amsterdam",boothclub-amsterdam-amsterdam,"Amsterdam","Netherlands","Raamsteeg 2",38.7945952,-106.5348379,"Shares coordinates with 39 other booth(s)",https://www.google.com/maps?q=38.7945952,-106.5348379
medium,duplicate_coordinates,"Bristol Arms Retro Hotel",bristol-arms-retro-hotel-sydney,"Sydney","United States","81 Sussex St.",38.7945952,-106.5348379,"Shares coordinates with 39 other booth(s)",https://www.google.com/maps?q=38.7945952,-106.5348379
medium,duplicate_coordinates,"Calgary Greyhound Station",calgary-greyhound-station-calgary,"Calgary","Canada","850 - 16th St.",38.7945952,-106.5348379,"Shares coordinates with 39 other booth(s)",https://www.google.com/maps?q=38.7945952,-106.5348379
medium,duplicate_coordinates,"Coal Drops Yard",coal-drops-yard-london,"London","United Kingdom","Lower Stable Street",38.7945952,-106.5348379,"Shares coordinates with 39 other booth(s)",https://www.google.com/maps?q=38.7945952,-106.5348379
medium,duplicate_coordinates,"Corner Brook Plaza",corner-brook-plaza-corner-brook,"Corner Brook","United States","44 Maple Valley Road",38.7945952,-106.5348379,"Shares coordinates with 39 other booth(s)",https://www.google.com/maps?q=38.7945952,-106.5348379
medium,duplicate_coordinates,"Eau Claire Market",eau-claire-market-calgary,"Calgary","Canada","229-200 Barclay Parade SW",38.7945952,-106.5348379,"Shares coordinates with 39 other booth(s)",https://www.google.com/maps?q=38.7945952,-106.5348379
medium,duplicate_coordinates,"Gander Mall",gander-mall-gander,"Gander","United States","132 Bennett Drive",38.7945952,-106.5348379,"Shares coordinates with 39 other booth(s)",https://www.google.com/maps?q=38.7945952,-106.5348379
medium,duplicate_coordinates,"Gerrard Square",gerrard-square-toronto,"Toronto","Canada","1000 Gerrard Street East",38.7945952,-106.5348379,"Shares coordinates with 39 other booth(s)",https://www.google.com/maps?q=38.7945952,-106.5348379
medium,duplicate_coordinates,"Greyhound Bus Station",greyhound-bus-station-edmonton,"Edmonton","United States","10324 103 Street",38.7945952,-106.5348379,"Shares coordinates with 39 other booth(s)",https://www.google.com/maps?q=38.7945952,-106.5348379
medium,duplicate_coordinates,"Hardenberg-strasse 22",hardenberg-strasse-22-berlin,"Berlin","Germany","Hardenbergstrasse 22",38.7945952,-106.5348379,"Shares coordinates with 39 other booth(s)",https://www.google.com/maps?q=38.7945952,-106.5348379
medium,duplicate_coordinates,"Helsinki Railway Station III",helsinki-railway-station-iii-helsinki,"Helsinki","United States","Asema-aukio",38.7945952,-106.5348379,"Shares coordinates with 39 other booth(s)",https://www.google.com/maps?q=38.7945952,-106.5348379
medium,duplicate_coordinates,"Holzmarkt",holzmarkt-berlin,"Berlin","Germany","Holzmarktstrae 25",38.7945952,-106.5348379,"Shares coordinates with 39 other booth(s)",https://www.google.com/maps?q=38.7945952,-106.5348379
medium,duplicate_coordinates,"Kaiser's",kaiser-s-berlin,"Berlin","Germany","Revalerstrasse 2",38.7945952,-106.5348379,"Shares coordinates with 39 other booth(s)",https://www.google.com/maps?q=38.7945952,-106.5348379
medium,duplicate_coordinates,"Kaivopiha Shopping Center",kaivopiha-shopping-center-helsinki,"Helsinki","United States","Kaivok. 10",38.7945952,-106.5348379,"Shares coordinates with 39 other booth(s)",https://www.google.com/maps?q=38.7945952,-106.5348379
medium,duplicate_coordinates,"Kampala",kampala-kampala,"Kampala","United States","Plot 35 Kampala Road",38.7945952,-106.5348379,"Shares coordinates with 39 other booth(s)",https://www.google.com/maps?q=38.7945952,-106.5348379
medium,duplicate_coordinates,"Kastanienallee",kastanienallee-berlin,"Berlin","Germany","Kastanienallee 100",38.7945952,-106.5348379,"Shares coordinates with 39 other booth(s)",https://www.google.com/maps?q=38.7945952,-106.5348379
medium,duplicate_coordinates,"Kastanienallee II",kastanienallee-ii-berlin,"Berlin","Germany","Kastanienallee 100",38.7945952,-106.5348379,"Shares coordinates with 39 other booth(s)",https://www.google.com/maps?q=38.7945952,-106.5348379
medium,duplicate_coordinates,"Kosmos",kosmos-z-rich,"Zürich","United States","Lagerstrasse 104",38.7945952,-106.5348379,"Shares coordinates with 39 other booth(s)",https://www.google.com/maps?q=38.7945952,-106.5348379
medium,duplicate_coordinates,"Le Botanique",le-botanique-brussels,"Brussels","Belgium","Rue Royale 236",38.7945952,-106.5348379,"Shares coordinates with 39 other booth(s)",https://www.google.com/maps?q=38.7945952,-106.5348379
medium,duplicate_coordinates,"Lomography Amsterdam",lomography-amsterdam-amsterdam,"Amsterdam","Netherlands","Herengracht 298",38.7945952,-106.5348379,"Shares coordinates with 39 other booth(s)",https://www.google.com/maps?q=38.7945952,-106.5348379
medium,duplicate_coordinates,"Marienburger Stra&szlig;e",marienburger-stra-szlig-e-berlin,"Berlin","Germany","Marienburgerstra&szlig;e 19",38.7945952,-106.5348379,"Shares coordinates with 39 other booth(s)",https://www.google.com/maps?q=38.7945952,-106.5348379
medium,duplicate_coordinates,"Mauerpark A",mauerpark-a-berlin,"Berlin","Germany","Eberswalder Str.",38.7945952,-106.5348379,"Shares coordinates with 39 other booth(s)",https://www.google.com/maps?q=38.7945952,-106.5348379
medium,duplicate_coordinates,"Mauerpark B",mauerpark-b-berlin,"Berlin","Germany","Eberswalder Str.",38.7945952,-106.5348379,"Shares coordinates with 39 other booth(s)",https://www.google.com/maps?q=38.7945952,-106.5348379
medium,duplicate_coordinates,"Modulor",modulor-berlin,"Berlin","Germany","Prinzenstrasse 85",38.7945952,-106.5348379,"Shares coordinates with 39 other booth(s)",https://www.google.com/maps?q=38.7945952,-106.5348379
medium,duplicate_coordinates,"Pacific Central Station",pacific-central-station-vancouver,"Vancouver","Canada","1150 Station Street",38.7945952,-106.5348379,"Shares coordinates with 39 other booth(s)",https://www.google.com/maps?q=38.7945952,-106.5348379
medium,duplicate_coordinates,"Petersburger Straße 81",petersburger-stra-e-81-berlin,"Berlin","Germany","Petersburger Straße 81",38.7945952,-106.5348379,"Shares coordinates with 39 other booth(s)",https://www.google.com/maps?q=38.7945952,-106.5348379
medium,duplicate_coordinates,"Pink-O-Mat",pink-o-mat-dresden,"Dresden","United States","Louisenstrasse 63",38.7945952,-106.5348379,"Shares coordinates with 39 other booth(s)",https://www.google.com/maps?q=38.7945952,-106.5348379
medium,duplicate_coordinates,"Pratersauna",pratersauna-vienna,"Vienna","Austria","Waldsteingartenstraße 135",38.7945952,-106.5348379,"Shares coordinates with 39 other booth(s)",https://www.google.com/maps?q=38.7945952,-106.5348379
medium,duplicate_coordinates,"Projector X: Riverside",projector-x-riverside-riverside-point,"Riverside Point","United States","30 Merchant Road",38.7945952,-106.5348379,"Shares coordinates with 39 other booth(s)",https://www.google.com/maps?q=38.7945952,-106.5348379
medium,duplicate_coordinates,"R.A.W. A",r-a-w-a-berlin,"Berlin","Germany","Revalerstraße 99",38.7945952,-106.5348379,"Shares coordinates with 39 other booth(s)",https://www.google.com/maps?q=38.7945952,-106.5348379
medium,duplicate_coordinates,"R.A.W. B",r-a-w-b-berlin,"Berlin","Germany","Revalerstraße 99",38.7945952,-106.5348379,"Shares coordinates with 39 other booth(s)",https://www.google.com/maps?q=38.7945952,-106.5348379
medium,duplicate_coordinates,"R.A.W. C",r-a-w-c-berlin,"Berlin","Germany","Revaler Straße 99",38.7945952,-106.5348379,"Shares coordinates with 39 other booth(s)",https://www.google.com/maps?q=38.7945952,-106.5348379
medium,duplicate_coordinates,"Riga Bus Station",riga-bus-station-riga,"Riga","Latvia","Nēģu 7",38.7945952,-106.5348379,"Shares coordinates with 39 other booth(s)",https://www.google.com/maps?q=38.7945952,-106.5348379
medium,duplicate_coordinates,"Scotia Square",scotia-square-halifax,"Halifax","United States","5201 Duke St.",38.7945952,-106.5348379,"Shares coordinates with 39 other booth(s)",https://www.google.com/maps?q=38.7945952,-106.5348379
medium,duplicate_coordinates,"Southland Mall",southland-mall-regina,"Regina","United States","2965 Gordon Road",38.7945952,-106.5348379,"Shares coordinates with 39 other booth(s)",https://www.google.com/maps?q=38.7945952,-106.5348379
medium,duplicate_coordinates,"Strip of a Lifetime",strip-of-a-lifetime-newcastle,"Newcastle","United States","Shop 20, 119 Hunter Street Mall",38.7945952,-106.5348379,"Shares coordinates with 39 other booth(s)",https://www.google.com/maps?q=38.7945952,-106.5348379
medium,duplicate_coordinates,"Amy's Ice Creams 6th Street",amy-s-ice-creams-6th-street-austin,"Austin","United States","1012 W 6th St B, Austin, TX 78703, USA",30.2719392,-97.7544178,"Shares coordinates with 1 other booth(s)",https://www.google.com/maps?q=30.2719392,-97.7544178
medium,duplicate_coordinates,"Amy's Ice Creams at the Wood",amy-s-ice-creams-at-the-wood-austin,"Austin","United States","1012 W 6th St B, Austin, TX 78703, USA",30.2719392,-97.7544178,"Shares coordinates with 1 other booth(s)",https://www.google.com/maps?q=30.2719392,-97.7544178
medium,duplicate_coordinates,"Apple Doll (Pop-Up)",apple-doll-pop-up-venice-ca-90291,"Venice, CA 90291","USA","1212 Abbot Kinney Blvd",33.9910807,-118.4688547,"Shares coordinates with 1 other booth(s)",https://www.google.com/maps?q=33.9910807,-118.4688547
medium,duplicate_coordinates,"AppleDoll Pop-Up",appledoll-pop-up-venice,"Venice","USA","1212 Abbot Kinney Blvd, Venice, CA 90291, USA",33.9910807,-118.4688547,"Shares coordinates with 1 other booth(s)",https://www.google.com/maps?q=33.9910807,-118.4688547
medium,duplicate_coordinates,"ars-imago",ars-imago-z-rich,"Zürich","United States","Josefstrasse 53",47.3768866,8.541694,"Shares coordinates with 2 other booth(s)",https://www.google.com/maps?q=47.3768866,8.541694
medium,duplicate_coordinates,"Geroldstrasse 35",geroldstrasse-35-z-rich,"Zürich","United States","Geroldstrasse 35",47.3768866,8.541694,"Shares coordinates with 2 other booth(s)",https://www.google.com/maps?q=47.3768866,8.541694
medium,duplicate_coordinates,"Kanzlei Club",kanzlei-club-z-uuml-rich,"Z&uuml;rich","United States","Kanzleistrasse 56",47.3768866,8.541694,"Shares coordinates with 2 other booth(s)",https://www.google.com/maps?q=47.3768866,8.541694
medium,duplicate_coordinates,"Autophoto Gallery + Museum I",autophoto-gallery-museum-i-new-york,"New York","United States","121 Orchard St",40.71951,-73.98978,"Shares coordinates with 5 other booth(s)",https://www.google.com/maps?q=40.71951,-73.98978
medium,duplicate_coordinates,"Autophoto Gallery + Museum II",autophoto-gallery-museum-ii-new-york,"New York","United States","121 Orchard St",40.71951,-73.98978,"Shares coordinates with 5 other booth(s)",https://www.google.com/maps?q=40.71951,-73.98978
medium,duplicate_coordinates,"Autophoto Gallery + Museum III",autophoto-gallery-museum-iii-new-york,"New York","United States","121 Orchard St",40.71951,-73.98978,"Shares coordinates with 5 other booth(s)",https://www.google.com/maps?q=40.71951,-73.98978
medium,duplicate_coordinates,"Autophoto Gallery + Museum IV",autophoto-gallery-museum-iv-new-york,"New York","United States","121 Orchard St",40.71951,-73.98978,"Shares coordinates with 5 other booth(s)",https://www.google.com/maps?q=40.71951,-73.98978
medium,duplicate_coordinates,"Autophoto Gallery + Museum V",autophoto-gallery-museum-v-new-york,"New York","United States","121 Orchard St",40.71951,-73.98978,"Shares coordinates with 5 other booth(s)",https://www.google.com/maps?q=40.71951,-73.98978
medium,duplicate_coordinates,"Now Open with 7 booths!",now-open-with-7-booths-new-york-city,"New York City","USA","121 Orchard Street",40.71951,-73.98978,"Shares coordinates with 5 other booth(s)",https://www.google.com/maps?q=40.71951,-73.98978
medium,duplicate_coordinates,"Avalon Mall I",avalon-mall-i-st-john-s,"St. John's","United States","48 Kenmount Road",47.5603865,-52.7564686,"Shares coordinates with 1 other booth(s)",https://www.google.com/maps?q=47.5603865,-52.7564686
medium,duplicate_coordinates,"Avalon Mall II",avalon-mall-ii-st-john-s,"St. John's","United States","48 Kenmount Road",47.5603865,-52.7564686,"Shares coordinates with 1 other booth(s)",https://www.google.com/maps?q=47.5603865,-52.7564686
medium,duplicate_coordinates,"Babylon",babylon-berlin,"Berlin","Germany","Rosa-Luxemburg-Platz",52.5200066,13.404954,"Shares coordinates with 5 other booth(s)",https://www.google.com/maps?q=52.5200066,13.404954
medium,duplicate_coordinates,"Bernauer Strasse 47",bernauer-strasse-47-berlin,"Berlin","Germany","Bernauer Strasse 47",52.5200066,13.404954,"Shares coordinates with 5 other booth(s)",https://www.google.com/maps?q=52.5200066,13.404954
medium,duplicate_coordinates,"Photoautomat",photoautomat-berlin,"Berlin","Germany","",52.5200066,13.404954,"Shares coordinates with 5 other booth(s)",https://www.google.com/maps?q=52.5200066,13.404954
medium,duplicate_coordinates,"R.A.W. A",r-a-w-a-berlin-1,"Berlin","Germany","Berlin",52.5200066,13.404954,"Shares coordinates with 5 other booth(s)",https://www.google.com/maps?q=52.5200066,13.404954
medium,duplicate_coordinates,"R.A.W. B",r-a-w-b-berlin-1,"Berlin","Germany","Berlin",52.5200066,13.404954,"Shares coordinates with 5 other booth(s)",https://www.google.com/maps?q=52.5200066,13.404954
medium,duplicate_coordinates,"R.A.W. C",r-a-w-c-berlin-1,"Berlin","Germany","Berlin",52.5200066,13.404954,"Shares coordinates with 5 other booth(s)",https://www.google.com/maps?q=52.5200066,13.404954
medium,duplicate_coordinates,"Batofar",batofar-paris,"Paris","France","11 quai François Mauriac",48.8575475,2.3513765,"Shares coordinates with 2 other booth(s)",https://www.google.com/maps?q=48.8575475,2.3513765
medium,duplicate_coordinates,"Citadium",citadium-paris,"Paris","France","50/56 rue Caumartin",48.8575475,2.3513765,"Shares coordinates with 2 other booth(s)",https://www.google.com/maps?q=48.8575475,2.3513765
medium,duplicate_coordinates,"Le 104",le-104-paris,"Paris","France","104 rue d'Aubervilliers",48.8575475,2.3513765,"Shares coordinates with 2 other booth(s)",https://www.google.com/maps?q=48.8575475,2.3513765
medium,duplicate_coordinates,"Bay Centre I",bay-centre-i-victoria,"Victoria","United States","1150 Douglas Street",28.321142,-97.279328,"Shares coordinates with 1 other booth(s)",https://www.google.com/maps?q=28.321142,-97.279328
medium,duplicate_coordinates,"Bay Centre II",bay-centre-ii-victoria,"Victoria","United States","1150 Douglas Street",28.321142,-97.279328,"Shares coordinates with 1 other booth(s)",https://www.google.com/maps?q=28.321142,-97.279328
medium,duplicate_coordinates,"Belmont Park I",belmont-park-i-san-diego,"San Diego","United States","3146 Mission Blvd.",32.7706102,-117.2513258,"Shares coordinates with 1 other booth(s)",https://www.google.com/maps?q=32.7706102,-117.2513258
medium,duplicate_coordinates,"Belmont Park II",belmont-park-ii-san-diego,"San Diego","United States","3146 Mission Blvd.",32.7706102,-117.2513258,"Shares coordinates with 1 other booth(s)",https://www.google.com/maps?q=32.7706102,-117.2513258
medium,duplicate_coordinates,"Beltway Plaza Mall I",beltway-plaza-mall-i-greenbelt,"Greenbelt","United States","6000 Greenbelt Rd.",38.9988966,-76.9101849,"Shares coordinates with 1 other booth(s)",https://www.google.com/maps?q=38.9988966,-76.9101849
medium,duplicate_coordinates,"Beltway Plaza Mall II",beltway-plaza-mall-ii-greenbelt,"Greenbelt","United States","6000 Greenbelt Rd.",38.9988966,-76.9101849,"Shares coordinates with 1 other booth(s)",https://www.google.com/maps?q=38.9988966,-76.9101849
medium,duplicate_coordinates,"Booth By Bryant - Camp Out",booth-by-bryant-camp-out-costa-mesa-california,"Costa Mesa, California","USA","2944 Randolph Av",33.6780114,-117.8874122,"Shares coordinates with 4 other booth(s)",https://www.google.com/maps?q=33.6780114,-117.8874122
medium,duplicate_coordinates,"Booth By Bryant - Costa Mesa",booth-by-bryant-costa-mesa-costa-mesa,"Costa Mesa","United States","2944 Randolph Av",33.6780114,-117.8874122,"Shares coordinates with 4 other booth(s)",https://www.google.com/maps?q=33.6780114,-117.8874122
medium,duplicate_coordinates,"Booth By Bryant - Orange County",booth-by-bryant-orange-county-costa-mesa,"Costa Mesa","California","2944 Randolph Av",33.6780114,-117.8874122,"Shares coordinates with 4 other booth(s)",https://www.google.com/maps?q=33.6780114,-117.8874122
medium,duplicate_coordinates,"Booth by Bryant I",booth-by-bryant-i-costa-mesa,"Costa Mesa","United States","2944 Randolph Ave.",33.6780114,-117.8874122,"Shares coordinates with 4 other booth(s)",https://www.google.com/maps?q=33.6780114,-117.8874122
medium,duplicate_coordinates,"Booth by Bryant II",booth-by-bryant-ii-costa-mesa,"Costa Mesa","United States","2944 Randolph Ave.",33.6780114,-117.8874122,"Shares coordinates with 4 other booth(s)",https://www.google.com/maps?q=33.6780114,-117.8874122
medium,duplicate_coordinates,"Booth By Bryant - Day to Day Collective",booth-by-bryant-day-to-day-collective-san-diego-california,"San Diego, California","USA","2310 Kettner Blvd",32.7281138,-117.1717337,"Shares coordinates with 2 other booth(s)",https://www.google.com/maps?q=32.7281138,-117.1717337
medium,duplicate_coordinates,"Booth By Bryant - San Diego",booth-by-bryant-san-diego-san-diego,"San Diego","United States","2310 Kettner Blvd",32.7281138,-117.1717337,"Shares coordinates with 2 other booth(s)",https://www.google.com/maps?q=32.7281138,-117.1717337
medium,duplicate_coordinates,"Day to Day Collective",day-to-day-collective-san-diego,"San Diego","United States","2310 Kettner Blvd",32.7281138,-117.1717337,"Shares coordinates with 2 other booth(s)",https://www.google.com/maps?q=32.7281138,-117.1717337
medium,duplicate_coordinates,"Broadway Shopping Centre",broadway-shopping-centre-glebe,"Glebe","United States","1 Bay St, Glebe NSW 2037, Australia",-33.8837417,151.194767,"Shares coordinates with 1 other booth(s)",https://www.google.com/maps?q=-33.8837417,151.194767
medium,duplicate_coordinates,"Broadway Shopping Centre II",broadway-shopping-centre-ii-glebe,"Glebe","United States","3/1 Bay St.",-33.8837417,151.194767,"Shares coordinates with 1 other booth(s)",https://www.google.com/maps?q=-33.8837417,151.194767
medium,duplicate_coordinates,"Carousel I",carousel-i-sylvan-beach,"Sylvan Beach","United States","Bridge Street",43.196067,-75.72901,"Shares coordinates with 2 other booth(s)",https://www.google.com/maps?q=43.196067,-75.72901
medium,duplicate_coordinates,"Carousel II",carousel-ii-sylvan-beach,"Sylvan Beach","United States","Bridge Street",43.196067,-75.72901,"Shares coordinates with 2 other booth(s)",https://www.google.com/maps?q=43.196067,-75.72901
medium,duplicate_coordinates,"Carousel III",carousel-iii-sylvan-beach,"Sylvan Beach","United States","Bridge Street",43.196067,-75.72901,"Shares coordinates with 2 other booth(s)",https://www.google.com/maps?q=43.196067,-75.72901
medium,duplicate_coordinates,"Casino Arcade I",casino-arcade-i-santa-cruz,"Santa Cruz","United States","400 Beach St.",36.9643612,-122.0157178,"Shares coordinates with 3 other booth(s)",https://www.google.com/maps?q=36.9643612,-122.0157178
medium,duplicate_coordinates,"Casino Arcade II",casino-arcade-ii-santa-cruz,"Santa Cruz","United States","400 Beach St.",36.9643612,-122.0157178,"Shares coordinates with 3 other booth(s)",https://www.google.com/maps?q=36.9643612,-122.0157178
medium,duplicate_coordinates,"Casino Arcade III",casino-arcade-iii-santa-cruz,"Santa Cruz","United States","400 Beach St.",36.9643612,-122.0157178,"Shares coordinates with 3 other booth(s)",https://www.google.com/maps?q=36.9643612,-122.0157178
medium,duplicate_coordinates,"Casino Arcade IV",casino-arcade-iv-santa-cruz,"Santa Cruz","United States","400 Beach St.",36.9643612,-122.0157178,"Shares coordinates with 3 other booth(s)",https://www.google.com/maps?q=36.9643612,-122.0157178
medium,duplicate_coordinates,"Checkpoint Charlie",checkpoint-charlie-berlin,"Berlin","Germany","Friedrichstrae",44.4686696,-71.1850768,"Shares coordinates with 1 other booth(s)",https://www.google.com/maps?q=44.4686696,-71.1850768
medium,duplicate_coordinates,"S-Bahn Treptower Park",s-bahn-treptower-park-berlin,"Berlin","Germany","Treptower Park",44.4686696,-71.1850768,"Shares coordinates with 1 other booth(s)",https://www.google.com/maps?q=44.4686696,-71.1850768
medium,duplicate_coordinates,"Children's Museum I",children-s-museum-i-boston,"Boston","United States","300 Congress Street",42.351597,-71.050248,"Shares coordinates with 1 other booth(s)",https://www.google.com/maps?q=42.351597,-71.050248
medium,duplicate_coordinates,"Children's Museum II",children-s-museum-ii-boston,"Boston","United States","300 Congress Street",42.351597,-71.050248,"Shares coordinates with 1 other booth(s)",https://www.google.com/maps?q=42.351597,-71.050248
medium,duplicate_coordinates,"Circus Circus #1",circus-circus-1-las-vegas,"Las Vegas","United States","2880 Las Vegas Boulevard South",36.136817,-115.163391,"Shares coordinates with 2 other booth(s)",https://www.google.com/maps?q=36.136817,-115.163391
medium,duplicate_coordinates,"Circus Circus #2",circus-circus-2-las-vegas,"Las Vegas","United States","2880 Las Vegas Boulevard South",36.136817,-115.163391,"Shares coordinates with 2 other booth(s)",https://www.google.com/maps?q=36.136817,-115.163391
medium,duplicate_coordinates,"Circus Circus #4",circus-circus-4-las-vegas,"Las Vegas","United States","2880 Las Vegas Boulevard South",36.136817,-115.163391,"Shares coordinates with 2 other booth(s)",https://www.google.com/maps?q=36.136817,-115.163391
medium,duplicate_coordinates,"Citizen Supply @ Ponce City Market",citizen-supply-ponce-city-market-atlanta,"Atlanta","USA","675 Ponce De Leon Ave NE NW208",33.7720675,-84.365377,"Shares coordinates with 1 other booth(s)",https://www.google.com/maps?q=33.7720675,-84.365377
medium,duplicate_coordinates,"Glad & Young Studio",glad-young-studio-atlanta,"Atlanta","United States","675 Ponce De Leon Ave NE N 219 Floor 2",33.7720675,-84.365377,"Shares coordinates with 1 other booth(s)",https://www.google.com/maps?q=33.7720675,-84.365377
medium,duplicate_coordinates,"Cole's Bar",cole-s-bar-logan-square,"Logan Square","USA","2338 N Milwaukee Ave, Chicago, IL 60647, USA",41.9236672,-87.6988073,"Shares coordinates with 1 other booth(s)",https://www.google.com/maps?q=41.9236672,-87.6988073
medium,duplicate_coordinates,"Cole's Bar",cole-s-bar-chicago,"Chicago","USA","2338 N Milwaukee Ave",41.9236672,-87.6988073,"Shares coordinates with 1 other booth(s)",https://www.google.com/maps?q=41.9236672,-87.6988073
medium,duplicate_coordinates,"Copa Beach",copa-beach-vienna,"Vienna","Austria","Vienna",48.2080696,16.3713095,"Shares coordinates with 2 other booth(s)",https://www.google.com/maps?q=48.2080696,16.3713095
medium,duplicate_coordinates,"Generali Center",generali-center-vienna,"Vienna","Austria","Mariahilfer Strasse 77",48.2080696,16.3713095,"Shares coordinates with 2 other booth(s)",https://www.google.com/maps?q=48.2080696,16.3713095
medium,duplicate_coordinates,"Tel Aviv Beach 2010",tel-aviv-beach-2010-vienna,"Vienna","Austria","Obere Donaustraße 65",48.2080696,16.3713095,"Shares coordinates with 2 other booth(s)",https://www.google.com/maps?q=48.2080696,16.3713095
medium,duplicate_coordinates,"Deno's Sweet Shoppe",deno-s-sweet-shoppe-brooklyn,"Brooklyn","United States","3059 W 12th St",40.5742747,-73.9792059,"Shares coordinates with 1 other booth(s)",https://www.google.com/maps?q=40.5742747,-73.9792059
medium,duplicate_coordinates,"Deno's Wonder Wheel",deno-s-wonder-wheel-brooklyn,"Brooklyn","United States","3059 W 12th St.",40.5742747,-73.9792059,"Shares coordinates with 1 other booth(s)",https://www.google.com/maps?q=40.5742747,-73.9792059
medium,duplicate_coordinates,"Downtown Burbank Newsstand",downtown-burbank-newsstand-burbank,"Burbank","United States","316 North San Fernando Blvd.",34.1828222,-118.311165,"Shares coordinates with 1 other booth(s)",https://www.google.com/maps?q=34.1828222,-118.311165
medium,duplicate_coordinates,"Downtown Burbank Newsstand 2",downtown-burbank-newsstand-2-burbank,"Burbank","United States","316 North San Fernando Blvd.",34.1828222,-118.311165,"Shares coordinates with 1 other booth(s)",https://www.google.com/maps?q=34.1828222,-118.311165
medium,duplicate_coordinates,"Eaton Centre",eaton-centre-montreal,"Montreal","Canada","705 Rue Sainte Catherine Ouest",45.502739,-73.570948,"Shares coordinates with 1 other booth(s)",https://www.google.com/maps?q=45.502739,-73.570948
medium,duplicate_coordinates,"Eaton Centre II",eaton-centre-ii-montreal,"Montreal","Canada","705 Rue Sainte Catherine Ouest",45.502739,-73.570948,"Shares coordinates with 1 other booth(s)",https://www.google.com/maps?q=45.502739,-73.570948
medium,duplicate_coordinates,"Flamingo Bar",flamingo-bar-los-angeles,"Los Angeles","United States","1855 Industrial St.",34.0359864,-118.2328349,"Shares coordinates with 2 other booth(s)",https://www.google.com/maps?q=34.0359864,-118.2328349
medium,duplicate_coordinates,"The Flamingo Bar",the-flamingo-bar-los-angeles-ca-90021-1,"Los Angeles, CA 90021","USA","1855 Industrial St",34.0359864,-118.2328349,"Shares coordinates with 2 other booth(s)",https://www.google.com/maps?q=34.0359864,-118.2328349
medium,duplicate_coordinates,"The Flamingo Bar",the-flamingo-bar-los-angeles-ca-90021,"Los Angeles, CA 90021","USA","1855 Industrial St",34.0359864,-118.2328349,"Shares coordinates with 2 other booth(s)",https://www.google.com/maps?q=34.0359864,-118.2328349
medium,duplicate_coordinates,"Flinders Street Station I",flinders-street-station-i-melbourne,"Melbourne","United States","Flinders Street and  St. Kilda Rd.",-37.8182711,144.9670618,"Shares coordinates with 1 other booth(s)",https://www.google.com/maps?q=-37.8182711,144.9670618
medium,duplicate_coordinates,"Flinders Street Station II",flinders-street-station-ii-melbourne,"Melbourne","United States","Flinders St, Melbourne VIC 3000, Australia",-37.8182711,144.9670618,"Shares coordinates with 1 other booth(s)",https://www.google.com/maps?q=-37.8182711,144.9670618
medium,duplicate_coordinates,"Foto Arsenal Wien",foto-arsenal-wien-vienna-1,"Vienna","Austria","Arsenal Objekt 19A",38.9012225,-77.2652604,"Shares coordinates with 1 other booth(s)",https://www.google.com/maps?q=38.9012225,-77.2652604
medium,duplicate_coordinates,"Museums Quartier Wien",museums-quartier-wien-vienna,"Vienna","Austria","Quartier 21",38.9012225,-77.2652604,"Shares coordinates with 1 other booth(s)",https://www.google.com/maps?q=38.9012225,-77.2652604
medium,duplicate_coordinates,"Funland Arcade I",funland-arcade-i-seaside,"Seaside","United States","200 Broadway St",45.993245,-123.927577,"Shares coordinates with 1 other booth(s)",https://www.google.com/maps?q=45.993245,-123.927577
medium,duplicate_coordinates,"Funland Arcade II",funland-arcade-ii-seaside,"Seaside","United States","200 Broadway St",45.993245,-123.927577,"Shares coordinates with 1 other booth(s)",https://www.google.com/maps?q=45.993245,-123.927577
medium,duplicate_coordinates,"Globus",globus-kiev,"Kiev","United States","",33.959279,-98.567223,"Shares coordinates with 1 other booth(s)",https://www.google.com/maps?q=33.959279,-98.567223
medium,duplicate_coordinates,"Hidropark Metro Station",hidropark-metro-station-kiev,"Kiev","United States","",33.959279,-98.567223,"Shares coordinates with 1 other booth(s)",https://www.google.com/maps?q=33.959279,-98.567223
medium,duplicate_coordinates,"Golf 'n Stuff I",golf-n-stuff-i-norwalk,"Norwalk","United States","10555 Firestone Blvd.",33.9271199,-118.1063423,"Shares coordinates with 1 other booth(s)",https://www.google.com/maps?q=33.9271199,-118.1063423
medium,duplicate_coordinates,"Golf 'n Stuff II",golf-n-stuff-ii-norwalk,"Norwalk","United States","10555 Firestone Blvd.",33.9271199,-118.1063423,"Shares coordinates with 1 other booth(s)",https://www.google.com/maps?q=33.9271199,-118.1063423
medium,duplicate_coordinates,"Hackney Bridge",hackney-bridge-london,"London","United Kingdom","Units 1-28, Echo Building, East Bay Lane",39.8864493,-83.4482529,"Shares coordinates with 1 other booth(s)",https://www.google.com/maps?q=39.8864493,-83.4482529
medium,duplicate_coordinates,"Tate Modern",tate-modern-london,"London","United Kingdom","Bankside",39.8864493,-83.4482529,"Shares coordinates with 1 other booth(s)",https://www.google.com/maps?q=39.8864493,-83.4482529
medium,duplicate_coordinates,"Helsinki Railway Station",helsinki-railway-station-helsinki,"Helsinki","United States","Kaivokatu 1, 00100 Helsinki, Finland",60.1718729,24.9414217,"Shares coordinates with 1 other booth(s)",https://www.google.com/maps?q=60.1718729,24.9414217
medium,duplicate_coordinates,"Helsinki Railway Station II",helsinki-railway-station-ii-helsinki,"Helsinki","United States","Kaivokatu 1, 00100 Helsinki, Finland",60.1718729,24.9414217,"Shares coordinates with 1 other booth(s)",https://www.google.com/maps?q=60.1718729,24.9414217
medium,duplicate_coordinates,"Holiday Club",holiday-club-uptown,"Uptown","USA","",41.954588,-87.654726,"Shares coordinates with 1 other booth(s)",https://www.google.com/maps?q=41.954588,-87.654726
medium,duplicate_coordinates,"Holiday Club",holiday-club-chicago,"Chicago","USA","4000 N Sheridan Rd, Chicago, IL 60613, USA",41.954588,-87.654726,"Shares coordinates with 1 other booth(s)",https://www.google.com/maps?q=41.954588,-87.654726
medium,duplicate_coordinates,"Holzmarkt Marktplatz",holzmarkt-marktplatz-berlin,"Berlin","Germany","Holzmarktstraße 25",52.5115453,13.4265729,"Shares coordinates with 2 other booth(s)",https://www.google.com/maps?q=52.5115453,13.4265729
medium,duplicate_coordinates,"Holzmarkt Straße",holzmarkt-stra-e-berlin,"Berlin","Germany","Holzmarktstraße 25",52.5115453,13.4265729,"Shares coordinates with 2 other booth(s)",https://www.google.com/maps?q=52.5115453,13.4265729
medium,duplicate_coordinates,"Kater Blau Club",kater-blau-club-berlin,"Berlin","Germany","Holzmarkt Straße 25",52.5115453,13.4265729,"Shares coordinates with 2 other booth(s)",https://www.google.com/maps?q=52.5115453,13.4265729
medium,duplicate_coordinates,"Knockout",knockout-san-francisco,"San Francisco","USA","3223 Mission St",37.7451489,-122.4199626,"Shares coordinates with 2 other booth(s)",https://www.google.com/maps?q=37.7451489,-122.4199626
medium,duplicate_coordinates,"The Knockout",the-knockout-san-francisco-2,"San Francisco","USA","3223 Mission St",37.7451489,-122.4199626,"Shares coordinates with 2 other booth(s)",https://www.google.com/maps?q=37.7451489,-122.4199626
medium,duplicate_coordinates,"The Knockout",the-knockout-san-francisco-3,"San Francisco","USA","3223 Mission St",37.7451489,-122.4199626,"Shares coordinates with 2 other booth(s)",https://www.google.com/maps?q=37.7451489,-122.4199626
medium,duplicate_coordinates,"L.A. County Fair A3",l-a-county-fair-a3-pomona,"Pomona","United States","1101 W. McKinley Ave.",34.0803096,-117.7640964,"Shares coordinates with 2 other booth(s)",https://www.google.com/maps?q=34.0803096,-117.7640964
medium,duplicate_coordinates,"L.A. County Fair B4",l-a-county-fair-b4-pomona,"Pomona","United States","1101 W. McKinley Ave.",34.0803096,-117.7640964,"Shares coordinates with 2 other booth(s)",https://www.google.com/maps?q=34.0803096,-117.7640964
medium,duplicate_coordinates,"L.A. County Fair B5",l-a-county-fair-b5-pomona,"Pomona","United States","1101 W. McKinley Ave.",34.0803096,-117.7640964,"Shares coordinates with 2 other booth(s)",https://www.google.com/maps?q=34.0803096,-117.7640964
medium,duplicate_coordinates,"La Pavillon Puebla",la-pavillon-puebla-paris,"Paris","France","Av. Darcel, 75019 Paris, France",48.87724,2.379299,"Shares coordinates with 1 other booth(s)",https://www.google.com/maps?q=48.87724,2.379299
medium,duplicate_coordinates,"Le Pavillon Puebla",le-pavillon-puebla-paris,"Paris","France","Parc des Buttes Chaumont, Avenue Darcel",48.87724,2.379299,"Shares coordinates with 1 other booth(s)",https://www.google.com/maps?q=48.87724,2.379299
medium,duplicate_coordinates,"Mauerpark 1",mauerpark-1-berlin,"Berlin","Germany","Eberswalder Str. 2",52.5406668,13.4055012,"Shares coordinates with 1 other booth(s)",https://www.google.com/maps?q=52.5406668,13.4055012
medium,duplicate_coordinates,"Mauerpark 2",mauerpark-2-berlin,"Berlin","Germany","Eberswalder Str 2",52.5406668,13.4055012,"Shares coordinates with 1 other booth(s)",https://www.google.com/maps?q=52.5406668,13.4055012
medium,duplicate_coordinates,"Metro",metro-chicago,"Chicago","USA","3730 N Clark St",41.9498373,-87.6589377,"Shares coordinates with 3 other booth(s)",https://www.google.com/maps?q=41.9498373,-87.6589377
medium,duplicate_coordinates,"Smartbar",smartbar-chicago-1,"Chicago","USA","3730 N. Clark St.",41.9498373,-87.6589377,"Shares coordinates with 3 other booth(s)",https://www.google.com/maps?q=41.9498373,-87.6589377
medium,duplicate_coordinates,"Smartbar",smartbar-chicago,"Chicago","USA","3730 N. Clark St.",41.9498373,-87.6589377,"Shares coordinates with 3 other booth(s)",https://www.google.com/maps?q=41.9498373,-87.6589377
medium,duplicate_coordinates,"Smartbar",smartbar-chicago-2,"Chicago","USA","Smartbar, 3730 N Clark St, Chicago, IL 60613, USA",41.9498373,-87.6589377,"Shares coordinates with 3 other booth(s)",https://www.google.com/maps?q=41.9498373,-87.6589377
medium,duplicate_coordinates,"Metro Customer Ctr. Wilshire I",metro-customer-ctr-wilshire-i-los-angeles,"Los Angeles","United States","5301 Wilshire Blvd.",34.0621141,-118.3452986,"Shares coordinates with 1 other booth(s)",https://www.google.com/maps?q=34.0621141,-118.3452986
medium,duplicate_coordinates,"Metro Customer Ctr. Wilshire II",metro-customer-ctr-wilshire-ii-los-angeles,"Los Angeles","United States","5301 Wilshire Blvd.",34.0621141,-118.3452986,"Shares coordinates with 1 other booth(s)",https://www.google.com/maps?q=34.0621141,-118.3452986
medium,duplicate_coordinates,"Mohawk Bend",mohawk-bend-los-angeles,"Los Angeles","United States","2141 W. Sunset Blvd.",34.0788066,-118.2683992,"Shares coordinates with 3 other booth(s)",https://www.google.com/maps?q=34.0788066,-118.2683992
medium,duplicate_coordinates,"Photomatica Photo Booth Museum I",photomatica-photo-booth-museum-i-los-angeles,"Los Angeles","United States","3827 West Sunset Blvd",34.0788066,-118.2683992,"Shares coordinates with 3 other booth(s)",https://www.google.com/maps?q=34.0788066,-118.2683992
medium,duplicate_coordinates,"Photomatica Photo Booth Museum II",photomatica-photo-booth-museum-ii-los-angeles,"Los Angeles","United States","3827 West Sunset Blvd",34.0788066,-118.2683992,"Shares coordinates with 3 other booth(s)",https://www.google.com/maps?q=34.0788066,-118.2683992
medium,duplicate_coordinates,"Photomatica Photo Booth Museum III",photomatica-photo-booth-museum-iii-los-angeles,"Los Angeles","United States","3827 West Sunset Blvd",34.0788066,-118.2683992,"Shares coordinates with 3 other booth(s)",https://www.google.com/maps?q=34.0788066,-118.2683992
medium,duplicate_coordinates,"MOPA I",mopa-i-san-diego,"San Diego","United States","1649 El Prado",32.7313718,-117.149206,"Shares coordinates with 1 other booth(s)",https://www.google.com/maps?q=32.7313718,-117.149206
medium,duplicate_coordinates,"MOPA II",mopa-ii-san-diego,"San Diego","United States","1649 El Prado",32.7313718,-117.149206,"Shares coordinates with 1 other booth(s)",https://www.google.com/maps?q=32.7313718,-117.149206
medium,duplicate_coordinates,"Mus&eacute;e M&eacute;canique II",mus-eacute-e-m-eacute-canique-ii-san-francisco,"San Francisco","United States","Pier 45 at Taylor St.",37.80968,-122.4174783,"Shares coordinates with 2 other booth(s)",https://www.google.com/maps?q=37.80968,-122.4174783
medium,duplicate_coordinates,"Musée Mécanique - Analog Booth",mus-e-m-canique-analog-booth-san-francisco,"San Francisco","USA","Pier 45, Fisherman's Wharf",37.80968,-122.4174783,"Shares coordinates with 2 other booth(s)",https://www.google.com/maps?q=37.80968,-122.4174783
medium,duplicate_coordinates,"Musée Mécanique I",mus-e-m-canique-i-san-francisco,"San Francisco","United States","Pier 45 at Taylor St.",37.80968,-122.4174783,"Shares coordinates with 2 other booth(s)",https://www.google.com/maps?q=37.80968,-122.4174783
medium,duplicate_coordinates,"Musée de l'Elysée",mus-e-de-l-elys-e-lausanne,"Lausanne","United States","Pl. de la Gare 17, 1003 Lausanne, Switzerland",46.5184452,6.6238765,"Shares coordinates with 1 other booth(s)",https://www.google.com/maps?q=46.5184452,6.6238765
medium,duplicate_coordinates,"Photo Elysée",photo-elys-e-lausanne,"Lausanne","Switzerland","Lausanne",46.5184452,6.6238765,"Shares coordinates with 1 other booth(s)",https://www.google.com/maps?q=46.5184452,6.6238765
medium,duplicate_coordinates,"Northland Village Mall I",northland-village-mall-i-calgary,"Calgary","Canada","5111 Northland Drive NW",51.0988254,-114.1436977,"Shares coordinates with 1 other booth(s)",https://www.google.com/maps?q=51.0988254,-114.1436977
medium,duplicate_coordinates,"Northland Village Mall II",northland-village-mall-ii-calgary,"Calgary","Canada","5111 Northland Dr NW",51.0988254,-114.1436977,"Shares coordinates with 1 other booth(s)",https://www.google.com/maps?q=51.0988254,-114.1436977
medium,duplicate_coordinates,"Orange County Fair A3",orange-county-fair-a3-costa-mesa,"Costa Mesa","United States","88 Fair Drive",33.6684578,-117.9046211,"Shares coordinates with 5 other booth(s)",https://www.google.com/maps?q=33.6684578,-117.9046211
medium,duplicate_coordinates,"Orange County Fair A4",orange-county-fair-a4-costa-mesa,"Costa Mesa","United States","88 Fair Drive",33.6684578,-117.9046211,"Shares coordinates with 5 other booth(s)",https://www.google.com/maps?q=33.6684578,-117.9046211
medium,duplicate_coordinates,"Orange County Fair A7",orange-county-fair-a7-costa-mesa,"Costa Mesa","United States","88 Fair Drive",33.6684578,-117.9046211,"Shares coordinates with 5 other booth(s)",https://www.google.com/maps?q=33.6684578,-117.9046211
medium,duplicate_coordinates,"Orange County Fair B6",orange-county-fair-b6-costa-mesa,"Costa Mesa","United States","88 Fair Drive",33.6684578,-117.9046211,"Shares coordinates with 5 other booth(s)",https://www.google.com/maps?q=33.6684578,-117.9046211
medium,duplicate_coordinates,"Orange County Fair C2",orange-county-fair-c2-costa-mesa,"Costa Mesa","United States","88 Fair Drive",33.6684578,-117.9046211,"Shares coordinates with 5 other booth(s)",https://www.google.com/maps?q=33.6684578,-117.9046211
medium,duplicate_coordinates,"Orange County Fair C3",orange-county-fair-c3-costa-mesa,"Costa Mesa","United States","88 Fair Drive",33.6684578,-117.9046211,"Shares coordinates with 5 other booth(s)",https://www.google.com/maps?q=33.6684578,-117.9046211
medium,duplicate_coordinates,"Pacific Science Center Bldg. 3",pacific-science-center-bldg-3-seattle,"Seattle","United States","200 Second Avenue North",47.8129701,-122.3793813,"Shares coordinates with 1 other booth(s)",https://www.google.com/maps?q=47.8129701,-122.3793813
medium,duplicate_coordinates,"Pacific Science Center Bldg. 4",pacific-science-center-bldg-4-seattle,"Seattle","United States","200 Second Avenue North",47.8129701,-122.3793813,"Shares coordinates with 1 other booth(s)",https://www.google.com/maps?q=47.8129701,-122.3793813
medium,duplicate_coordinates,"Playland Arcade I",playland-arcade-i-hampton-beach,"Hampton Beach","United States","Ocean Boulevard",42.900423,-70.815614,"Shares coordinates with 1 other booth(s)",https://www.google.com/maps?q=42.900423,-70.815614
medium,duplicate_coordinates,"Playland Arcade III",playland-arcade-iii-hampton-beach,"Hampton Beach","United States","Ocean Boulevard",42.900423,-70.815614,"Shares coordinates with 1 other booth(s)",https://www.google.com/maps?q=42.900423,-70.815614
medium,duplicate_coordinates,"Playland Arcade I",playland-arcade-i-santa-monica,"Santa Monica","United States","350 Santa Monica Pier",34.0108279,-118.4956397,"Shares coordinates with 1 other booth(s)",https://www.google.com/maps?q=34.0108279,-118.4956397
medium,duplicate_coordinates,"Playland Arcade II",playland-arcade-ii-santa-monica,"Santa Monica","United States","350 Santa Monica Pier",34.0108279,-118.4956397,"Shares coordinates with 1 other booth(s)",https://www.google.com/maps?q=34.0108279,-118.4956397
medium,duplicate_coordinates,"Playland Arcade I",playland-arcade-i-santa-monica-1,"Santa Monica","USA","Playland Arcade I",34.0089972,-118.4974488,"Shares coordinates with 1 other booth(s)",https://www.google.com/maps?q=34.0089972,-118.4974488
medium,duplicate_coordinates,"Playland Arcade II",playland-arcade-ii-santa-monica-1,"Santa Monica","USA","Playland Arcade II",34.0089972,-118.4974488,"Shares coordinates with 1 other booth(s)",https://www.google.com/maps?q=34.0089972,-118.4974488
medium,duplicate_coordinates,"Pop's Bar",pop-s-bar-san-francisco,"San Francisco","United States","2800 24th Street (at York)",37.7529581,-122.4083202,"Shares coordinates with 1 other booth(s)",https://www.google.com/maps?q=37.7529581,-122.4083202
medium,duplicate_coordinates,"Pop's Bar",pop-s-bar-san-francisco-1,"San Francisco","USA","San Francisco",37.7529581,-122.4083202,"Shares coordinates with 1 other booth(s)",https://www.google.com/maps?q=37.7529581,-122.4083202
medium,duplicate_coordinates,"Pratersauna",pratersauna-vienna-2,"Vienna","Austria","Waldsteingartenstraße 135, 1020 Wien, Austria",48.2132778,16.405193,"Shares coordinates with 2 other booth(s)",https://www.google.com/maps?q=48.2132778,16.405193
medium,duplicate_coordinates,"Pratersauna",pratersauna-vienna-3,"Vienna","Austria","Vienna",48.2132778,16.405193,"Shares coordinates with 2 other booth(s)",https://www.google.com/maps?q=48.2132778,16.405193
medium,duplicate_coordinates,"Pratersauna",pratersauna-vienna-1,"Vienna","Austria","Waldsteingartenstraße 135, 1020 Wien, Austria",48.2132778,16.405193,"Shares coordinates with 2 other booth(s)",https://www.google.com/maps?q=48.2132778,16.405193
medium,duplicate_coordinates,"Rainbo Club",rainbo-club-chicago-1,"Chicago","USA","1150 N. Damen Ave.",41.902775,-87.6774815,"Shares coordinates with 3 other booth(s)",https://www.google.com/maps?q=41.902775,-87.6774815
medium,duplicate_coordinates,"Rainbo Club",rainbo-club-chicago-2,"Chicago","USA","1150 N. Damen Ave.",41.902775,-87.6774815,"Shares coordinates with 3 other booth(s)",https://www.google.com/maps?q=41.902775,-87.6774815
medium,duplicate_coordinates,"Rainbo Club",rainbo-club-wicker-park,"Wicker Park","USA","1150 N. Damen Ave.",41.902775,-87.6774815,"Shares coordinates with 3 other booth(s)",https://www.google.com/maps?q=41.902775,-87.6774815
medium,duplicate_coordinates,"Rainbo Club",rainbo-club-chicago-4,"Chicago","USA","1150 N Damen Ave",41.902775,-87.6774815,"Shares coordinates with 3 other booth(s)",https://www.google.com/maps?q=41.902775,-87.6774815
medium,duplicate_coordinates,"RAW 1",raw-1-berlin-3,"Berlin","Germany","Revaler Str. 99, 10245 Berlin, Germany",52.5076567,13.452028,"Shares coordinates with 3 other booth(s)",https://www.google.com/maps?q=52.5076567,13.452028
medium,duplicate_coordinates,"RAW 1",raw-1-berlin-2,"Berlin","Germany","Revaler Str. 99, 10245 Berlin, Germany",52.5076567,13.452028,"Shares coordinates with 3 other booth(s)",https://www.google.com/maps?q=52.5076567,13.452028
medium,duplicate_coordinates,"RAW 2",raw-2-berlin-1,"Berlin","Germany","Revaler Str. 99, 10245 Berlin, Germany",52.5076567,13.452028,"Shares coordinates with 3 other booth(s)",https://www.google.com/maps?q=52.5076567,13.452028
medium,duplicate_coordinates,"RAW 2",raw-2-berlin-2,"Berlin","Germany","Revaler Str. 99, 10245 Berlin, Germany",52.5076567,13.452028,"Shares coordinates with 3 other booth(s)",https://www.google.com/maps?q=52.5076567,13.452028
medium,duplicate_coordinates,"RAW 1",raw-1-berlin-1,"Berlin","Germany","Revaler Straße 99",52.5074638,13.4546177,"Shares coordinates with 3 other booth(s)",https://www.google.com/maps?q=52.5074638,13.4546177
medium,duplicate_coordinates,"RAW 1",raw-1-berlin,"Berlin","Germany","Revaler Straße 99",52.5074638,13.4546177,"Shares coordinates with 3 other booth(s)",https://www.google.com/maps?q=52.5074638,13.4546177
medium,duplicate_coordinates,"RAW 2",raw-2-berlin,"Berlin","Germany","Revaler Straße 99",52.5074638,13.4546177,"Shares coordinates with 3 other booth(s)",https://www.google.com/maps?q=52.5074638,13.4546177
medium,duplicate_coordinates,"RAW 3 - Color Photos",raw-3-color-photos-berlin,"Berlin","Germany","Revaler Straße 99",52.5074638,13.4546177,"Shares coordinates with 3 other booth(s)",https://www.google.com/maps?q=52.5074638,13.4546177
medium,duplicate_coordinates,"RAW 3 - Color Photos",raw-3-color-photos-berlin-1,"Berlin","Germany","Wilhelm-von-Siemens-Straße 12-14/Haus B7, 1.OG, 12277 Berlin, Germany",52.4287732,13.3784684,"Shares coordinates with 2 other booth(s)",https://www.google.com/maps?q=52.4287732,13.3784684
medium,duplicate_coordinates,"RAW 3 - Color Photos",raw-3-color-photos-berlin-3,"Berlin","Germany","Wilhelm-von-Siemens-Straße 12-14/Haus B7, 1.OG, 12277 Berlin, Germany",52.4287732,13.3784684,"Shares coordinates with 2 other booth(s)",https://www.google.com/maps?q=52.4287732,13.3784684
medium,duplicate_coordinates,"RAW 3 - Color Photos",raw-3-color-photos-berlin-2,"Berlin","Germany","Wilhelm-von-Siemens-Straße 12-14/Haus B7, 1.OG, 12277 Berlin, Germany",52.4287732,13.3784684,"Shares coordinates with 2 other booth(s)",https://www.google.com/maps?q=52.4287732,13.3784684
medium,duplicate_coordinates,"Record Exchange",record-exchange-boise,"Boise","USA","1105 W Idaho St",43.6181749,-116.2067445,"Shares coordinates with 1 other booth(s)",https://www.google.com/maps?q=43.6181749,-116.2067445
medium,duplicate_coordinates,"The Record Exchange",the-record-exchange-boise,"Boise","United States","1105 W Idaho St",43.6181749,-116.2067445,"Shares coordinates with 1 other booth(s)",https://www.google.com/maps?q=43.6181749,-116.2067445
medium,duplicate_coordinates,"Ringen",ringen-stockholm-2,"Stockholm","Sweden","Stockholm",59.315253,18.064295,"Shares coordinates with 2 other booth(s)",https://www.google.com/maps?q=59.315253,18.064295
medium,duplicate_coordinates,"Spårvägsmuseet",sp-rv-gsmuseet-stockholm-2,"Stockholm","Sweden","Stockholm",59.315253,18.064295,"Shares coordinates with 2 other booth(s)",https://www.google.com/maps?q=59.315253,18.064295
medium,duplicate_coordinates,"Stadsgårdsterminalen",stadsg-rdsterminalen-stockholm-2,"Stockholm","Sweden","Stockholm",59.315253,18.064295,"Shares coordinates with 2 other booth(s)",https://www.google.com/maps?q=59.315253,18.064295
medium,duplicate_coordinates,"Roommate Collective",roommate-collective-4,"","","",30.2674465,-97.6934554,"Shares coordinates with 5 other booth(s)",https://www.google.com/maps?q=30.2674465,-97.6934554
medium,duplicate_coordinates,"Roommate Collective",roommate-collective-2,"","","1023 Springdale Rd #6B, Austin, TX 78721, USA",30.2674465,-97.6934554,"Shares coordinates with 5 other booth(s)",https://www.google.com/maps?q=30.2674465,-97.6934554
medium,duplicate_coordinates,"Roommate Collective",roommate-collective-3,"","","",30.2674465,-97.6934554,"Shares coordinates with 5 other booth(s)",https://www.google.com/maps?q=30.2674465,-97.6934554
medium,duplicate_coordinates,"Roommate Collective",roommate-collective,"","","",30.2674465,-97.6934554,"Shares coordinates with 5 other booth(s)",https://www.google.com/maps?q=30.2674465,-97.6934554
medium,duplicate_coordinates,"Roommate Collective",roommate-collective-1,"","","",30.2674465,-97.6934554,"Shares coordinates with 5 other booth(s)",https://www.google.com/maps?q=30.2674465,-97.6934554
medium,duplicate_coordinates,"Roommate Collective",roommate-collective-5,"","","",30.2674465,-97.6934554,"Shares coordinates with 5 other booth(s)",https://www.google.com/maps?q=30.2674465,-97.6934554
medium,duplicate_coordinates,"Roxy Hotel",roxy-hotel-new-york,"New York","USA","2 Avenue of the Americas",40.7194387,-74.0049151,"Shares coordinates with 1 other booth(s)",https://www.google.com/maps?q=40.7194387,-74.0049151
medium,duplicate_coordinates,"The Roxy Hotel New York",the-roxy-hotel-new-york-new-york,"New York","USA","2 6th Avenue",40.7194387,-74.0049151,"Shares coordinates with 1 other booth(s)",https://www.google.com/maps?q=40.7194387,-74.0049151
medium,duplicate_coordinates,"Rutger Fuchsgatan 2",rutger-fuchsgatan-2-stockholm,"Stockholm","Sweden","Rutger Fuchsgatan 2",59.307637,18.078652,"Shares coordinates with 2 other booth(s)",https://www.google.com/maps?q=59.307637,18.078652
medium,duplicate_coordinates,"Rutger Fuchsgatan 2",rutger-fuchsgatan-2-stockholm-1,"Stockholm","Sweden","Rutger Fuchsgatan 2",59.307637,18.078652,"Shares coordinates with 2 other booth(s)",https://www.google.com/maps?q=59.307637,18.078652
medium,duplicate_coordinates,"Rutger Fuchsgatan 2",rutger-fuchsgatan-2-stockholm-2,"Stockholm","Sweden","Rutger Fuchsgatan 2",59.307637,18.078652,"Shares coordinates with 2 other booth(s)",https://www.google.com/maps?q=59.307637,18.078652
medium,duplicate_coordinates,"Salem Willows Arcade I",salem-willows-arcade-i-salem,"Salem","United States","167 Fort Ave",42.5350011,-70.8697729,"Shares coordinates with 1 other booth(s)",https://www.google.com/maps?q=42.5350011,-70.8697729
medium,duplicate_coordinates,"Salem Willows Arcade II",salem-willows-arcade-ii-salem,"Salem","United States","167 Fort Ave",42.5350011,-70.8697729,"Shares coordinates with 1 other booth(s)",https://www.google.com/maps?q=42.5350011,-70.8697729
medium,duplicate_coordinates,"Saturn",saturn-birmingham-2,"Birmingham","USA","200 41st St S",33.5242119,-86.7745711,"Shares coordinates with 1 other booth(s)",https://www.google.com/maps?q=33.5242119,-86.7745711
medium,duplicate_coordinates,"Saturn",saturn-birmingham,"Birmingham","USA","200 41st St S",33.5242119,-86.7745711,"Shares coordinates with 1 other booth(s)",https://www.google.com/maps?q=33.5242119,-86.7745711
medium,duplicate_coordinates,"Sch&ouml;nhauser Allee 63",sch-ouml-nhauser-allee-63-berlin,"Berlin","Germany","Sch&ouml;nhauser Allee 63",52.5459084,13.413577,"Shares coordinates with 3 other booth(s)",https://www.google.com/maps?q=52.5459084,13.413577
medium,duplicate_coordinates,"Schönhauser Allee",sch-nhauser-allee-berlin,"Berlin","Germany","Schönhauser Allee 63",52.5459084,13.413577,"Shares coordinates with 3 other booth(s)",https://www.google.com/maps?q=52.5459084,13.413577
medium,duplicate_coordinates,"Schönhauser Allee",sch-nhauser-allee-berlin-2,"Berlin","Germany","Schönhauser Allee 63",52.5459084,13.413577,"Shares coordinates with 3 other booth(s)",https://www.google.com/maps?q=52.5459084,13.413577
medium,duplicate_coordinates,"Schönhauser Allee 63",sch-nhauser-allee-63-berlin,"Berlin","Germany","Berlin",52.5459084,13.413577,"Shares coordinates with 3 other booth(s)",https://www.google.com/maps?q=52.5459084,13.413577
medium,duplicate_coordinates,"Schillingbrücke",schillingbr-cke-berlin-1,"Berlin","Germany","Schillingbrücke 3",52.5097347,13.4300459,"Shares coordinates with 2 other booth(s)",https://www.google.com/maps?q=52.5097347,13.4300459
medium,duplicate_coordinates,"Schillingbrücke",schillingbr-cke-berlin,"Berlin","Germany","Schillingbrücke 3",52.5097347,13.4300459,"Shares coordinates with 2 other booth(s)",https://www.google.com/maps?q=52.5097347,13.4300459
medium,duplicate_coordinates,"Schillingbrücke",schillingbr-cke-berlin-2,"Berlin","Germany","Schillingbrücke 3",52.5097347,13.4300459,"Shares coordinates with 2 other booth(s)",https://www.google.com/maps?q=52.5097347,13.4300459
medium,duplicate_coordinates,"Schlesisches Tor",schlesisches-tor-berlin,"Berlin","Germany","Oppelner Straße 48",52.5003224,13.4416967,"Shares coordinates with 1 other booth(s)",https://www.google.com/maps?q=52.5003224,13.4416967
medium,duplicate_coordinates,"Schlesisches Tor",schlesisches-tor-berlin-1,"Berlin","Germany","Oppelner Straße 48",52.5003224,13.4416967,"Shares coordinates with 1 other booth(s)",https://www.google.com/maps?q=52.5003224,13.4416967
medium,duplicate_coordinates,"Short Stop",short-stop-los-angeles-2,"Los Angeles","USA","Los Angeles",34.0753365,-118.2535448,"Shares coordinates with 2 other booth(s)",https://www.google.com/maps?q=34.0753365,-118.2535448
medium,duplicate_coordinates,"The Short Stop",the-short-stop-echo-park,"Echo Park","USA","",34.0753365,-118.2535448,"Shares coordinates with 2 other booth(s)",https://www.google.com/maps?q=34.0753365,-118.2535448
medium,duplicate_coordinates,"The Short Stop",the-short-stop-echo-park-1,"Echo Park","USA","",34.0753365,-118.2535448,"Shares coordinates with 2 other booth(s)",https://www.google.com/maps?q=34.0753365,-118.2535448
medium,duplicate_coordinates,"Short Stop",short-stop-los-angeles-1,"Los Angeles","USA","1455 W Sunset Blvd #3457",34.078811,-118.268408,"Shares coordinates with 2 other booth(s)",https://www.google.com/maps?q=34.078811,-118.268408
medium,duplicate_coordinates,"Short Stop",short-stop-los-angeles-ca-90026,"Los Angeles, CA 90026","USA","1455 W Sunset Blvd #3457",34.078811,-118.268408,"Shares coordinates with 2 other booth(s)",https://www.google.com/maps?q=34.078811,-118.268408
medium,duplicate_coordinates,"Short Stop",short-stop-los-angeles-ca-90026-1,"Los Angeles, CA 90026","USA","1455 W Sunset Blvd #3457",34.078811,-118.268408,"Shares coordinates with 2 other booth(s)",https://www.google.com/maps?q=34.078811,-118.268408
medium,duplicate_coordinates,"Sid Gold's Request Room",sid-gold-s-request-room-2,"","","",36.2082916,-86.7353862,"Shares coordinates with 4 other booth(s)",https://www.google.com/maps?q=36.2082916,-86.7353862
medium,duplicate_coordinates,"Sid Gold's Request Room",sid-gold-s-request-room-4,"","","",36.2082916,-86.7353862,"Shares coordinates with 4 other booth(s)",https://www.google.com/maps?q=36.2082916,-86.7353862
medium,duplicate_coordinates,"Sid Gold's Request Room",sid-gold-s-request-room-5,"","","",36.2082916,-86.7353862,"Shares coordinates with 4 other booth(s)",https://www.google.com/maps?q=36.2082916,-86.7353862
medium,duplicate_coordinates,"Sid Gold's Request Room",sid-gold-s-request-room-3,"","","",36.2082916,-86.7353862,"Shares coordinates with 4 other booth(s)",https://www.google.com/maps?q=36.2082916,-86.7353862
medium,duplicate_coordinates,"Sid Gold's Request Room",sid-gold-s-request-room,"","","",36.2082916,-86.7353862,"Shares coordinates with 4 other booth(s)",https://www.google.com/maps?q=36.2082916,-86.7353862
medium,duplicate_coordinates,"Skylark",skylark-chicago-3,"Chicago","USA","2149 S Halsted St, Chicago, IL 60608, USA",41.8527778,-87.6463889,"Shares coordinates with 3 other booth(s)",https://www.google.com/maps?q=41.8527778,-87.6463889
medium,duplicate_coordinates,"Skylark",skylark-chicago-1,"Chicago","USA","",41.8527778,-87.6463889,"Shares coordinates with 3 other booth(s)",https://www.google.com/maps?q=41.8527778,-87.6463889
medium,duplicate_coordinates,"Skylark",skylark-chicago-2,"Chicago","USA","",41.8527778,-87.6463889,"Shares coordinates with 3 other booth(s)",https://www.google.com/maps?q=41.8527778,-87.6463889
medium,duplicate_coordinates,"Skylark",skylark-pilsen,"Pilsen","USA","2149 S Halsted St, Chicago, IL 60608, USA",41.8527778,-87.6463889,"Shares coordinates with 3 other booth(s)",https://www.google.com/maps?q=41.8527778,-87.6463889
medium,duplicate_coordinates,"Skylark",skylark-chicago-4,"Chicago","USA","2149 S Halsted St",41.8527754,-87.6462829,"Shares coordinates with 1 other booth(s)",https://www.google.com/maps?q=41.8527754,-87.6462829
medium,duplicate_coordinates,"Skylark",skylark-chicago,"Chicago","USA","2149 S Halsted St",41.8527754,-87.6462829,"Shares coordinates with 1 other booth(s)",https://www.google.com/maps?q=41.8527754,-87.6462829
medium,duplicate_coordinates,"Skylon I",skylon-i-niagara-falls,"Niagara Falls","United States","5200 Robinson Street",43.0851889,-79.0796872,"Shares coordinates with 1 other booth(s)",https://www.google.com/maps?q=43.0851889,-79.0796872
medium,duplicate_coordinates,"Skylon III",skylon-iii-niagara-falls,"Niagara Falls","United States","5200 Robinson Street",43.0851889,-79.0796872,"Shares coordinates with 1 other booth(s)",https://www.google.com/maps?q=43.0851889,-79.0796872
medium,duplicate_coordinates,"Snug Harbor",snug-harbor-charlotte-1,"Charlotte","USA","Charlotte",35.2199989,-80.8133007,"Shares coordinates with 1 other booth(s)",https://www.google.com/maps?q=35.2199989,-80.8133007
medium,duplicate_coordinates,"Snug Harbor",snug-harbor-charlotte,"Charlotte","United States","1228 Gordon St, Charlotte, NC 28205, USA",35.2199989,-80.8133007,"Shares coordinates with 1 other booth(s)",https://www.google.com/maps?q=35.2199989,-80.8133007
medium,duplicate_coordinates,"Spårvägsmuseet",sp-rv-gsmuseet-stockholm-1,"Stockholm","Sweden","Gasverkstorget 1, 115 42 Stockholm, Sweden",59.3579998,18.0917627,"Shares coordinates with 1 other booth(s)",https://www.google.com/maps?q=59.3579998,18.0917627
medium,duplicate_coordinates,"Spårvägsmuseet",sp-rv-gsmuseet-stockholm,"Stockholm","Sweden","",59.3579998,18.0917627,"Shares coordinates with 1 other booth(s)",https://www.google.com/maps?q=59.3579998,18.0917627
medium,duplicate_coordinates,"St. Louis Centre I",st-louis-centre-i-st-louis,"St. Louis","United States","420 N. 6th Street",38.6289742,-90.1897394,"Shares coordinates with 1 other booth(s)",https://www.google.com/maps?q=38.6289742,-90.1897394
medium,duplicate_coordinates,"St. Louis Centre II",st-louis-centre-ii-st-louis,"St. Louis","United States","420 N. 6th Street",38.6289742,-90.1897394,"Shares coordinates with 1 other booth(s)",https://www.google.com/maps?q=38.6289742,-90.1897394
medium,duplicate_coordinates,"Stadsgårdsterminalen",stadsg-rdsterminalen-stockholm,"Stockholm","Sweden","",59.319416,18.0775996,"Shares coordinates with 1 other booth(s)",https://www.google.com/maps?q=59.319416,18.0775996
medium,duplicate_coordinates,"Stadsgårdsterminalen",stadsg-rdsterminalen-stockholm-1,"Stockholm","Sweden","",59.319416,18.0775996,"Shares coordinates with 1 other booth(s)",https://www.google.com/maps?q=59.319416,18.0775996
medium,duplicate_coordinates,"Strandbar Herrmann",strandbar-herrmann-vienna-1,"Vienna","Austria","Strandbar Herrmann",48.2118773,16.3857175,"Shares coordinates with 2 other booth(s)",https://www.google.com/maps?q=48.2118773,16.3857175
medium,duplicate_coordinates,"Strandbar Herrmann",strandbar-herrmann-vienna-2,"Vienna","Austria","Vienna",48.2118773,16.3857175,"Shares coordinates with 2 other booth(s)",https://www.google.com/maps?q=48.2118773,16.3857175
medium,duplicate_coordinates,"Strandbar Herrmann",strandbar-herrmann-vienna,"Vienna","Austria","Herrmannpark, 1030 Wien, Austria",48.2118773,16.3857175,"Shares coordinates with 2 other booth(s)",https://www.google.com/maps?q=48.2118773,16.3857175
medium,duplicate_coordinates,"Tate Modern",tate-modern-london-1,"London","United Kingdom","London",51.529432,0.018795,"Shares coordinates with 2 other booth(s)",https://www.google.com/maps?q=51.529432,0.018795
medium,duplicate_coordinates,"The Hoxton Holborn",the-hoxton-holborn-london-2,"London","United Kingdom","London",51.529432,0.018795,"Shares coordinates with 2 other booth(s)",https://www.google.com/maps?q=51.529432,0.018795
medium,duplicate_coordinates,"The Standard",the-standard-london-1,"London","United Kingdom","London",51.529432,0.018795,"Shares coordinates with 2 other booth(s)",https://www.google.com/maps?q=51.529432,0.018795
medium,duplicate_coordinates,"The Blind Donkey",the-blind-donkey-long-beach-3,"Long Beach","USA","",33.7690476,-118.1865789,"Shares coordinates with 5 other booth(s)",https://www.google.com/maps?q=33.7690476,-118.1865789
medium,duplicate_coordinates,"The Blind Donkey",the-blind-donkey-long-beach-ca-90802-1,"Long Beach, CA 90802","USA","149 Linden Ave, Long Beach, CA 90802, USA",33.7690476,-118.1865789,"Shares coordinates with 5 other booth(s)",https://www.google.com/maps?q=33.7690476,-118.1865789
medium,duplicate_coordinates,"The Blind Donkey",the-blind-donkey-long-beach-ca-90802,"Long Beach, CA 90802","USA","149 Linden Ave",33.7690476,-118.1865789,"Shares coordinates with 5 other booth(s)",https://www.google.com/maps?q=33.7690476,-118.1865789
medium,duplicate_coordinates,"The Blind Donkey",the-blind-donkey-long-beach-1,"Long Beach","USA","",33.7690476,-118.1865789,"Shares coordinates with 5 other booth(s)",https://www.google.com/maps?q=33.7690476,-118.1865789
medium,duplicate_coordinates,"The Blind Donkey",the-blind-donkey-long-beach,"Long Beach","USA","149 Linden Ave",33.7690476,-118.1865789,"Shares coordinates with 5 other booth(s)",https://www.google.com/maps?q=33.7690476,-118.1865789
medium,duplicate_coordinates,"The Blind Donkey",the-blind-donkey-long-beach-2,"Long Beach","USA","149 Linden Ave",33.7690476,-118.1865789,"Shares coordinates with 5 other booth(s)",https://www.google.com/maps?q=33.7690476,-118.1865789
medium,duplicate_coordinates,"The Blind Donkey",the-blind-donkey-long-beach-4,"Long Beach","USA","Long Beach",33.7700504,-118.1937395,"Shares coordinates with 1 other booth(s)",https://www.google.com/maps?q=33.7700504,-118.1937395
medium,duplicate_coordinates,"The Hawk",the-hawk-long-beach-2,"Long Beach","USA","Long Beach",33.7700504,-118.1937395,"Shares coordinates with 1 other booth(s)",https://www.google.com/maps?q=33.7700504,-118.1937395
medium,duplicate_coordinates,"The Blue Room",the-blue-room-nashville,"Nashville","United States","623 7th Ave South",36.1521972,-86.7781899,"Shares coordinates with 1 other booth(s)",https://www.google.com/maps?q=36.1521972,-86.7781899
medium,duplicate_coordinates,"Third Man Records",third-man-records-nashville,"Nashville","USA","623 7th Ave S",36.1521972,-86.7781899,"Shares coordinates with 1 other booth(s)",https://www.google.com/maps?q=36.1521972,-86.7781899
medium,duplicate_coordinates,"The Breakfast Club Canary Wharf",the-breakfast-club-canary-wharf-london,"London","United Kingdom","1 Crossrail Pl",51.5072178,-0.1275862,"Shares coordinates with 2 other booth(s)",https://www.google.com/maps?q=51.5072178,-0.1275862
medium,duplicate_coordinates,"The Cinema at Selfridges",the-cinema-at-selfridges-london-1,"London","United Kingdom","London",51.5072178,-0.1275862,"Shares coordinates with 2 other booth(s)",https://www.google.com/maps?q=51.5072178,-0.1275862
medium,duplicate_coordinates,"The Standard",the-standard-london,"London","United Kingdom","10 Argyle Street",51.5072178,-0.1275862,"Shares coordinates with 2 other booth(s)",https://www.google.com/maps?q=51.5072178,-0.1275862
medium,duplicate_coordinates,"The Charleston",the-charleston-chicago-1,"Chicago","USA","",41.9198996,-87.6803052,"Shares coordinates with 2 other booth(s)",https://www.google.com/maps?q=41.9198996,-87.6803052
medium,duplicate_coordinates,"The Charleston",the-charleston-chicago-2,"Chicago","USA","",41.9198996,-87.6803052,"Shares coordinates with 2 other booth(s)",https://www.google.com/maps?q=41.9198996,-87.6803052
medium,duplicate_coordinates,"The Charleston",the-charleston-chicago-3,"Chicago","USA","",41.9198996,-87.6803052,"Shares coordinates with 2 other booth(s)",https://www.google.com/maps?q=41.9198996,-87.6803052
medium,duplicate_coordinates,"The Flat Iron",the-flat-iron-chicago,"Chicago","USA","",41.9100396,-87.6766859,"Shares coordinates with 2 other booth(s)",https://www.google.com/maps?q=41.9100396,-87.6766859
medium,duplicate_coordinates,"The Flat Iron",the-flat-iron-chicago-2,"Chicago","USA","",41.9100396,-87.6766859,"Shares coordinates with 2 other booth(s)",https://www.google.com/maps?q=41.9100396,-87.6766859
medium,duplicate_coordinates,"The Flat Iron",the-flat-iron-chicago-1,"Chicago","USA","",41.9100396,-87.6766859,"Shares coordinates with 2 other booth(s)",https://www.google.com/maps?q=41.9100396,-87.6766859
medium,duplicate_coordinates,"The Hawk",the-hawk-long-beach,"Long Beach","USA","468 W Anaheim St",33.7822894,-118.1973545,"Shares coordinates with 3 other booth(s)",https://www.google.com/maps?q=33.7822894,-118.1973545
medium,duplicate_coordinates,"The Hawk",the-hawk-long-beach-ca-90813-1,"Long Beach, CA 90813","USA","468 W Anaheim St",33.7822894,-118.1973545,"Shares coordinates with 3 other booth(s)",https://www.google.com/maps?q=33.7822894,-118.1973545
medium,duplicate_coordinates,"The Hawk",the-hawk-long-beach-1,"Long Beach","USA","468 W Anaheim St",33.7822894,-118.1973545,"Shares coordinates with 3 other booth(s)",https://www.google.com/maps?q=33.7822894,-118.1973545
medium,duplicate_coordinates,"The Hawk",the-hawk-long-beach-ca-90813,"Long Beach, CA 90813","USA","468 W Anaheim St",33.7822894,-118.1973545,"Shares coordinates with 3 other booth(s)",https://www.google.com/maps?q=33.7822894,-118.1973545
medium,duplicate_coordinates,"The Hoxton Holborn",the-hoxton-holborn-london-1,"London","United Kingdom","199-206 High Holborn",39.8816425,-83.456147,"Shares coordinates with 1 other booth(s)",https://www.google.com/maps?q=39.8816425,-83.456147
medium,duplicate_coordinates,"The Hoxton Holborn",the-hoxton-holborn-london,"London","United Kingdom","199-206 High Holborn",39.8816425,-83.456147,"Shares coordinates with 1 other booth(s)",https://www.google.com/maps?q=39.8816425,-83.456147
medium,duplicate_coordinates,"The Hoxton Vienna Basement",the-hoxton-vienna-basement-vienna-2,"Vienna","Austria","Vienna",48.20117,16.3811789,"Shares coordinates with 2 other booth(s)",https://www.google.com/maps?q=48.20117,16.3811789
medium,duplicate_coordinates,"The Hoxton Vienna Basement",the-hoxton-vienna-basement-vienna-1,"Vienna","Austria","",48.20117,16.3811789,"Shares coordinates with 2 other booth(s)",https://www.google.com/maps?q=48.20117,16.3811789
medium,duplicate_coordinates,"The Hoxton Vienna Basement",the-hoxton-vienna-basement-vienna,"Vienna","Austria","The Hoxton Vienna Basement",48.20117,16.3811789,"Shares coordinates with 2 other booth(s)",https://www.google.com/maps?q=48.20117,16.3811789
medium,duplicate_coordinates,"The Hunt Vintage",the-hunt-vintage-los-angeles-2,"Los Angeles","USA","1554 W Sunset Blvd",34.0522,-118.2437,"Shares coordinates with 1 other booth(s)",https://www.google.com/maps?q=34.0522,-118.2437
medium,duplicate_coordinates,"The Short Stop",the-short-stop-los-angeles,"Los Angeles","USA","1455 W Sunset Blvd",34.0522,-118.2437,"Shares coordinates with 1 other booth(s)",https://www.google.com/maps?q=34.0522,-118.2437
medium,duplicate_coordinates,"The Lodge at Bryant Park",the-lodge-at-bryant-park-4,"","","",40.7535367,-73.9829529,"Shares coordinates with 4 other booth(s)",https://www.google.com/maps?q=40.7535367,-73.9829529
medium,duplicate_coordinates,"The Lodge at Bryant Park",the-lodge-at-bryant-park-3,"","","",40.7535367,-73.9829529,"Shares coordinates with 4 other booth(s)",https://www.google.com/maps?q=40.7535367,-73.9829529
medium,duplicate_coordinates,"The Lodge at Bryant Park",the-lodge-at-bryant-park-1,"","","",40.7535367,-73.9829529,"Shares coordinates with 4 other booth(s)",https://www.google.com/maps?q=40.7535367,-73.9829529
medium,duplicate_coordinates,"The Lodge at Bryant Park",the-lodge-at-bryant-park,"","","",40.7535367,-73.9829529,"Shares coordinates with 4 other booth(s)",https://www.google.com/maps?q=40.7535367,-73.9829529
medium,duplicate_coordinates,"The Lodge at Bryant Park",the-lodge-at-bryant-park-5,"","","",40.7535367,-73.9829529,"Shares coordinates with 4 other booth(s)",https://www.google.com/maps?q=40.7535367,-73.9829529
medium,duplicate_coordinates,"The Phoenix",the-phoenix-los-angeles-ca-90048,"Los Angeles, CA 90048","USA","8480 W 3rd St, Los Angeles, CA 90048, USA",34.0731137,-118.3758828,"Shares coordinates with 1 other booth(s)",https://www.google.com/maps?q=34.0731137,-118.3758828
medium,duplicate_coordinates,"The Phoenix",the-phoenix-los-angeles-ca-90048-1,"Los Angeles, CA 90048","USA","8480 W 3rd St, Los Angeles, CA 90048, USA",34.0731137,-118.3758828,"Shares coordinates with 1 other booth(s)",https://www.google.com/maps?q=34.0731137,-118.3758828
medium,duplicate_coordinates,"The Photo Booth Museum",the-photo-booth-museum-san-francisco,"San Francisco","United States","",37.76456,-122.4320153,"Shares coordinates with 3 other booth(s)",https://www.google.com/maps?q=37.76456,-122.4320153
medium,duplicate_coordinates,"The Photo Booth Museum",the-photo-booth-museum-san-francisco-1,"San Francisco","United States","",37.76456,-122.4320153,"Shares coordinates with 3 other booth(s)",https://www.google.com/maps?q=37.76456,-122.4320153
medium,duplicate_coordinates,"The Photo Booth Museum",the-photo-booth-museum-san-francisco-2,"San Francisco","USA","2275 Market St, San Francisco, CA 94114, USA",37.76456,-122.4320153,"Shares coordinates with 3 other booth(s)",https://www.google.com/maps?q=37.76456,-122.4320153
medium,duplicate_coordinates,"The Photo Booth Museum",the-photo-booth-museum-san-francisco-3,"San Francisco","USA","2275 Market St",37.76456,-122.4320153,"Shares coordinates with 3 other booth(s)",https://www.google.com/maps?q=37.76456,-122.4320153
medium,duplicate_coordinates,"The Photo Booth Museum",the-photo-booth-museum-los-angeles-1,"Los Angeles","United States","",34.0916745,-118.2793143,"Shares coordinates with 1 other booth(s)",https://www.google.com/maps?q=34.0916745,-118.2793143
medium,duplicate_coordinates,"The Photo Booth Museum",the-photo-booth-museum-los-angeles,"Los Angeles","United States","",34.0916745,-118.2793143,"Shares coordinates with 1 other booth(s)",https://www.google.com/maps?q=34.0916745,-118.2793143
medium,duplicate_coordinates,"The Social Hub Vienna",the-social-hub-vienna-vienna-1,"Vienna","Austria","Nordbahnstraße 47, 1020 Wien, Austria",48.2228617,16.3900071,"Shares coordinates with 2 other booth(s)",https://www.google.com/maps?q=48.2228617,16.3900071
medium,duplicate_coordinates,"The Social Hub Vienna",the-social-hub-vienna-vienna-2,"Vienna","Austria","Vienna",48.2228617,16.3900071,"Shares coordinates with 2 other booth(s)",https://www.google.com/maps?q=48.2228617,16.3900071
medium,duplicate_coordinates,"The Social Hub Vienna",the-social-hub-vienna-vienna,"Vienna","Austria","Nordbahnstraße 47, 1020 Wien, Austria",48.2228617,16.3900071,"Shares coordinates with 2 other booth(s)",https://www.google.com/maps?q=48.2228617,16.3900071
medium,duplicate_coordinates,"Thee Parkside",thee-parkside-san-francisco-4,"San Francisco","USA","1600 17th St",37.7651653,-122.3998925,"Shares coordinates with 3 other booth(s)",https://www.google.com/maps?q=37.7651653,-122.3998925
medium,duplicate_coordinates,"Thee Parkside",thee-parkside-san-francisco-3,"San Francisco","USA","1600 17th St",37.7651653,-122.3998925,"Shares coordinates with 3 other booth(s)",https://www.google.com/maps?q=37.7651653,-122.3998925
medium,duplicate_coordinates,"Thee Parkside",thee-parkside-san-francisco,"San Francisco","USA","1600 17th St",37.7651653,-122.3998925,"Shares coordinates with 3 other booth(s)",https://www.google.com/maps?q=37.7651653,-122.3998925
medium,duplicate_coordinates,"Thee Parkside",thee-parkside-san-francisco-2,"San Francisco","USA","1600 17th St",37.7651653,-122.3998925,"Shares coordinates with 3 other booth(s)",https://www.google.com/maps?q=37.7651653,-122.3998925
medium,duplicate_coordinates,"Tiny's Hi-Dive",tiny-s-hi-dive-los-angeles-ca-90064-1,"Los Angeles, CA 90064","USA","12012 W Pico Blvd",34.0295316,-118.4494128,"Shares coordinates with 4 other booth(s)",https://www.google.com/maps?q=34.0295316,-118.4494128
medium,duplicate_coordinates,"Tiny's Hi-Dive",tiny-s-hi-dive-los-angeles-ca-90064,"Los Angeles, CA 90064","USA","12012 W Pico Blvd",34.0295316,-118.4494128,"Shares coordinates with 4 other booth(s)",https://www.google.com/maps?q=34.0295316,-118.4494128
medium,duplicate_coordinates,"Tiny's Hi-Dive",tiny-s-hi-dive-los-angeles-1,"Los Angeles","USA","12012 W Pico Blvd",34.0295316,-118.4494128,"Shares coordinates with 4 other booth(s)",https://www.google.com/maps?q=34.0295316,-118.4494128
medium,duplicate_coordinates,"Tiny's Hi-Dive",tiny-s-hi-dive-los-angeles-2,"Los Angeles","USA","Los Angeles",34.0295316,-118.4494128,"Shares coordinates with 4 other booth(s)",https://www.google.com/maps?q=34.0295316,-118.4494128
medium,duplicate_coordinates,"Tiny’s Hi-Dive",tiny-s-hi-dive-los-angeles,"Los Angeles","USA","12012 W Pico Blvd",34.0295316,-118.4494128,"Shares coordinates with 4 other booth(s)",https://www.google.com/maps?q=34.0295316,-118.4494128